{
  "AW": {
    "callingCode": "+297",
    "flag": "ğŸ‡¦ğŸ‡¼",
    "name": "Aruba"
  },
  "AF": {
    "callingCode": "+93",
    "flag": "ğŸ‡¦ğŸ‡«",
    "name": "Afghanistan"
  },
  "AO": {
    "callingCode": "+244",
    "flag": "ğŸ‡¦ğŸ‡´",
    "name": "Angola"
  },
  "AI": {
    "callingCode": "+1264",
    "flag": "ğŸ‡¦ğŸ‡®",
    "name": "Anguilla"
  },
  "AX": {
    "callingCode": "+358",
    "flag": "ğŸ‡¦ğŸ‡½",
    "name": "Ã…land Islands"
  },
  "AL": {
    "callingCode": "+355",
    "flag": "ğŸ‡¦ğŸ‡±",
    "name": "Albania"
  },
  "AD": {
    "callingCode": "+376",
    "flag": "ğŸ‡¦ğŸ‡©",
    "name": "Andorra"
  },
  "AE": {
    "callingCode": "+971",
    "flag": "ğŸ‡¦ğŸ‡ª",
    "name": "United Arab Emirates"
  },
  "AR": {
    "callingCode": "+54",
    "flag": "ğŸ‡¦ğŸ‡·",
    "name": "Argentina"
  },
  "AM": {
    "callingCode": "+374",
    "flag": "ğŸ‡¦ğŸ‡²",
    "name": "Armenia"
  },
  "AS": {
    "callingCode": "+1684",
    "flag": "ğŸ‡¦ğŸ‡¸",
    "name": "American Samoa"
  },
  "AG": {
    "callingCode": "+1268",
    "flag": "ğŸ‡¦ğŸ‡¬",
    "name": "Antigua and Barbuda"
  },
  "AU": {
    "callingCode": "+61",
    "flag": "ğŸ‡¦ğŸ‡º",
    "name": "Australia"
  },
  "AT": {
    "callingCode": "+43",
    "flag": "ğŸ‡¦ğŸ‡¹",
    "name": "Austria"
  },
  "AZ": {
    "callingCode": "+994",
    "flag": "ğŸ‡¦ğŸ‡¿",
    "name": "Azerbaijan"
  },
  "BI": {
    "callingCode": "+257",
    "flag": "ğŸ‡§ğŸ‡®",
    "name": "Burundi"
  },
  "BE": {
    "callingCode": "+32",
    "flag": "ğŸ‡§ğŸ‡ª",
    "name": "Belgium"
  },
  "BJ": {
    "callingCode": "+229",
    "flag": "ğŸ‡§ğŸ‡¯",
    "name": "Benin"
  },
  "BF": {
    "callingCode": "+226",
    "flag": "ğŸ‡§ğŸ‡«",
    "name": "Burkina Faso"
  },
  "BD": {
    "callingCode": "+880",
    "flag": "ğŸ‡§ğŸ‡©",
    "name": "Bangladesh"
  },
  "BG": {
    "callingCode": "+359",
    "flag": "ğŸ‡§ğŸ‡¬",
    "name": "Bulgaria"
  },
  "BH": {
    "callingCode": "+973",
    "flag": "ğŸ‡§ğŸ‡­",
    "name": "Bahrain"
  },
  "BS": {
    "callingCode": "+1242",
    "flag": "ğŸ‡§ğŸ‡¸",
    "name": "Bahamas"
  },
  "BA": {
    "callingCode": "+387",
    "flag": "ğŸ‡§ğŸ‡¦",
    "name": "Bosnia and Herzegovina"
  },
  "BL": {
    "callingCode": "+590",
    "flag": "ğŸ‡§ğŸ‡±",
    "name": "Saint BarthÃ©lemy"
  },
  "BY": {
    "callingCode": "+375",
    "flag": "ğŸ‡§ğŸ‡¾",
    "name": "Belarus"
  },
  "BZ": {
    "callingCode": "+501",
    "flag": "ğŸ‡§ğŸ‡¿",
    "name": "Belize"
  },
  "BM": {
    "callingCode": "+1441",
    "flag": "ğŸ‡§ğŸ‡²",
    "name": "Bermuda"
  },
  "BO": {
    "callingCode": "+591",
    "flag": "ğŸ‡§ğŸ‡´",
    "name": "Bolivia"
  },
  "BR": {
    "callingCode": "+55",
    "flag": "ğŸ‡§ğŸ‡·",
    "name": "Brazil"
  },
  "BB": {
    "callingCode": "+1246",
    "flag": "ğŸ‡§ğŸ‡§",
    "name": "Barbados"
  },
  "BN": {
    "callingCode": "+673",
    "flag": "ğŸ‡§ğŸ‡³",
    "name": "Brunei"
  },
  "BT": {
    "callingCode": "+975",
    "flag": "ğŸ‡§ğŸ‡¹",
    "name": "Bhutan"
  },
  "BW": {
    "callingCode": "+267",
    "flag": "ğŸ‡§ğŸ‡¼",
    "name": "Botswana"
  },
  "CF": {
    "callingCode": "+236",
    "flag": "ğŸ‡¨ğŸ‡«",
    "name": "Central African Republic"
  },
  "CA": {
    "callingCode": "+1",
    "flag": "ğŸ‡¨ğŸ‡¦",
    "name": "Canada"
  },
  "CC": {
    "callingCode": "+61",
    "flag": "ğŸ‡¨ğŸ‡¨",
    "name": "Cocos (Keeling) Islands"
  },
  "CH": {
    "callingCode": "+41",
    "flag": "ğŸ‡¨ğŸ‡­",
    "name": "Switzerland"
  },
  "CL": {
    "callingCode": "+56",
    "flag": "ğŸ‡¨ğŸ‡±",
    "name": "Chile"
  },
  "CN": {
    "callingCode": "+86",
    "flag": "ğŸ‡¨ğŸ‡³",
    "name": "China"
  },
  "CI": {
    "callingCode": "+225",
    "flag": "ğŸ‡¨ğŸ‡®",
    "name": "Ivory Coast"
  },
  "CM": {
    "callingCode": "+237",
    "flag": "ğŸ‡¨ğŸ‡²",
    "name": "Cameroon"
  },
  "CD": {
    "callingCode": "+243",
    "flag": "ğŸ‡¨ğŸ‡©",
    "name": "DR Congo"
  },
  "CG": {
    "callingCode": "+242",
    "flag": "ğŸ‡¨ğŸ‡¬",
    "name": "Republic of the Congo"
  },
  "CK": {
    "callingCode": "+682",
    "flag": "ğŸ‡¨ğŸ‡°",
    "name": "Cook Islands"
  },
  "CO": {
    "callingCode": "+57",
    "flag": "ğŸ‡¨ğŸ‡´",
    "name": "Colombia"
  },
  "KM": {
    "callingCode": "+269",
    "flag": "ğŸ‡°ğŸ‡²",
    "name": "Comoros"
  },
  "CV": {
    "callingCode": "+238",
    "flag": "ğŸ‡¨ğŸ‡»",
    "name": "Cape Verde"
  },
  "CR": {
    "callingCode": "+506",
    "flag": "ğŸ‡¨ğŸ‡·",
    "name": "Costa Rica"
  },
  "CU": {
    "callingCode": "+53",
    "flag": "ğŸ‡¨ğŸ‡º",
    "name": "Cuba"
  },
  "CW": {
    "callingCode": "+5999",
    "flag": "ğŸ‡¨ğŸ‡¼",
    "name": "CuraÃ§ao"
  },
  "CX": {
    "callingCode": "+61",
    "flag": "ğŸ‡¨ğŸ‡½",
    "name": "Christmas Island"
  },
  "KY": {
    "callingCode": "+1345",
    "flag": "ğŸ‡°ğŸ‡¾",
    "name": "Cayman Islands"
  },
  "CY": {
    "callingCode": "+357",
    "flag": "ğŸ‡¨ğŸ‡¾",
    "name": "Cyprus"
  },
  "CZ": {
    "callingCode": "+420",
    "flag": "ğŸ‡¨ğŸ‡¿",
    "name": "Czechia"
  },
  "DE": {
    "callingCode": "+49",
    "flag": "ğŸ‡©ğŸ‡ª",
    "name": "Germany"
  },
  "DJ": {
    "callingCode": "+253",
    "flag": "ğŸ‡©ğŸ‡¯",
    "name": "Djibouti"
  },
  "DM": {
    "callingCode": "+1767",
    "flag": "ğŸ‡©ğŸ‡²",
    "name": "Dominica"
  },
  "DK": {
    "callingCode": "+45",
    "flag": "ğŸ‡©ğŸ‡°",
    "name": "Denmark"
  },
  "DO": {
    "callingCode": "+1809",
    "flag": "ğŸ‡©ğŸ‡´",
    "name": "Dominican Republic"
  },
  "DZ": {
    "callingCode": "+213",
    "flag": "ğŸ‡©ğŸ‡¿",
    "name": "Algeria"
  },
  "EC": {
    "callingCode": "+593",
    "flag": "ğŸ‡ªğŸ‡¨",
    "name": "Ecuador"
  },
  "EG": {
    "callingCode": "+20",
    "flag": "ğŸ‡ªğŸ‡¬",
    "name": "Egypt"
  },
  "ER": {
    "callingCode": "+291",
    "flag": "ğŸ‡ªğŸ‡·",
    "name": "Eritrea"
  },
  "EH": {
    "callingCode": "+212",
    "flag": "ğŸ‡ªğŸ‡­",
    "name": "Western Sahara"
  },
  "ES": {
    "callingCode": "+34",
    "flag": "ğŸ‡ªğŸ‡¸",
    "name": "Spain"
  },
  "EE": {
    "callingCode": "+372",
    "flag": "ğŸ‡ªğŸ‡ª",
    "name": "Estonia"
  },
  "ET": {
    "callingCode": "+251",
    "flag": "ğŸ‡ªğŸ‡¹",
    "name": "Ethiopia"
  },
  "FI": {
    "callingCode": "+358",
    "flag": "ğŸ‡«ğŸ‡®",
    "name": "Finland"
  },
  "FJ": {
    "callingCode": "+679",
    "flag": "ğŸ‡«ğŸ‡¯",
    "name": "Fiji"
  },
  "FK": {
    "callingCode": "+500",
    "flag": "ğŸ‡«ğŸ‡°",
    "name": "Falkland Islands"
  },
  "FR": {
    "callingCode": "+33",
    "flag": "ğŸ‡«ğŸ‡·",
    "name": "France"
  },
  "FO": {
    "callingCode": "+298",
    "flag": "ğŸ‡«ğŸ‡´",
    "name": "Faroe Islands"
  },
  "FM": {
    "callingCode": "+691",
    "flag": "ğŸ‡«ğŸ‡²",
    "name": "Micronesia"
  },
  "GA": {
    "callingCode": "+241",
    "flag": "ğŸ‡¬ğŸ‡¦",
    "name": "Gabon"
  },
  "GB": {
    "callingCode": "+44",
    "flag": "ğŸ‡¬ğŸ‡§",
    "name": "United Kingdom"
  },
  "GE": {
    "callingCode": "+995",
    "flag": "ğŸ‡¬ğŸ‡ª",
    "name": "Georgia"
  },
  "GG": {
    "callingCode": "+44",
    "flag": "ğŸ‡¬ğŸ‡¬",
    "name": "Guernsey"
  },
  "GH": {
    "callingCode": "+233",
    "flag": "ğŸ‡¬ğŸ‡­",
    "name": "Ghana"
  },
  "GI": {
    "callingCode": "+350",
    "flag": "ğŸ‡¬ğŸ‡®",
    "name": "Gibraltar"
  },
  "GN": {
    "callingCode": "+224",
    "flag": "ğŸ‡¬ğŸ‡³",
    "name": "Guinea"
  },
  "GP": {
    "callingCode": "+590",
    "flag": "ğŸ‡¬ğŸ‡µ",
    "name": "Guadeloupe"
  },
  "GM": {
    "callingCode": "+220",
    "flag": "ğŸ‡¬ğŸ‡²",
    "name": "Gambia"
  },
  "GW": {
    "callingCode": "+245",
    "flag": "ğŸ‡¬ğŸ‡¼",
    "name": "Guinea-Bissau"
  },
  "GQ": {
    "callingCode": "+240",
    "flag": "ğŸ‡¬ğŸ‡¶",
    "name": "Equatorial Guinea"
  },
  "GR": {
    "callingCode": "+30",
    "flag": "ğŸ‡¬ğŸ‡·",
    "name": "Greece"
  },
  "GD": {
    "callingCode": "+1473",
    "flag": "ğŸ‡¬ğŸ‡©",
    "name": "Grenada"
  },
  "GL": {
    "callingCode": "+299",
    "flag": "ğŸ‡¬ğŸ‡±",
    "name": "Greenland"
  },
  "GT": {
    "callingCode": "+502",
    "flag": "ğŸ‡¬ğŸ‡¹",
    "name": "Guatemala"
  },
  "GF": {
    "callingCode": "+594",
    "flag": "ğŸ‡¬ğŸ‡«",
    "name": "French Guiana"
  },
  "GU": {
    "callingCode": "+1671",
    "flag": "ğŸ‡¬ğŸ‡º",
    "name": "Guam"
  },
  "GY": {
    "callingCode": "+592",
    "flag": "ğŸ‡¬ğŸ‡¾",
    "name": "Guyana"
  },
  "HK": {
    "callingCode": "+852",
    "flag": "ğŸ‡­ğŸ‡°",
    "name": "Hong Kong"
  },
  "HN": {
    "callingCode": "+504",
    "flag": "ğŸ‡­ğŸ‡³",
    "name": "Honduras"
  },
  "HR": {
    "callingCode": "+385",
    "flag": "ğŸ‡­ğŸ‡·",
    "name": "Croatia"
  },
  "HT": {
    "callingCode": "+509",
    "flag": "ğŸ‡­ğŸ‡¹",
    "name": "Haiti"
  },
  "HU": {
    "callingCode": "+36",
    "flag": "ğŸ‡­ğŸ‡º",
    "name": "Hungary"
  },
  "ID": {
    "callingCode": "+62",
    "flag": "ğŸ‡®ğŸ‡©",
    "name": "Indonesia"
  },
  "IM": {
    "callingCode": "+44",
    "flag": "ğŸ‡®ğŸ‡²",
    "name": "Isle of Man"
  },
  "IN": {
    "callingCode": "+91",
    "flag": "ğŸ‡®ğŸ‡³",
    "name": "India"
  },
  "IO": {
    "callingCode": "+246",
    "flag": "ğŸ‡®ğŸ‡´",
    "name": "British Indian Ocean Territory"
  },
  "IE": {
    "callingCode": "+353",
    "flag": "ğŸ‡®ğŸ‡ª",
    "name": "Ireland"
  },
  "IR": {
    "callingCode": "+98",
    "flag": "ğŸ‡®ğŸ‡·",
    "name": "Iran"
  },
  "IQ": {
    "callingCode": "+964",
    "flag": "ğŸ‡®ğŸ‡¶",
    "name": "Iraq"
  },
  "IS": {
    "callingCode": "+354",
    "flag": "ğŸ‡®ğŸ‡¸",
    "name": "Iceland"
  },
  "IL": {
    "callingCode": "+972",
    "flag": "ğŸ‡®ğŸ‡±",
    "name": "Israel"
  },
  "IT": {
    "callingCode": "+39",
    "flag": "ğŸ‡®ğŸ‡¹",
    "name": "Italy"
  },
  "JM": {
    "callingCode": "+1876",
    "flag": "ğŸ‡¯ğŸ‡²",
    "name": "Jamaica"
  },
  "JE": {
    "callingCode": "+44",
    "flag": "ğŸ‡¯ğŸ‡ª",
    "name": "Jersey"
  },
  "JO": {
    "callingCode": "+962",
    "flag": "ğŸ‡¯ğŸ‡´",
    "name": "Jordan"
  },
  "JP": {
    "callingCode": "+81",
    "flag": "ğŸ‡¯ğŸ‡µ",
    "name": "Japan"
  },
  "KZ": {
    "callingCode": "+76",
    "flag": "ğŸ‡°ğŸ‡¿",
    "name": "Kazakhstan"
  },
  "KE": {
    "callingCode": "+254",
    "flag": "ğŸ‡°ğŸ‡ª",
    "name": "Kenya"
  },
  "KG": {
    "callingCode": "+996",
    "flag": "ğŸ‡°ğŸ‡¬",
    "name": "Kyrgyzstan"
  },
  "KH": {
    "callingCode": "+855",
    "flag": "ğŸ‡°ğŸ‡­",
    "name": "Cambodia"
  },
  "KI": {
    "callingCode": "+686",
    "flag": "ğŸ‡°ğŸ‡®",
    "name": "Kiribati"
  },
  "KN": {
    "callingCode": "+1869",
    "flag": "ğŸ‡°ğŸ‡³",
    "name": "Saint Kitts and Nevis"
  },
  "KR": {
    "callingCode": "+82",
    "flag": "ğŸ‡°ğŸ‡·",
    "name": "South Korea"
  },
  "XK": {
    "callingCode": "+383",
    "flag": "ğŸ‡½ğŸ‡°",
    "name": "Kosovo"
  },
  "KW": {
    "callingCode": "+965",
    "flag": "ğŸ‡°ğŸ‡¼",
    "name": "Kuwait"
  },
  "LA": {
    "callingCode": "+856",
    "flag": "ğŸ‡±ğŸ‡¦",
    "name": "Laos"
  },
  "LB": {
    "callingCode": "+961",
    "flag": "ğŸ‡±ğŸ‡§",
    "name": "Lebanon"
  },
  "LR": {
    "callingCode": "+231",
    "flag": "ğŸ‡±ğŸ‡·",
    "name": "Liberia"
  },
  "LY": {
    "callingCode": "+218",
    "flag": "ğŸ‡±ğŸ‡¾",
    "name": "Libya"
  },
  "LC": {
    "callingCode": "+1758",
    "flag": "ğŸ‡±ğŸ‡¨",
    "name": "Saint Lucia"
  },
  "LI": {
    "callingCode": "+423",
    "flag": "ğŸ‡±ğŸ‡®",
    "name": "Liechtenstein"
  },
  "LK": {
    "callingCode": "+94",
    "flag": "ğŸ‡±ğŸ‡°",
    "name": "Sri Lanka"
  },
  "LS": {
    "callingCode": "+266",
    "flag": "ğŸ‡±ğŸ‡¸",
    "name": "Lesotho"
  },
  "LT": {
    "callingCode": "+370",
    "flag": "ğŸ‡±ğŸ‡¹",
    "name": "Lithuania"
  },
  "LU": {
    "callingCode": "+352",
    "flag": "ğŸ‡±ğŸ‡º",
    "name": "Luxembourg"
  },
  "LV": {
    "callingCode": "+371",
    "flag": "ğŸ‡±ğŸ‡»",
    "name": "Latvia"
  },
  "MO": {
    "callingCode": "+853",
    "flag": "ğŸ‡²ğŸ‡´",
    "name": "Macau"
  },
  "MF": {
    "callingCode": "+590",
    "flag": "ğŸ‡²ğŸ‡«",
    "name": "Saint Martin"
  },
  "MA": {
    "callingCode": "+212",
    "flag": "ğŸ‡²ğŸ‡¦",
    "name": "Morocco"
  },
  "MC": {
    "callingCode": "+377",
    "flag": "ğŸ‡²ğŸ‡¨",
    "name": "Monaco"
  },
  "MD": {
    "callingCode": "+373",
    "flag": "ğŸ‡²ğŸ‡©",
    "name": "Moldova"
  },
  "MG": {
    "callingCode": "+261",
    "flag": "ğŸ‡²ğŸ‡¬",
    "name": "Madagascar"
  },
  "MV": {
    "callingCode": "+960",
    "flag": "ğŸ‡²ğŸ‡»",
    "name": "Maldives"
  },
  "MX": {
    "callingCode": "+52",
    "flag": "ğŸ‡²ğŸ‡½",
    "name": "Mexico"
  },
  "MH": {
    "callingCode": "+692",
    "flag": "ğŸ‡²ğŸ‡­",
    "name": "Marshall Islands"
  },
  "MK": {
    "callingCode": "+389",
    "flag": "ğŸ‡²ğŸ‡°",
    "name": "Macedonia"
  },
  "ML": {
    "callingCode": "+223",
    "flag": "ğŸ‡²ğŸ‡±",
    "name": "Mali"
  },
  "MT": {
    "callingCode": "+356",
    "flag": "ğŸ‡²ğŸ‡¹",
    "name": "Malta"
  },
  "MM": {
    "callingCode": "+95",
    "flag": "ğŸ‡²ğŸ‡²",
    "name": "Myanmar"
  },
  "ME": {
    "callingCode": "+382",
    "flag": "ğŸ‡²ğŸ‡ª",
    "name": "Montenegro"
  },
  "MN": {
    "callingCode": "+976",
    "flag": "ğŸ‡²ğŸ‡³",
    "name": "Mongolia"
  },
  "MP": {
    "callingCode": "+1670",
    "flag": "ğŸ‡²ğŸ‡µ",
    "name": "Northern Mariana Islands"
  },
  "MZ": {
    "callingCode": "+258",
    "flag": "ğŸ‡²ğŸ‡¿",
    "name": "Mozambique"
  },
  "MR": {
    "callingCode": "+222",
    "flag": "ğŸ‡²ğŸ‡·",
    "name": "Mauritania"
  },
  "MS": {
    "callingCode": "+1664",
    "flag": "ğŸ‡²ğŸ‡¸",
    "name": "Montserrat"
  },
  "MQ": {
    "callingCode": "+596",
    "flag": "ğŸ‡²ğŸ‡¶",
    "name": "Martinique"
  },
  "MU": {
    "callingCode": "+230",
    "flag": "ğŸ‡²ğŸ‡º",
    "name": "Mauritius"
  },
  "MW": {
    "callingCode": "+265",
    "flag": "ğŸ‡²ğŸ‡¼",
    "name": "Malawi"
  },
  "MY": {
    "callingCode": "+60",
    "flag": "ğŸ‡²ğŸ‡¾",
    "name": "Malaysia"
  },
  "YT": {
    "callingCode": "+262",
    "flag": "ğŸ‡¾ğŸ‡¹",
    "name": "Mayotte"
  },
  "NA": {
    "callingCode": "+264",
    "flag": "ğŸ‡³ğŸ‡¦",
    "name": "Namibia"
  },
  "NC": {
    "callingCode": "+687",
    "flag": "ğŸ‡³ğŸ‡¨",
    "name": "New Caledonia"
  },
  "NE": {
    "callingCode": "+227",
    "flag": "ğŸ‡³ğŸ‡ª",
    "name": "Niger"
  },
  "NF": {
    "callingCode": "+672",
    "flag": "ğŸ‡³ğŸ‡«",
    "name": "Norfolk Island"
  },
  "NG": {
    "callingCode": "+234",
    "flag": "ğŸ‡³ğŸ‡¬",
    "name": "Nigeria"
  },
  "NI": {
    "callingCode": "+505",
    "flag": "ğŸ‡³ğŸ‡®",
    "name": "Nicaragua"
  },
  "NU": {
    "callingCode": "+683",
    "flag": "ğŸ‡³ğŸ‡º",
    "name": "Niue"
  },
  "NL": {
    "callingCode": "+31",
    "flag": "ğŸ‡³ğŸ‡±",
    "name": "Netherlands"
  },
  "NO": {
    "callingCode": "+47",
    "flag": "ğŸ‡³ğŸ‡´",
    "name": "Norway"
  },
  "NP": {
    "callingCode": "+977",
    "flag": "ğŸ‡³ğŸ‡µ",
    "name": "Nepal"
  },
  "NR": {
    "callingCode": "+674",
    "flag": "ğŸ‡³ğŸ‡·",
    "name": "Nauru"
  },
  "NZ": {
    "callingCode": "+64",
    "flag": "ğŸ‡³ğŸ‡¿",
    "name": "New Zealand"
  },
  "OM": {
    "callingCode": "+968",
    "flag": "ğŸ‡´ğŸ‡²",
    "name": "Oman"
  },
  "PK": {
    "callingCode": "+92",
    "flag": "ğŸ‡µğŸ‡°",
    "name": "Pakistan"
  },
  "PA": {
    "callingCode": "+507",
    "flag": "ğŸ‡µğŸ‡¦",
    "name": "Panama"
  },
  "PN": {
    "callingCode": "+64",
    "flag": "ğŸ‡µğŸ‡³",
    "name": "Pitcairn Islands"
  },
  "PE": {
    "callingCode": "+51",
    "flag": "ğŸ‡µğŸ‡ª",
    "name": "Peru"
  },
  "PH": {
    "callingCode": "+63",
    "flag": "ğŸ‡µğŸ‡­",
    "name": "Philippines"
  },
  "PW": {
    "callingCode": "+680",
    "flag": "ğŸ‡µğŸ‡¼",
    "name": "Palau"
  },
  "PG": {
    "callingCode": "+675",
    "flag": "ğŸ‡µğŸ‡¬",
    "name": "Papua New Guinea"
  },
  "PL": {
    "callingCode": "+48",
    "flag": "ğŸ‡µğŸ‡±",
    "name": "Poland"
  },
  "PR": {
    "callingCode": "+1787",
    "flag": "ğŸ‡µğŸ‡·",
    "name": "Puerto Rico"
  },
  "KP": {
    "callingCode": "+850",
    "flag": "ğŸ‡°ğŸ‡µ",
    "name": "North Korea"
  },
  "PT": {
    "callingCode": "+351",
    "flag": "ğŸ‡µğŸ‡¹",
    "name": "Portugal"
  },
  "PY": {
    "callingCode": "+595",
    "flag": "ğŸ‡µğŸ‡¾",
    "name": "Paraguay"
  },
  "PS": {
    "callingCode": "+970",
    "flag": "ğŸ‡µğŸ‡¸",
    "name": "Palestine"
  },
  "PF": {
    "callingCode": "+689",
    "flag": "ğŸ‡µğŸ‡«",
    "name": "French Polynesia"
  },
  "QA": {
    "callingCode": "+974",
    "flag": "ğŸ‡¶ğŸ‡¦",
    "name": "Qatar"
  },
  "RE": {
    "currency": "EUR",
    "callingCode": "262",
    "flag": "data:image/png;base64,iVBORw0KGgoAAAANSUhEUgAAACgAAAAeBAMAAACs80HuAAAABGdBTUEAALGPC/xhBQAAAAFzUkdCAK7OHOkAAAAgY0hSTQAAeiYAAICEAAD6AAAAgOgAAHUwAADqYAAAOpgAABdwnLpRPAAAABVQTFRFACZ/ASeApbLS////+6228xkx8xgw8anT+QAAAAFiS0dEAxEMTPIAAAAJcEhZcwAAAEgAAABIAEbJaz4AAAAaSURBVCjPY2AAAyFjMHBNAwOGUcFRQVoKAgDqd3XHPs6NlAAAACV0RVh0ZGF0ZTpjcmVhdGUAMjAxMy0xMC0wN1QxMzoxNDo1MSswMjowMHehDuUAAAAldEVYdGRhdGU6bW9kaWZ5ADIwMTMtMTAtMDdUMTM6MTQ6NTErMDI6MDAG/LZZAAAAAElFTkSuQmCC",
    "name": {
      "common": "RÃ©union",
      "deu": "RÃ©union",
      "fra": "RÃ©union",
      "hrv": "RÃ©union",
      "ita": "Riunione",
      "jpn": "ãƒ¬ãƒ¦ãƒ‹ã‚ªãƒ³",
      "nld": "RÃ©union",
      "por": "ReuniÃ£o",
      "rus": "Ğ ĞµÑĞ½ÑŒĞ¾Ğ½",
      "spa": "ReuniÃ³n",
      "svk": "RÃ©union",
      "fin": "RÃ©union",
      "zho": "ç•™å°¼æ—ºå²›",
      "isr": "×¨××•× ×™×•×Ÿ",
      "ces": "RÃ©union",
      "slk": "RÃ©union",
      "est": "RÃ©union",
      "pol": "Reunion",
      "urd": "Ø±Û’ ÛŒÙˆÙ†ÛŒÙˆÚº",
      "kor": "ë ˆìœ„ë‹ˆì˜¹"
    }
  },
  "RO": {
    "currency": "RON",
    "callingCode": "40",
    "flag": "data:image/png;base64,iVBORw0KGgoAAAANSUhEUgAAACgAAAAeBAMAAACs80HuAAAABGdBTUEAALGPC/xhBQAAAAFzUkdCAK7OHOkAAAAgY0hSTQAAeiYAAICEAAD6AAAAgOgAAHUwAADqYAAAOpgAABdwnLpRPAAAABtQTFRFpaE385sGADGcATKb/+EA/94A3iIQ3iEQ////bEiZPQAAAAJ0Uk5T/v6mqd4QAAAAAWJLR0QIht6VegAAAAlwSFlzAAAASAAAAEgARslrPgAAABxJREFUKM9jUAIDA9dQIAgRKwcDhlHBUUFaCgIAAIWtj9wIsGoAAAAldEVYdGRhdGU6Y3JlYXRlADIwMTMtMTAtMDdUMTM6MTU6MDYrMDI6MDAVJFUxAAAAJXRFWHRkYXRlOm1vZGlmeQAyMDEzLTEwLTA3VDEzOjE1OjA2KzAyOjAwZHntjQAAAABJRU5ErkJggg==",
    "name": {
      "common": "Romania",
      "deu": "RumÃ¤nien",
      "fra": "Roumanie",
      "hrv": "Rumunjska",
      "ita": "Romania",
      "jpn": "ãƒ«ãƒ¼ãƒãƒ‹ã‚¢",
      "nld": "RoemeniÃ«",
      "por": "RomÃ©nia",
      "rus": "Ğ ÑƒĞ¼Ñ‹Ğ½Ğ¸Ñ",
      "spa": "Rumania",
      "svk": "Rumunsko",
      "fin": "Romania",
      "zho": "ç½—é©¬å°¼äºš",
      "isr": "×¨×•×× ×™×”",
      "ces": "Rumunsko",
      "slk": "Rumunsko",
      "est": "Rumeenia",
      "pol": "Rumunia",
      "urd": "Ø±ÙˆÙ…Ø§Ù†ÛŒÛ",
      "kor": "ë£¨ë§ˆë‹ˆì•„"
    }
  },
  "RU": {
    "currency": "RUB",
    "callingCode": "7",
    "flag": "data:image/png;base64,iVBORw0KGgoAAAANSUhEUgAAACgAAAAeBAMAAACs80HuAAAABGdBTUEAALGPC/xhBQAAAAFzUkdCAK7OHOkAAAAgY0hSTQAAeiYAAICEAAD6AAAAgOgAAHUwAADqYAAAOpgAABdwnLpRPAAAACpQTFRF/////v7+7u72EhKHAAB8AgJ/AQF+AgF9AAGAEgF17QEK/wEA/QEC/gEBEp+r8wAAAAFiS0dEAIgFHUgAAAAJcEhZcwAAAEgAAABIAEbJaz4AAABBSURBVCjPY2AYfEAQC8CuUgkLYDDGAhhcsACGUCyAIQ0LoFSwHAtg6MACGGZiAQyrsACG3VgAwxksgOEuFjCwggAMe/hdiobzpAAAACV0RVh0ZGF0ZTpjcmVhdGUAMjAxMy0xMC0wN1QxMzoxNDo1MiswMjowMEZJFHgAAAAldEVYdGRhdGU6bW9kaWZ5ADIwMTMtMTAtMDdUMTM6MTQ6NTIrMDI6MDA3FKzEAAAAAElFTkSuQmCC",
    "name": {
      "common": "Russia",
      "deu": "Russland",
      "fra": "Russie",
      "hrv": "Rusija",
      "ita": "Russia",
      "jpn": "ãƒ­ã‚·ã‚¢é€£é‚¦",
      "nld": "Rusland",
      "por": "RÃºssia",
      "rus": "Ğ Ğ¾ÑÑĞ¸Ñ",
      "spa": "Rusia",
      "svk": "Rusko",
      "fin": "VenÃ¤jÃ¤",
      "zho": "ä¿„ç½—æ–¯",
      "isr": "×¨×•×¡×™×”",
      "ces": "Rusko",
      "slk": "Rusko",
      "est": "Venemaa",
      "pol": "Rosja",
      "urd": "Ø±ÙˆØ³",
      "kor": "ëŸ¬ì‹œì•„"
    }
  },
  "RW": {
    "currency": "RWF",
    "callingCode": "250",
    "flag": "data:image/png;base64,iVBORw0KGgoAAAANSUhEUgAAACgAAAAeCAMAAABpA6zvAAAABGdBTUEAALGPC/xhBQAAAAFzUkdCAK7OHOkAAAAgY0hSTQAAeiYAAICEAAD6AAAAgOgAAHUwAADqYAAAOpgAABdwnLpRPAAAAT5QTFRFAJr0AZr0AZrzApr1A5r0BZryAZr1Dp3qKKLTNaXHM6XJJKHWC5ztAJrzAJr1EZ7kP6q3d7iCo8VYoMRbbrWLNqjADJ3qBpvvN6i/kr9p4NIdushDwso729Ejfrp7LKXKApryAJr2Ep/iXbGb2dAlpMJYzcwwvcg/scZLy80yS62sC53pGKDdeLiB0M0uqcRV/+EA/94AosFc088qXrKaEJ7kE5/iYrKW2NEln8Fc2c8kyMs1q8RRz84uTa2qDJ3oB5ztO6m8msFh3NIhs8ZKuchD39Ifh7xzL6bHA5vyFZ/hRauyhLt1schLq8dQPKm7Dp3nEp7mLaTOO6fBOqfCKaPRDZzqAprzApr0CJvvBZrzAJn4AJj4EKDjEaDj3+kR8/AA7u8B7+8A7O0B/vYAhr8ZDYg1H5EwHI8x////6TFM6gAAAAFiS0dEabxrxLQAAAAJcEhZcwAAAEgAAABIAEbJaz4AAADVSURBVDjLY2CgDmBkZGQiRh0zCysrCxsjYXXsHJxc3DxsvATU8fELCAoJi4iK8eFXyScuISklLSMrJ6+AVx2TopKyiqqauoamljYffoU6unr6BoZGxiamivi8zsRnZm5haWVtY2tnz4fX43wOjk7OLq5u7h6e+D3Ny+fl7ePrp+sfwEcofJgDg4JDQsPYIE7BA8IjWCMjoyLAbIZo/CAmBspgiMUP4uKgDIZ4IgFDApGAIZFIwJBEJCBeYTKRgCGFSMCQSiRgSCMSMKQTCRgyiARDQSEAQ8kawOxSOVcAAAAldEVYdGRhdGU6Y3JlYXRlADIwMTMtMTAtMDdUMTM6MTQ6MzMrMDI6MDAmURZLAAAAJXRFWHRkYXRlOm1vZGlmeQAyMDEzLTEwLTA3VDEzOjE0OjMzKzAyOjAwVwyu9wAAAABJRU5ErkJggg==",
    "name": {
      "common": "Rwanda",
      "deu": "Ruanda",
      "fra": "Rwanda",
      "hrv": "Ruanda",
      "ita": "Ruanda",
      "jpn": "ãƒ«ãƒ¯ãƒ³ãƒ€",
      "nld": "Rwanda",
      "por": "Ruanda",
      "rus": "Ğ ÑƒĞ°Ğ½Ğ´Ğ°",
      "spa": "Ruanda",
      "svk": "Rwanda",
      "fin": "Ruanda",
      "zho": "å¢æ—ºè¾¾",
      "isr": "×¨×•×× ×“×”",
      "ces": "Rwanda",
      "slk": "Rwanda",
      "est": "Rwanda",
      "pol": "Rwanda",
      "urd": "Ø±ÙˆØ§Ù†ÚˆØ§",
      "kor": "ë¥´ì™„ë‹¤"
    }
  },
  "SA": {
    "currency": "SAR",
    "callingCode": "966",
    "flag": "data:image/png;base64,iVBORw0KGgoAAAANSUhEUgAAACgAAAAeCAIAAADRv8uKAAAABGdBTUEAALGPC/xhBQAAAAFzUkdCAK7OHOkAAAAgY0hSTQAAeiYAAICEAAD6AAAAgOgAAHUwAADqYAAAOpgAABdwnLpRPAAAAAZiS0dEAP8A/wD/oL2nkwAAAAlwSFlzAAAASAAAAEgARslrPgAABNtJREFUSMftVltsVFUUXfuc+5iZdvqYaUtbC4OUAg5QaFUQhKhIAnxh8IkYvogmJn6oiQkkPghfGj/8MPLhIzEhgRgjiVLUBDRgRCKpCUGQUmg7TDttgb6mc6czc+85248ppQnTByGRDzwfN+feu3PWWfusvdehmi9xT4a4N7D/A/+Hw5jmH4GIaOJVsxYkNDMRIf8ECKTB+SBmBpD/np8z+I6BCaSZXMWKmQECikzhuNpvyKzHguBprRiK4ZNQDMb4xNNMgCkJgCTcGTCBPOaVFauJqL5kfkZlBjLXTyZObV+048pIuyB6rPpxT3vLwivPD579red4dVGtYnX2RmuJVVpuVxgkukZjnnaTuSFJVJC3DG4txBXsN/yRYMPuh9+vKapb/8DGOYGagUxiQ90mKei5hTt/7T6+NLyiP514o3G3Kc3edM9bTe8p1snc2MHNRyIl9Wuq122o23QsfkRBF6RdAFiQGPM4Go6+sniXKa3KQHWfk7g03Jb2UpeH2x4KNfqkb2loaYWvYjSXPBo7HA01xpJXTGkPZq6bguqK5/c68T/6TpbZ4VN9J3LKpULIBVTNzJZEIhX/pftnS9j96Z6O5GVb2rHRrjmBas2qP504Gvvu+85v1tY8cXGovcQqu54ZHskmben3G4Gv/vn02fqX+53hPqe/yl/lahBodsBgg2gwO8Tsnbn2+8DY4Ma5W3YueXX/kwdCvipTWOV2JbPxzIKXgmap4w4knPiLDdvHvJRi3ZnsWF/79LH4j4/OafLYCxjFOq/M2aQaAAO29I26yabKVaf7TmjohBN/9/SbvU6itnjecNZ5oeH5hWXRcl94XsmDFwbP9zo9c4sj3amehBM3hTnqZhormqOh6A9d3w5lh0whbtdXAcZEpDTK7VAkuKgx3PxU3ebl4ab4aNe84LzPNxxKOJ1ralZdGr54PN6y/9zHB9u+GM4OtnS1mFJaknZFX99Wv52Q2/fnnqujMVvaPEUtFxSXTHm8rmZtQ9migFm0oKTh3MBfPc7V5eFmxaq+dPFHrXsdLxUNrTjUfsBnWN2pzj2P7N3/9ydbIlt/irV8ffEzn/Q1VTWbwjrccVAIRiFoKmiLDBhkKEaRGSy3gx0j3UHL35d2IsEKBvrTNxTDEiJgyJTr1hZV+Qx/21BsbrDScUcHM5maQGk0HD1340LKHTFF4TqmqfyYAQLlO5HPEEqzKUROawCmIIAAzjfRnGLN8BuUVSwFDCJXc9rjgEGSeKqeOU3LBMAGkSGJWQuCYmUQAdCsJ8I0a1MQAMU6T04xS6ISSzBPiYrpTQK3ujzlz4nBBLq9LsfDiHDTG6YFnQVwPueaWeQzwGCwnrQmYXwjRMh52pYkSGjW0/jSLBnDFEbAKHLcFAApDUtYtvRJMjS0ZqVZeVp52nV1LlIWaR/pynrKZ8AWMyDP4MfMLCBeW/b28nDzmJdmaEFSkkGAx55mPeHZOZVdUrYslrwSsIr3nXmn9drZIlNMVsMdADNYEDIq92HrB+V2CQOuzrk652mlxz0fAiSFNIWlWG1bsCNkhpqqVpfZIcUo3ConWM14vSWAQZ5mAOLmcU4+i7y0GHA1FEMzfBLW3aT61tLgfM3cLpnx6w8AkGmM74iZ71Zck9M+Y4ieqYQmj/vvenv/Af8LxIFgHkHR3AcAAAAldEVYdGRhdGU6Y3JlYXRlADIwMTMtMTAtMDdUMTM6MTU6MTMrMDI6MDCLtnoIAAAAJXRFWHRkYXRlOm1vZGlmeQAyMDEzLTEwLTA3VDEzOjE1OjEzKzAyOjAw+uvCtAAAAABJRU5ErkJggg==",
    "name": {
      "common": "Saudi Arabia",
      "deu": "Saudi-Arabien",
      "fra": "Arabie Saoudite",
      "hrv": "Saudijska Arabija",
      "ita": "Arabia Saudita",
      "jpn": "ã‚µã‚¦ã‚¸ã‚¢ãƒ©ãƒ“ã‚¢",
      "nld": "Saoedi-ArabiÃ«",
      "por": "ArÃ¡bia Saudita",
      "rus": "Ğ¡Ğ°ÑƒĞ´Ğ¾Ğ²ÑĞºĞ°Ñ ĞÑ€Ğ°Ğ²Ğ¸Ñ",
      "spa": "Arabia SaudÃ­",
      "svk": "SaudskÃ¡ ArÃ¡bia",
      "fin": "Saudi-Arabia",
      "zho": "æ²™ç‰¹é˜¿æ‹‰ä¼¯",
      "isr": "×¢×¨×‘ ×”×¡×¢×•×“×™×ª",
      "ces": "SaÃºdskÃ¡ ArÃ¡bie",
      "slk": "SaudskÃ¡ ArÃ¡bia",
      "est": "Saudi Araabia",
      "pol": "Arabia Saudyjska",
      "urd": "Ø³Ø¹ÙˆØ¯ÛŒ Ø¹Ø±Ø¨",
      "kor": "ì‚¬ìš°ë””ì•„ë¼ë¹„ì•„"
    }
  },
  "SD": {
    "currency": "SDG",
    "callingCode": "249",
    "flag": "data:image/png;base64,iVBORw0KGgoAAAANSUhEUgAAACgAAAAeCAMAAABpA6zvAAAABGdBTUEAALGPC/xhBQAAAAFzUkdCAK7OHOkAAAAgY0hSTQAAeiYAAICEAAD6AAAAgOgAAHUwAADqYAAAOpgAABdwnLpRPAAAAMlQTFRFYGAA3hQA/wAAAZoAPHYAxCQA/gAAAJoAAJwAG4oAmD4A9wUAAJsACJYAZ1wA5BAAAZsAO3YAZ1sA5B8P/x8h/x8fO5kjxMik/uHi/+Dh/+DgG6YdmNia9/34////AJkACJ0IZ8Nn5PTkAZkBO7E7xOfE/v/+GaQZnNic/f79PLI8xOjEaMNoHaYdmtia+P34I5kjpcil4uHi4eHh4ODgAJYAAFsADx8PIR8hHx8fAIoAAD4AAAUAAAAAAHYAACQAABAAAGAAABQAPQknRwAAAAFiS0dEHnIKICsAAAAJcEhZcwAAAEgAAABIAEbJaz4AAAC6SURBVDjLrdLXDoJQFERRFPVYsPcKir33fm3//1ESIIgGcubBeV7Jzi2SFAhCk+RQOAJBisbiCQiSkkylIUiUyfJ5EyJ5CwJ5G/J5B3L5DzTyuXyh6DcXJJJL5Uq15r0vSFRvNFve+4Gq1u5AkEjv9voQJHUwHP0V6uMJkla1KXaY2XwBXc9ytd5sved+wt3+cDz5zfUpzper8J8DldtdCB4a2YcAIJN1IJe1IZ+1IJC1IJA14fMFOfEGHmN+xeZewuYAAAAldEVYdGRhdGU6Y3JlYXRlADIwMTMtMTAtMDdUMTM6MTQ6NDYrMDI6MDB+rDD1AAAAJXRFWHRkYXRlOm1vZGlmeQAyMDEzLTEwLTA3VDEzOjE0OjQ2KzAyOjAwD/GISQAAAABJRU5ErkJggg==",
    "name": {
      "common": "Sudan",
      "deu": "Sudan",
      "fra": "Soudan",
      "hrv": "Sudan",
      "ita": "Sudan",
      "jpn": "ã‚¹ãƒ¼ãƒ€ãƒ³",
      "nld": "Soedan",
      "por": "SudÃ£o",
      "rus": "Ğ¡ÑƒĞ´Ğ°Ğ½",
      "spa": "SudÃ¡n",
      "svk": "SudÃ¡n",
      "fin": "Sudan",
      "zho": "è‹ä¸¹",
      "isr": "×¡×•×“×Ÿ",
      "ces": "SÃºdÃ¡n",
      "slk": "SudÃ¡n",
      "est": "Sudaan",
      "pol": "Sudan",
      "urd": "Ø³ÙˆØ¯Ø§Ù†",
      "kor": "ìˆ˜ë‹¨"
    }
  },
  "SN": {
    "currency": "XOF",
    "callingCode": "221",
    "flag": "data:image/png;base64,iVBORw0KGgoAAAANSUhEUgAAACgAAAAeCAMAAABpA6zvAAAABGdBTUEAALGPC/xhBQAAAAFzUkdCAK7OHOkAAAAgY0hSTQAAeiYAAICEAAD6AAAAgOgAAHUwAADqYAAAOpgAABdwnLpRPAAAAM9QTFRFqs4N56QA6KQAC3ImDHMm//8AvAEAvAAA6PIE4e0Fp8wOksAR/f4AY6UYT5kb+PsB5O8ELYYhI4Ai2+oG4u4Fqs4NrdANgbYUEHUlDnQme7MVqM0O1OoH7vUDdK8WFHclDHImDnQlXqIZ3/AFncYPJIEiCnEmCnImGnskhrkT8fcCnscPDnMmCXEmf7UUB3AnBW8nZ6cY8/gCRJMdHHwjkcARoMgPJYEi5fAEzuMIUZobv9oK/v4AyeAITJcct9UL4O0F4u4Ez+MH/v8A////g18ZmAAAAAN0Uk5T/f7+l1A3dQAAAAFiS0dERPm0mMEAAAAJcEhZcwAAAEgAAABIAEbJaz4AAACOSURBVDjLY2BGAiwMrEiAkY0dCTCMKqSZQg5OIhVycROnkIeXj58ohQKCQsIEFYqIioqJS0hKiYlKy+BVKCsnz6wAYioqKTPhtZpfRVWNmVldQ1OLoBu1ddSZdfV4CHtGU19SwsCQsEIjYxNTM3NBC4IKLa2sbVht7ewJKnQQAYWhoxOxicJ5kKfHIasQALWVHsM/YfmTAAAAJXRFWHRkYXRlOmNyZWF0ZQAyMDEzLTEwLTA3VDEzOjE1OjAzKzAyOjAwRxx6lgAAACV0RVh0ZGF0ZTptb2RpZnkAMjAxMy0xMC0wN1QxMzoxNTowMyswMjowMDZBwioAAAAASUVORK5CYII=",
    "name": {
      "common": "Senegal",
      "deu": "Senegal",
      "fra": "SÃ©nÃ©gal",
      "hrv": "Senegal",
      "ita": "Senegal",
      "jpn": "ã‚»ãƒã‚¬ãƒ«",
      "nld": "Senegal",
      "por": "Senegal",
      "rus": "Ğ¡ĞµĞ½ĞµĞ³Ğ°Ğ»",
      "spa": "Senegal",
      "svk": "Senegal",
      "fin": "Senegal",
      "zho": "å¡å†…åŠ å°”",
      "isr": "×¡× ×’×œ",
      "ces": "Senegal",
      "slk": "Senegal",
      "est": "Senegal",
      "pol": "Senegal",
      "urd": "Ø³ÛŒÙ†ÛŒÚ¯Ø§Ù„",
      "kor": "ì„¸ë„¤ê°ˆ"
    }
  },
  "SG": {
    "currency": "SGD",
    "callingCode": "65",
    "flag": "data:image/png;base64,iVBORw0KGgoAAAANSUhEUgAAACgAAAAeCAMAAABpA6zvAAAABGdBTUEAALGPC/xhBQAAAAFzUkdCAK7OHOkAAAAgY0hSTQAAeiYAAICEAAD6AAAAgOgAAHUwAADqYAAAOpgAABdwnLpRPAAAARFQTFRF3wAA3wMD4AUF3wEB3wIC3gAA3AAA3QAA5jc38piY9rW16U1N3gEB3wUF85yc/////OPj6EVF5TQ04hcX8pub/OXl4h4e4hYW/Onp74CA5j097XJy4yUl4A0N3wQE6U9P5Cws4AgI4AQE8IuL/vj44yMj4AkJ+tfX8IeH3gQE5Cgo/Ofn62Fh9Kur/Obm4A4O7W5u50VF4AYG4RIS7nh45S8v852d/e7u4hkZ3gsL3wcH3xAQ3AEB615e6FBQ4QwM86Oj74KC5S4u+MfH+dDQ97+/856e7nt75CUl5jU15C0t86Gh3QIC4AMD8ZKS/fHx+MbG6ERE4x8f4hoa4RER4RMT4hUV4RAQ4AoK/e/v//7+yK8ssAAAAAFiS0dEDxi6ANkAAAAJcEhZcwAAAEgAAABIAEbJaz4AAADkSURBVDjL7dDHUgNBDEXR16jfCEyQTQ5mwASDyXlMNDlnTDD//yFAsZ72bKnirG9JKgE/XItDBuIZKeClaaetbbl2dLBJh84uyxe8dPfAh0KvvdbXH3FgcEhdYLvjsNlIVByNx8ZZLKWHEzppU9PlmVlWdG5+ganbnS7a0jJWVrmG9Y3N9DDWLUuq0O0dcHcvcGOs+2YHWjs84vFJgemloHRqZ+T5hV7mrhh4kOd13m5cVIG/Df1R5I7V+4fHJxGJJR1IgpE8vzAM9W+vb+/lj3oYkl+NRhIGywifGWWf+B/+9fALahtTyExnkYkAAAAldEVYdGRhdGU6Y3JlYXRlADIwMTMtMTAtMDdUMTM6MTU6MDcrMDI6MDCzU16FAAAAJXRFWHRkYXRlOm1vZGlmeQAyMDEzLTEwLTA3VDEzOjE1OjA3KzAyOjAwwg7mOQAAAABJRU5ErkJggg==",
    "name": {
      "common": "Singapore",
      "deu": "Singapur",
      "fra": "Singapour",
      "hrv": "Singapur",
      "ita": "Singapore",
      "jpn": "ã‚·ãƒ³ã‚¬ãƒãƒ¼ãƒ«",
      "nld": "Singapore",
      "por": "Singapura",
      "rus": "Ğ¡Ğ¸Ğ½Ğ³Ğ°Ğ¿ÑƒÑ€",
      "spa": "Singapur",
      "svk": "Singapur",
      "fin": "Singapore",
      "isr": "×¡×™× ×’×¤×•×¨",
      "ces": "Singapur",
      "slk": "Singapur",
      "est": "Singapur",
      "pol": "Singapur",
      "urd": "Ø³Ù†Ú¯Ø§Ù¾ÙˆØ±",
      "kor": "ì‹±ê°€í¬ë¥´"
    }
  },
  "GS": {
    "currency": "GBP",
    "callingCode": "500",
    "flag": "data:image/png;base64,iVBORw0KGgoAAAANSUhEUgAAACgAAAAeCAIAAADRv8uKAAAABGdBTUEAALGPC/xhBQAAAAFzUkdCAK7OHOkAAAAgY0hSTQAAeiYAAICEAAD6AAAAgOgAAHUwAADqYAAAOpgAABdwnLpRPAAAAAZiS0dEAP8A/wD/oL2nkwAAAAlwSFlzAAAASAAAAEgARslrPgAACcBJREFUSMetl2lwVFUWx8+59/VLekmnm9BkIZ2NkISgWQhERJDNhQGMJgyorEKJI1IiRaHUwFSNMGpwUBAYSSaAw8Q44CAgIkEGxUwQ2SEJZMGsnaST0Ek3nV7S23v3zocEFDVVU4X306t699bv3v85/3PPxeqJk+KLi5XxcVXXTIuW/KPqej2lGgAiy4wQZKxv3OSx5flZ1ydM9AOkr1u9N3nh6mVbBEEvSYwQJAQlya4Jj33vndzZV/5p3lWQsW3LH64N3Vf8H0pDZZnBIIPo9aqG1JTOwqK0zNgLFzesXzcHkcmyRxAoIQjAB1tJKQXukyT3Y3NnlW0eP+P9RZbDR9vXPH978bxhBsfjD5k0aj8A4mDgTamvqt7b6d2wpipzLDO3vb057/LFP43LGilJDkQOQH+xhAOgIKAs39ZFRxcWvngg6lzQ0tzA1BmZneboOU/uzV9FXMe0Wp3bhQB8sI2TwndLpu7qubLtxPAHR9QnjjC9lZ+eGXv+4vq/bl4oigjgppT8lEkIBfD6Av7cZXlnNz4wc/PzbUdKjZeuJP5tR1OjLf9t882TZ1rP1x4vj5KYFoHAYGBK9e01dXOX7Fupfk61p4QXbq1KHtVXXf36uhmVFRvHZaV7vW5yRy+C6Pf1KbTx/9q9uAiO+Zc9xxe/lGFq1o4ds2Pb1xnp6z8vbbrakWYk9kz99enGsiHBVgBKCBCCcK/ulPM0BEoQbly+vL+Cj9ywLiVgNq1cyWQelztj8eKHk0YZDZ4e+8fFHECdnqGf99zyoebUHWssZtuIsjLDvLk1la1zcguK9p5iTGCg6PXCtNiaDIM5O6LD7FK2OuMIejhniMg5AAzAsc7c1/+lUFCXo09Ckp6g5RZLoKcnODERBAEJcZWX102ezADCly+PLSryNzZInKgSEzgHRKht67W2W8HXC0QIM8YFhWq2Ls755LgnOswnEF7RPTp1lN4Yoykvb1OpRKvV178DQbdp1d0IhhCCwNucHlRrUBCY280liQsKubMDAQiAq6ys+cXlSCkRKHM6OWNUEBRcStmwXp2U6exzY9EHvqsV3u6qsbHUEBqoMEcBygUFuWqN9ty5hk2bTvXnJgDguV+G/Y6H7kakn9qfXOxnfxE55zzaGJqXE7l2xc5lB3VnCk7PXBxvGNLQ4OxxdLVb0r84Ois//9Dhw02SJCMKvF/xy4M67WcmuuOLX8zngCKwGj60OeeVL44nzppnqlNqgonvlkWgiEePpqSmutrb2x2OKkKUjA2UFIGLQfeWhTsGYIwzhpQCIVySuM8HACgIIIo/nlWSEIATKog0VlCuLf2dWTaSzz9IfuK0tUMMjyHfVUcCTKurC2P8IGCAMeVdEHKH9SeCkkCvh8kMmUxDQoha7euxiiqlo6ysITeXARjmL4j/aLe3qxspIQhUp+eI4HCY2jv+W3aipo1+Xzlp4bOj7d3br12tJSKMGz9n54eZxHI0Qff6sIeEuBEpu/dm9ViDELkwa9FBABAE4vdLNltf3jPpa1dPpQL1NDS2zl8QPiqBb9yCYYYBPTQqX5BSERFBg8Sef3/WvfX9qKULr2bPLy753mW70XTTETdc4qy57qZNqeIOB3a21I1Jt548cvHppxZ9fvbYN+V9Xq8KIMA50vqb+oYf2m/W1LY0WpYumLB23ROiQmj988aO3+dFThi73zA9v/jGvCxtz759AYC4xybtNoVt3/zlrKfSQjPSOKHNq14LO/OlMClL0ihu31KWllprK04qdB22AAkEu00t51vqLY5A7IwlM48f/cThcPulJAARgAmUBsuyb8YTEwsKFsQlGFwVlVV5c3TMHfTR/pcviAffOpQ9eYwgJvKBZEak+OnhE5cr2nfsnD9z2VLdnLyuFStqvz7WFh+fNsbgsndmPztVkv7S2Cx6Iv3xQaGLErZNS0/g6uhDJQ9fvVROSZMsZwBIJFSrLCpYduLk6tgYfcOqNc2ZGVGzH//qj58+8mbNwb9/BkCBiPzOHcUBgCOAtrWte9asLQvn73HLiojiYl9G1ndfHK28dmF00m2zOaaqN3rJRP+TcVDXNcZiwcNHrhcVFFZePQsAsnx7IKuvVb4ZY9Tbys6Y5s0dNlTdV3xkYWnfyZf3EKSiqPf7nUxmksxkABlAZiDLDEBGFCkVPtn/bVlZw9o3MkemJI6bMPHSpUs6Z9j47OGl5okOPNBshRj9lJ4u68e7vhmR3CrLclAw+rzyADgmjNxe/Yq9sGD46rUlUbPffP2E85ZJoKEyA0mSATggBlMyBCAAEEIBKQEAxhhjjBBdt7X9m/K22LjwW11dScmjIpNiTL222ZnPttgPTIuN7pKmVJ2v14YYQnWOyMgowEBnBx0omYsyXnPXnzVMWVdbm3Lm3d0ERUr1kizfcZjYWt/56vsXbTCBQWDIqUDNxe8AlIxxRGBMejBdHRNDFKI6TK8NEZkafR1dtZ1hT9/siJFdRqZSXK/u8HrlqKhIpZg9anTqls3HCCWyBEJJfRDQHCizAXxNqYYxYANU4JwDKCwd3YWHOgHGAgBc8QBcAwhmjCNyALG9tTk83BefrBfdZhUoupps7dbK3JwXKhqfrIchL6Tpdld1uLrt0UlLJ0zne7ZvAhjBmQSAVCBZyLyUECTBsvwr/QIiFaiA3E8gQAkBInJ+t1pzj0fFpFavz64ETzD3+Lz+CIX79K36gPCwzRqYlGUo/nBlRKTWeXrH6Bj62alyl1PDmBYAKeNZHJBx4IN2KcA4cMBfncY5jolr0yp6TDaVhLJO6dMG4Y222pbRvZbIlqbO+mXZszPGRscblS6PNnncpCtXrrtcGkQBAV76vy6JXx9ISSAsxB4X0R0d3VfdoPX5qEoUzF363mQrJsvchuNxYm8ns9h9edMbv70Y3taq9Hl6AZACZN0HGJCjy2fQWx0Hnj7z6Ezn/tMPDtU65067PiOy6bGglsmq285bLTduSjtWnHgj4kLjV7ZzbiPF/gbivk4MBDhD4Y3gUkElzd3c80OzTwbSbR9W2TzMF1AMCXE9mtbp8bqyU9n2rQ+QKu9H9BGPpARg9wvuH0HgfT6n6pnJ1UYNW/JOzg1THEGZc+BAFIL79HsH2h3eStPQXQcfdzhUiDLnSO4TSZADCJGRnlXTKvo+VhhANhqdAH5BcAuCG8A7fJh9pNEllpCnNJ0PpbQACP2dxP3GmAMiMLtL9e2FiCEml72P7a0e5+0TGEeZEQBud6uJxdZWq37nwpQr5hHAJc4RAH4bqQEAQAGAInH6WfC9Dx9E4BwUAIjo66cCgPAbUYGgHzkEuBKR/czqSIAwPwdg/Md+7X/8dLHaIpJeFwAAACV0RVh0ZGF0ZTpjcmVhdGUAMjAxMy0xMC0wN1QxMzoxNDo0NSswMjowME9EKmgAAAAldEVYdGRhdGU6bW9kaWZ5ADIwMTMtMTAtMDdUMTM6MTQ6NDUrMDI6MDA+GZLUAAAAAElFTkSuQmCC",
    "name": {
      "common": "South Georgia",
      "deu": "SÃ¼dgeorgien und die SÃ¼dlichen Sandwichinseln",
      "fra": "GÃ©orgie du Sud-et-les Ãles Sandwich du Sud",
      "hrv": "JuÅ¾na Georgija i otoÄje JuÅ¾ni Sandwich",
      "ita": "Georgia del Sud e Isole Sandwich Meridionali",
      "jpn": "ã‚µã‚¦ã‚¹ã‚¸ãƒ§ãƒ¼ã‚¸ã‚¢ãƒ»ã‚µã‚¦ã‚¹ã‚µãƒ³ãƒ‰ã‚¦ã‚£ãƒƒãƒè«¸å³¶",
      "nld": "Zuid-Georgia en Zuidelijke Sandwicheilanden",
      "por": "Ilhas GeÃ³rgia do Sul e Sandwich do Sul",
      "rus": "Ğ®Ğ¶Ğ½Ğ°Ñ Ğ“ĞµĞ¾Ñ€Ğ³Ğ¸Ñ Ğ¸ Ğ®Ğ¶Ğ½Ñ‹Ğµ Ğ¡Ğ°Ğ½Ğ´Ğ²Ğ¸Ñ‡ĞµĞ²Ñ‹ Ğ¾ÑÑ‚Ñ€Ğ¾Ğ²Ğ°",
      "spa": "Islas Georgias del Sur y Sandwich del Sur",
      "svk": "JuÅ¾nÃ¡ Georgia a JuÅ¾nÃ© Sandwichove ostrovy",
      "fin": "EtelÃ¤-Georgia ja EtelÃ¤iset Sandwichsaaret",
      "zho": "å—ä¹”æ²»äºš",
      "isr": "×’×³×•×¨×’×³×™×” ×”×“×¨×•××™×ª ×•××™×™ ×¡× ×“×•×•×™×¥×³ ×”×“×¨×•××™×™×",
      "ces": "JiÅ¾nÃ­ Georgie a JiÅ¾nÃ­ Sandwichovy ostrovy",
      "slk": "JuÅ¾nÃ¡ Georgia a JuÅ¾nÃ© Sandwichove ostrovy",
      "est": "LÃµuna-Georgia ja LÃµuna-Sandwichi saared",
      "pol": "Georgia PoÅ‚udniowa i Sandwich PoÅ‚udniowy",
      "urd": "Ø¬Ù†ÙˆØ¨ÛŒ Ø¬Ø§Ø±Ø¬ÛŒØ§",
      "kor": "ì¡°ì§€ì•„"
    }
  },
  "SJ": {
    "currency": "NOK",
    "callingCode": "4779",
    "flag": "data:image/png;base64,iVBORw0KGgoAAAANSUhEUgAAACgAAAAeCAMAAABpA6zvAAAABGdBTUEAALGPC/xhBQAAAAFzUkdCAK7OHOkAAAAgY0hSTQAAeiYAAICEAAD6AAAAgOgAAHUwAADqYAAAOpgAABdwnLpRPAAAASBQTFRF1ygo2Csr1Rwc4WVm////2N/tATmYADeXBDuZACqQmazS43h61BkZ2Cws2C4u1R8f4Who43p81R0d2C8v1BgY1Rsb0gsL31pbmKzS4W9w0QkJ5oqM5oyN5YSF6qqs1d7tACuQl6zT6rO25YKE/f3+2eHwAjmYmbDW+/z9YYC7YIG8ZYfAU3m5ATiXADiXADOUOmavaInCX4G8AC2RADmXADCTACqPBj2aBz2aBTyZAC+SADGTMV6rMV6qMF2rMl+sKVioATmXADWWHU+jNGGsMF2q2eHvmbDV///+2OHvma/V3lFR31RU3ERE7KWm2N7smK3T772+4mNj5G9v5G1t1iMj0g8P6IyM6Zmb1R4e1yoq1Boa6ZGS6qCi6ZCR6p+gJDeP5AAAAAFiS0dEBI9o2VEAAAAJcEhZcwAAAEgAAABIAEbJaz4AAAD0SURBVDjL7dLZUsJQDIDhtEYFhSJaFgG1oiKLHtwqiCwqiAvuyuL+/m9hO+F0mDnBJ+C7/iczyQSAaPoUTs/M+vxzOB/QYLxJyIdBYoQWZBheXAqqwCSRaIzCOC4ndFMFSZJaWcU1J7TWMb2RSqoApU3cyjgTtzGLHMhJ+cLOrsgU9/YPchywPP5DIcSRfWyxoOQpnzih8JVLLLA9lVN3YrFis6A6VKs3zoQ4v2i2Lquc0a3b7h2vMHvNGQ1v3PB23Hk65O7+AR/d8AmfX17fVBAi3V6fwjgOou8RFXwQ4/NLht+6oam8JzJ/ZPj77z9OQjb8AwhfWkSfb+ooAAAAJXRFWHRkYXRlOmNyZWF0ZQAyMDEzLTEwLTA3VDEzOjE1OjEyKzAyOjAwLcFxvAAAACV0RVh0ZGF0ZTptb2RpZnkAMjAxMy0xMC0wN1QxMzoxNToxMiswMjowMFycyQAAAAAASUVORK5CYII=",
    "name": {
      "common": "Svalbard and Jan Mayen",
      "deu": "Spitzbergen",
      "fra": "Svalbard et Jan Mayen",
      "hrv": "Svalbard i Jan Mayen",
      "ita": "Svalbard e Jan Mayen",
      "jpn": "ã‚¹ãƒ´ã‚¡ãƒ¼ãƒ«ãƒãƒ«è«¸å³¶ãŠã‚ˆã³ãƒ¤ãƒ³ãƒã‚¤ã‚¨ãƒ³å³¶",
      "nld": "Svalbard en Jan Mayen",
      "por": "Ilhas Svalbard e Jan Mayen",
      "rus": "Ğ¨Ğ¿Ğ¸Ñ†Ğ±ĞµÑ€Ğ³ĞµĞ½ Ğ¸ Ğ¯Ğ½-ĞœĞ°Ğ¹ĞµĞ½",
      "spa": "Islas Svalbard y Jan Mayen",
      "svk": "Svalbard a Jan Mayen",
      "fin": "Huippuvuoret",
      "zho": "æ–¯ç“¦å°”å·´ç‰¹",
      "isr": "×¡×•×•×œ×‘××¨×“ ×•×™××Ÿ ×××™×™×Ÿ",
      "ces": "Å picberky a Jan Mayen",
      "slk": "Svalbard a Jan Mayen",
      "est": "Svalbard",
      "pol": "Svalbard i Jan Mayen",
      "urd": "Ø³ÙˆØ§Ù„Ø¨Ø§Ø±Úˆ Ø§ÙˆØ± Ø¬Ø§Ù† Ù…ÛŒØ¦Ù†",
      "kor": "ìŠ¤ë°œë°”ë¥´ ì–€ë§ˆì˜Œ ì œë„"
    }
  },
  "SB": {
    "currency": "SBD",
    "callingCode": "677",
    "flag": "data:image/png;base64,iVBORw0KGgoAAAANSUhEUgAAACgAAAAeCAMAAABpA6zvAAAABGdBTUEAALGPC/xhBQAAAAFzUkdCAK7OHOkAAAAgY0hSTQAAeiYAAICEAAD6AAAAgOgAAHUwAADqYAAAOpgAABdwnLpRPAAAAexQTFRFAADWCgrXFRXZBATXGRnaAADVOzvfcnLoHx/ahITrCAjXKirdbW3or6/y2Nj5eXnqSkriBQXXGxvaZWXmmZnv5OT7WFjkDQ3YDg7Yd3fp9vb9////sbHzJyfcBwfXWVnk5+f7zs73OzvgAgLWQEDgx8f2iIjsBgbXAwPWISHbxcX2wsL1q6vxCQnXOjrfLi7dExPZTEziCgrYVFTjKSncPT3gDAzYFhbaAQHWLCzdvr71hYXrOTnfRUXh/v7/9fX9mprvHx/bAADXAADZgoLr7u78ODjfEw/HVkWObm7oW1vlS0viEg7IX0yHxJ0x+cgFERHZHBzabGznHBzbv7/1EQ7IXkuHxJwy+skF/88A/84AKSndpKTw7Oz8+fn+xsb2GBjajIzt4+P6/Pz+1dX4w5wy+ckF+coAz7cA6+v8+/v+Hh7b1NT4/f3/ra3y+ssAx7QAYokAFmkAT0/jfHzqf3/qMjLeiYnsi4vsXUuIw5wzY4oAE2gAAF8ABQXWXUqIwpszYooAAGAAEQ3IXEqJEA3Jwps0XEmJwZs0W0mJwZo0W0mKxrQAwJo0WkiKwJo1wJk1EAzJWkiL+MgFDwzKWUiLv5k1+MgGWUeLv5k2WEeMYYkAx58v98cG/80AxbMA/8wA3r4Ab48AAF4AdyFA2wAAAAFiS0dEGwJg1KQAAAAJcEhZcwAAAEgAAABIAEbJaz4AAAGjSURBVDjLhdEFV8MwEADgwAgwdMN1MBgwpLgMhw0fMpzh7u42pLi7O/xRrmVY13T3+l6uyffu2gtCCFlYou8QWSFyYGsb/J3aiu2Izt7B0clZImVSF1c3d7GHJwF6efv4+vmzqSwg0FceFEzqrJCHhMIapkQoPCIyiiL2jo6JjYvHOCERY/ukZEkKEargEaUq0tIzXJhUhYQiODMkKzsnl3iu1rAl4fNxXr57AUxJyc8Ki5i/yVVgRBUXlGhhBFolDystK69ASFdZFRVuJZUhlV1ytbYmpjKMw2rr6hv0jQg1Nbe0tiWwhdo7Oru6i+M5rKdX39jXD52DBgbFxv2h4ZFRypSNjU9MwuvUdMmM7Otkdm5qPuUPW1hk2dKywQAbuhWskxqvk8Je1A9bXWPZOjCaJs5tY3Wt4pcRILDN/4wXqjVbm9scxgOB7eyaMBMIbG+fh3EgsAOWHU5w2D/IsCMC+wOBHZ8Q2Q9k2KkAM0K15uz89EKIsVCtuby6vhFmAIHd3pllAGvvv9iDIAP4+KR/7nsxxwDqX1/f3ic/zDCa/gQIahql9QdxMQAAACV0RVh0ZGF0ZTpjcmVhdGUAMjAxMy0xMC0wN1QxMzoxNToxMCswMjowMLpeYJUAAAAldEVYdGRhdGU6bW9kaWZ5ADIwMTMtMTAtMDdUMTM6MTU6MTArMDI6MDDLA9gpAAAAAElFTkSuQmCC",
    "name": {
      "common": "Solomon Islands",
      "deu": "Salomonen",
      "fra": "Ãles Salomon",
      "hrv": "Solomonski Otoci",
      "ita": "Isole Salomone",
      "jpn": "ã‚½ãƒ­ãƒ¢ãƒ³è«¸å³¶",
      "nld": "Salomonseilanden",
      "por": "Ilhas SalomÃ£o",
      "rus": "Ğ¡Ğ¾Ğ»Ğ¾Ğ¼Ğ¾Ğ½Ğ¾Ğ²Ñ‹ ĞÑÑ‚Ñ€Ğ¾Ğ²Ğ°",
      "spa": "Islas SalomÃ³n",
      "svk": "Salomonove ostrovy",
      "fin": "Salomonsaaret",
      "zho": "æ‰€ç½—é—¨ç¾¤å²›",
      "isr": "××™×™ ×©×œ××”",
      "ces": "Å alamounovy ostrovy",
      "slk": "Salomonove ostrovy",
      "est": "Saalomoni Saared",
      "pol": "Wyspy Salomona",
      "urd": "Ø¬Ø²Ø§Ø¦Ø± Ø³Ù„ÛŒÙ…Ø§Ù†",
      "kor": "ì†”ë¡œëª¬ ì œë„"
    }
  },
  "SL": {
    "currency": "SLL",
    "callingCode": "232",
    "flag": "data:image/png;base64,iVBORw0KGgoAAAANSUhEUgAAACgAAAAeBAMAAACs80HuAAAABGdBTUEAALGPC/xhBQAAAAFzUkdCAK7OHOkAAAAgY0hSTQAAeiYAAICEAAD6AAAAgOgAAHUwAADqYAAAOpgAABdwnLpRPAAAABVQTFRFGNIY2vja5OT6IiLUAM0A////AADNWt8AqwAAAAR0Uk5T/v7+/rpKSvwAAAABYktHRAX4b+nHAAAACXBIWXMAAABIAAAASABGyWs+AAAAJ0lEQVQoz2NwwQIYhoogViCIBTCEYgGDUVAJC2AwxgIY0rCAoSIIAG33tKEi+b2bAAAAJXRFWHRkYXRlOmNyZWF0ZQAyMDEzLTEwLTA3VDEzOjE0OjM0KzAyOjAw4/YoxQAAACV0RVh0ZGF0ZTptb2RpZnkAMjAxMy0xMC0wN1QxMzoxNDozNCswMjowMJKrkHkAAAAASUVORK5CYII=",
    "name": {
      "common": "Sierra Leone",
      "deu": "Sierra Leone",
      "fra": "Sierra Leone",
      "hrv": "Sijera Leone",
      "ita": "Sierra Leone",
      "jpn": "ã‚·ã‚¨ãƒ©ãƒ¬ã‚ªãƒ",
      "nld": "Sierra Leone",
      "por": "Serra Leoa",
      "rus": "Ğ¡ÑŒĞµÑ€Ñ€Ğ°-Ğ›ĞµĞ¾Ğ½Ğµ",
      "spa": "Sierra Leone",
      "svk": "Sierra Leone",
      "fin": "Sierra Leone",
      "zho": "å¡æ‹‰åˆ©æ˜‚",
      "isr": "×¡×™×™×¨×” ×œ××•× ×”",
      "ces": "Sierra Leone",
      "slk": "Sierra Leone",
      "est": "Sierra Leone",
      "pol": "Sierra Leone",
      "urd": "Ø³ÛŒØ±Ø§Ù„ÛŒÙˆÙ†",
      "kor": "ì‹œì—ë¼ë¦¬ì˜¨"
    }
  },
  "SV": {
    "currency": "SVC",
    "callingCode": "503",
    "flag": "data:image/png;base64,iVBORw0KGgoAAAANSUhEUgAAACgAAAAeCAYAAABe3VzdAAAABGdBTUEAALGPC/xhBQAAAAFzUkdCAK7OHOkAAAAgY0hSTQAAeiYAAICEAAD6AAAAgOgAAHUwAADqYAAAOpgAABdwnLpRPAAAAAZiS0dEAP8A/wD/oL2nkwAAAAlwSFlzAAAASAAAAEgARslrPgAABCFJREFUWMPtl9trXFUUh799zpn7mWvGSS/TNEmNNCSVRFOsaMWoFaEPaisKPojV/8EXfVbwrYIgKIWCliK1hQrFikhRKCShJmnLtBJTe0vGmSSTmc7tzLns7UNLH8WTtFiwC/bbZu1vr7X3Wr8l9n/SUDzApv3XAA8BHwLeW3fizrp3ZtwbKNCwEcoBQIoQ6q7r9RWJdQAKQBJQVWJynghlJDoaDjVtB7pq45DA0jawnqgaao0XNKgTk/Noqo0UIWriMRySKAwkAeLyMknmEQzRFnkU+trOScWEP0QhCMhV4s4U6HFq2jBKS2IgiFDHEA0s1YVgDFc1yMorCDlDPTCKVP4hxc1lT/rYjvQckG281nX0WA9GMEm5ViYWiqGcJlZzmWiql45rkTYzSKeG3biKLU2iiTyaHsTPuxRK/fskK+lRKf6GbkQIx0wWFyY5v9JkbmmBN556i46VptmuY8bbnDx3gqHNA+zIRMmkt1KvlIiYOZLdj/uKoK8yo1AEgiaxxGau1lt8cOobTvx6kb1DL9HX3ctsa5bT9iz9uS3s3THOsTOTfHjqKH85Ecz0NlaKM9hW7f4B1ivzOI4FgSiFi1/j3rpBvvt1SqtZ5go/of3yLdkfT3L53HFsq4t0ch+LxQIXzh8iGMsQiefptFbuH6DbqaHcFrbncmh2EiM8Tk8qi66qHCm2OZ3eRTHXy2e3slQbZUY2ZzCMFzh8YRpPCxEMJ3A7/iLoqw4msoOAomo1iXhBnh1+GkkfVmCaY72PwFA/Nxt5JqJPsLN0kWiwh9GBEa6X5rDs9p0P4s98AVqNEtKz8UJdLHsNkmYbo1NlcuoPhqOHsIVJpz3AaKXFlJtn5+BNNmU7TNyo4ngOumcTimZ9AfpKsaaHsK0aybBJf3wL309/x9DGS0j3CvlGir5bgu3WIkNcIGzX2RIv8HPhONvT20hFk0TMboKR9P2LYCiaplX7E8+qMDq4i89/OMiZhUneffUdigsvUnczKAWmXiG3Mc/JwlEKi5cYf+VlnGYJt1MjEt/kC9B3oa6XZ5Dta8j0GAe+elOUrSJvj73Gc9mUygWzSKWx7FY5W6mKwxNHyce28uWBI8pbmUGPbCK5YcRXZxbvHWz6AhSyRsqZEJaeU7/XbVFunOVq4wv6k/sZyX2khNA4X/5UzK0eocd8n25zF8NxTQVUg4qxG7QIvjrJvo99Dk1CI6RKpL0ppIizRB9LnWsoTxIVPegiTEvdwGOFDeFH6dLKBGWRkjaOo2XApzoxhG8lJLFFjhX9GTJqmjTLiNjzSNnGdZoIdDKBJwmKNgk5i43Jqr4HVyQQKN/Ka416UOGKFEtiNwKJUg5CGASCybs7HKJUtDEUAW5TrU3XrUOwKhT6P+q823CsGQ7+f0PTQ8AHzx54wL8BjGG8sZiqLygAAAAldEVYdGRhdGU6Y3JlYXRlADIwMTMtMTAtMDdUMTM6MTQ6NDgrMDI6MDAuk0uoAAAAJXRFWHRkYXRlOm1vZGlmeQAyMDEzLTEwLTA3VDEzOjE0OjQ4KzAyOjAwX87zFAAAAABJRU5ErkJggg==",
    "name": {
      "common": "El Salvador",
      "cym": "El Salvador",
      "deu": "El Salvador",
      "fra": "Salvador",
      "hrv": "Salvador",
      "ita": "El Salvador",
      "jpn": "ã‚¨ãƒ«ã‚µãƒ«ãƒãƒ‰ãƒ«",
      "nld": "El Salvador",
      "por": "El Salvador",
      "rus": "Ğ¡Ğ°Ğ»ÑŒĞ²Ğ°Ğ´Ğ¾Ñ€",
      "spa": "El Salvador",
      "svk": "SalvÃ¡dor",
      "fin": "El Salvador",
      "zho": "è¨å°”ç“¦å¤š",
      "isr": "××œ ×¡×œ×‘×“×•×¨",
      "ces": "Salvador",
      "slk": "SalvÃ¡dor",
      "est": "El Salvador",
      "pol": "Salwador",
      "urd": "Ø§ÛŒÙ„ Ø³ÛŒÙ„ÙˆØ§ÚˆÙˆØ±",
      "kor": "ì—˜ì‚´ë°”ë„ë¥´"
    }
  },
  "SM": {
    "currency": "EUR",
    "callingCode": "378",
    "flag": "data:image/png;base64,iVBORw0KGgoAAAANSUhEUgAAACgAAAAeCAIAAADRv8uKAAAABGdBTUEAALGPC/xhBQAAAAFzUkdCAK7OHOkAAAAgY0hSTQAAeiYAAICEAAD6AAAAgOgAAHUwAADqYAAAOpgAABdwnLpRPAAAAAZiS0dEAP8A/wD/oL2nkwAAAAlwSFlzAAAASAAAAEgARslrPgAABFtJREFUSMftlltsFGUUx8/5Zmane9/tWpbtIi1tKbfSBKmpNIRLAom+KBhFDTEGNSZqjAkmxj7ZxBjffdCEeIkvBtRoAKWCAQtiMDUFhZRq7YW2u5Xt3juzc585PpSQ+MBMKxge9GTe5vvO//ud+c85HxIR3I1gd0X1f+Elxm2Zg1+yGhEAIQABAyCEBXMiIv67xIiIQICsNP2hUhkCZIiwVNWlEhMAZmYmpPKwP9kmSod1yhY0US9mkvf2RKNRIlr8CZZEjOWKlJ892dLaGj7XX5p8QDtfTVybSTXFp8dPEQCAc+dLTUREdigSFgzMb3/c2PcaDQ06Xx2Vex4uvNobSjQhABHQoh2Hi+5cZDv2mcvfty/r0I5tFxJ/gD+NnOXkcnrgmerut2raRFf9ppgYISAE74JzfX19nqyIWJGqX/z8+VOHntsdKybDP5bBlPiAbNuCqPCoflqZeVceEAx7fbhN5MXFaPMevAQEgACvfPTSl4PHNzRhWvlgInRgNrRNZgIAS1qT66zj+6uHJefAEemYBc7BNc/Swh53YY8FCIqu6EptWpvavnLLm5tr1yJ1avuhkmKtCsCoDBDkf6g9uTOzdqeSn8L6/rmz+9IPrQilPB3OV0x3ZuJZsPfkO+VKbl71j+TG7OhBs6RWjdqcVMubkWWaPGHFNurpUXFMCmxO2f4/tXysLmUSuSPxPWfnXSsNPGBuSjWqmWBgxRW2tdvIYtAPnNkg8hWFTwTjaU11NHVY2BPPjxgh6eUr56vWGg4V91+GLxiuxOQAF9AT99P86uWs9dSsuadx9OylI2aiQ9dmpUDzULbQzC4WKfSr2boiOqlwHVllnwE63jj2rYUF94ogAppccEOOddYHZy4Vp85fT21K9l3Wn2Dst3i1TeML6zKH32vc2670Mx1nEp0EPh86nu5iBOD6IDk2RtLBePtQpbirpelo+HUyoFXqF3gtalzcmj32bXRX0V9XHwtmY90N9JMIGQcEAnLP7NG5CMjhfKSV9LGvy7NXTw8PNlx5/2PnReLLAVXhI4ULka4T8oNpeWQ8JPvDAzreo1ILoelJzIX3v+H2mihgqRWsW5vq3NsUzwgd6fXPv9CSHB1llAFTbpzjdjy6cc1n8n1bQvzGupWD5W6Z4hFHMZjP4xumTpRvjQsc0Or81S3J4Pp4qKu5uVgoLI+wzOTE2xdyj4S/scLNv5Q29O5olsQGxYJgIPDdeDZTkwZqgUKihTkm3ZrbfSyiQPa4r2GbnzKm8/Tp610xcoCrqI2P9Zy7jN1N3O+CUto93rMqbEwqIJvzn7TyZ5S4KvqQbHKtthvxQtiM5yzDAhQFXrWJCHyck6DCtLUqyOQEN5ejlO3YIkNEsE2D4wQbGUe2e1pvYQRygDEEutGMiAAt4EXQbeAsEgQ0blqJEIEW7kNeQwK8ggARbgzPhesVAAhg2sABgIDG3zSIFrZ4pv2Ht8ybqRejcSeFbz/+e8J/AeDSLKySWtQHAAAAJXRFWHRkYXRlOmNyZWF0ZQAyMDEzLTEwLTA3VDEzOjE0OjI2KzAyOjAwuMM5cgAAACV0RVh0ZGF0ZTptb2RpZnkAMjAxMy0xMC0wN1QxMzoxNDoyNiswMjowMMmegc4AAAAASUVORK5CYII=",
    "name": {
      "common": "San Marino",
      "deu": "San Marino",
      "fra": "Saint-Marin",
      "hrv": "San Marino",
      "ita": "San Marino",
      "jpn": "ã‚µãƒ³ãƒãƒªãƒ",
      "nld": "San Marino",
      "por": "San Marino",
      "rus": "Ğ¡Ğ°Ğ½-ĞœĞ°Ñ€Ğ¸Ğ½Ğ¾",
      "spa": "San Marino",
      "svk": "San MarÃ­no",
      "fin": "San Marino",
      "zho": "åœ£é©¬åŠ›è¯º",
      "isr": "×¡×Ÿ ××¨×™× ×•",
      "ces": "San Marino",
      "slk": "San MarÃ­no",
      "est": "San Marino",
      "pol": "San Marino",
      "urd": "Ø³Ø§Ù† Ù…Ø§Ø±ÛŒÙ†Ùˆ",
      "kor": "ì‚°ë§ˆë¦¬ë…¸"
    }
  },
  "SO": {
    "currency": "SOS",
    "callingCode": "252",
    "flag": "data:image/png;base64,iVBORw0KGgoAAAANSUhEUgAAACgAAAAeCAMAAABpA6zvAAAABGdBTUEAALGPC/xhBQAAAAFzUkdCAK7OHOkAAAAgY0hSTQAAeiYAAICEAAD6AAAAgOgAAHUwAADqYAAAOpgAABdwnLpRPAAAAQJQTFRFQKb/Qab/PqX/P6b/Qqf/NaH/gMT/YbX/OKL/Qaf/1+z/nNH/MJ//Q6f/O6T/V7H/////1ez/PKT/PaX/L57/lc7//f7/Yrb/NKD/PaT/OqP/UK3/Tqz/Rqn/S6v/TKv/Sar/2O3/q9j/Ua7/Taz/Sqv/brz/4PH/+/3/7fb/7vf/8vn/8Pj/8/r/xOT/U6//w+P//v//+v3/mtD/M6D/fsP/6/b/0ur/XbP/MZ//RKj/K5z/dr///P7/9/v/NKH/rdn/gsX/NqH/P6X/5fP/lM3/rNj/wuL/db//zuj/W7P/Mp//cb3//P3/VK//O6P/N6L/s9v/ntL/OaP/tt3/ksz/0MjB+QAAAAFiS0dEEJWyDSwAAAAJcEhZcwAAAEgAAABIAEbJaz4AAADzSURBVDjLY2AYBSQCRmIVMjETpYyFlY2dg5MohVzcPLwEHAcELHz8AoJ8LJxAJm6FQkJMwgwiogJi4hJMkpJSwrjUMUvLyMrJKygKCCixKKuo8qswYVfHyaemrqGppS0mIKChraMroKcvjMN2Tg5lAwFDIAQhI2NhPpx+Z+EzMTWDKDS3sGTAE0acVtY2Ara2tgJ28vZWeAOIl9VBQAPoRgFHJ7xByehs5SJg5+omIODuxILfQA8BTy9vCR8XXz9/fNHIEhAY5BRsxcvKHBJqgs9uZitlE0agnbzCTsp4/cLALAQxh5FFCL9CRKIlOvUORQAA7TsXFkeDmckAAAAldEVYdGRhdGU6Y3JlYXRlADIwMTMtMTAtMDdUMTM6MTU6MTMrMDI6MDCLtnoIAAAAJXRFWHRkYXRlOm1vZGlmeQAyMDEzLTEwLTA3VDEzOjE1OjEzKzAyOjAw+uvCtAAAAABJRU5ErkJggg==",
    "name": {
      "common": "Somalia",
      "deu": "Somalia",
      "fra": "Somalie",
      "hrv": "Somalija",
      "ita": "Somalia",
      "jpn": "ã‚½ãƒãƒªã‚¢",
      "nld": "SomaliÃ«",
      "por": "SomÃ¡lia",
      "rus": "Ğ¡Ğ¾Ğ¼Ğ°Ğ»Ğ¸",
      "spa": "Somalia",
      "svk": "SomÃ¡lsko",
      "fin": "Somalia",
      "zho": "ç´¢é©¬é‡Œ",
      "isr": "×¡×•××œ×™×”",
      "ces": "SomÃ¡lsko",
      "slk": "SomÃ¡lsko",
      "est": "Somaalia",
      "pol": "Somalia",
      "urd": "ØµÙˆÙ…Ø§Ù„ÛŒÛ",
      "kor": "ì†Œë§ë¦¬ì•„"
    }
  },
  "PM": {
    "currency": "EUR",
    "callingCode": "508",
    "flag": "data:image/png;base64,iVBORw0KGgoAAAANSUhEUgAAACgAAAAeBAMAAACs80HuAAAABGdBTUEAALGPC/xhBQAAAAFzUkdCAK7OHOkAAAAgY0hSTQAAeiYAAICEAAD6AAAAgOgAAHUwAADqYAAAOpgAABdwnLpRPAAAABVQTFRFACZ/ASeApbLS////+6228xkx8xgw8anT+QAAAAFiS0dEAxEMTPIAAAAJcEhZcwAAAEgAAABIAEbJaz4AAAAaSURBVCjPY2AAAyFjMHBNAwOGUcFRQVoKAgDqd3XHPs6NlAAAACV0RVh0ZGF0ZTpjcmVhdGUAMjAxMy0xMC0wN1QxMzoxNDo0OSswMjowMIjkQBwAAAAldEVYdGRhdGU6bW9kaWZ5ADIwMTMtMTAtMDdUMTM6MTQ6NDkrMDI6MDD5ufigAAAAAElFTkSuQmCC",
    "name": {
      "common": "Saint Pierre and Miquelon",
      "deu": "Saint-Pierre und Miquelon",
      "fra": "Saint-Pierre-et-Miquelon",
      "hrv": "Sveti Petar i Mikelon",
      "ita": "Saint-Pierre e Miquelon",
      "jpn": "ã‚µãƒ³ãƒ”ã‚¨ãƒ¼ãƒ«å³¶ãƒ»ãƒŸã‚¯ãƒ­ãƒ³å³¶",
      "nld": "Saint Pierre en Miquelon",
      "por": "Saint-Pierre e Miquelon",
      "rus": "Ğ¡ĞµĞ½-ĞŸÑŒĞµÑ€ Ğ¸ ĞœĞ¸ĞºĞµĞ»Ğ¾Ğ½",
      "spa": "San Pedro y MiquelÃ³n",
      "svk": "Saint Pierre a Miquelon",
      "fin": "Saint-Pierre ja Miquelon",
      "zho": "åœ£çš®åŸƒå°”å’Œå¯†å…‹éš†",
      "isr": "×¡× ×˜ ×¤×™×™×¨ ×•××™×§×œ×•×Ÿ",
      "ces": "Saint-Pierre a Miquelon",
      "slk": "Saint Pierre a Miquelon",
      "est": "Saint-Pierre ja Miquelon",
      "pol": "Saint-Pierre i Miquelon",
      "urd": "Ø³ÛŒÙ†Ù¹ Ù¾ÛŒØ¦Ø± Ùˆ Ù…ÛŒÚ©ÛŒÙ„ÙˆÙ†",
      "kor": "ìƒí”¼ì—ë¥´ ë¯¸í´ë¡±"
    }
  },
  "RS": {
    "currency": "RSD",
    "callingCode": "381",
    "flag": "data:image/png;base64,iVBORw0KGgoAAAANSUhEUgAAACgAAAAeCAIAAADRv8uKAAAABGdBTUEAALGPC/xhBQAAAAFzUkdCAK7OHOkAAAAgY0hSTQAAeiYAAICEAAD6AAAAgOgAAHUwAADqYAAAOpgAABdwnLpRPAAAAAZiS0dEAP8A/wD/oL2nkwAAAAlwSFlzAAAASAAAAEgARslrPgAABFhJREFUSMe9ll1sFFUUx8+5987O7sxOu91lC8uq9IuS0ihpJRqlBQNWjQajLwY1+ABoDCYajTEmvsiDr774wJMx8cHwZIxRHwgiImBEHviKfKwSKdCPbbs7ne7OzM7MvccH0Zhti3UK/nOf7tyZX/5nzv/k4okHhmCJQgBa6tl/FVsikhRShID/GxgRGFJE3ApFNqCQgCGw28C/JRgBfJ+8QOfJKxn9fDaR0JLUCKHuAxDgsvBi0SdEIIF6e1Rnu6t8ZQHTeL0Yct1kozNYugpRBIIDxfztizkmYFxu7m8MtcPdER04sh7swWwDDhzB1GyweWW0pQ9MA6S8E6UWkCf21cmgMQEdqyqzdnniOiuu9lM2fvEjWD6IRGy7AIDHF4wTIo/IyZHTv0KJq62Ql4EjwU9pxRkcFao7dbmSu0GRFj9gQiz4KpHiZI5hVLzeNiyFO9ZATRFL0VXLZJXTo+nfDZUiQfH7S9ioNbsFUEQpXbO4vHFNMF+0lMv2CrNBvFCteixXvY75pPJSiboXYNzexsKWt5q2OJCN2pvJ6RfNOX9NZwAnxeBz7Ogpcmsw8mhY+jzh9OiV2uFy4z25xowaKtZYWcAxB6pxveb5HR+8/duhn8rHPlmzM2UUdgflKfGQefngmWyuv3vfG9/sfd8mEaKKB2YCqHkhgOeZa3v0wUGzfy0/m5378Ou2gb7C9hFn/5fwrZZev17r6mkZHEC3Lhgu8IWlrPmtRYggI766UJ+eth7bVnh1tzPnVhs+RmFjZW/+hR35l56v2TOsWCB1DQApVmcvlmMkUoTgVqu4Zag6eaP63fdzJ09Nnz+D2x5x3bpSkm6GOGaeFh+ZkdS4SGiJyJ5FzzcMQzdNFkbRTEVL6BpEGMnljOtFwIxFruu6dSmU2d3V98qeto4Oput9e3YFuaz0PB9lUKshYuzRJeYHEQGAM3A9nXG0WuZKpakfjnEhNNMcP3bCGNjQ1tWVbNShXkfGECBelEUYNQ96BQTEw6lp6ThRMj1X+tWenMyNT1AmY4+PyUxLsGFDgqtgfEIBC0Op4jnOZ8zmMgMkmCaUwwEr5y5m7h8IPc8ZHU0FjUQ2u+qJkZnT51o33suCIJdrT0NMMFYct3lPKZ42naNH7Ytn7SuHo/aieQmSu3Zga4v30cd+p5DlX3Ldj1vFruxT22W9BozHcdxmpZr3iADBHNh46dN3k0VbP3Ee0sP5detQ18atdHDos8Sm1rHj+4f3HTQEkGUgW9rFramuNF8ASkqeMfqefse/oPjDYD45zLnGQmluHdK2GfWS07PpdaPnHiUlIFIsMVxIjHMiWv3sM11bX7OPcKuzX0vpQtOs7l7nlFG8b2f3y3sBgHGOsUWL3yKIFCKzj/9cKV2QSqGmccEzd3W2bXoQcLmXvVuBAYCUQsZIysieBcZEi4Wck1KIeGfBN9l/Y4iIKF43/WfwX3wCgGW6/KfEUg/ePuSfug1Fi6c/ADM9TeJi4wSsAAAAJXRFWHRkYXRlOmNyZWF0ZQAyMDEzLTEwLTA3VDEzOjE0OjUzKzAyOjAw4D4fzAAAACV0RVh0ZGF0ZTptb2RpZnkAMjAxMy0xMC0wN1QxMzoxNDo1MyswMjowMJFjp3AAAAAASUVORK5CYII=",
    "name": {
      "common": "Serbia",
      "deu": "Serbien",
      "fra": "Serbie",
      "hrv": "Srbija",
      "ita": "Serbia",
      "jpn": "ã‚»ãƒ«ãƒ“ã‚¢",
      "nld": "ServiÃ«",
      "por": "SÃ©rvia",
      "rus": "Ğ¡ĞµÑ€Ğ±Ğ¸Ñ",
      "spa": "Serbia",
      "svk": "Srbsko",
      "fin": "Serbia",
      "zho": "å¡å°”ç»´äºš",
      "isr": "×¡×¨×‘×™×”",
      "ces": "Srbsko",
      "slk": "Srbsko",
      "est": "Serbia",
      "pol": "Serbia",
      "urd": "Ø³Ø±Ø¨ÛŒØ§",
      "kor": "ì„¸ë¥´ë¹„ì•„"
    }
  },
  "SS": {
    "currency": "SSP",
    "callingCode": "211",
    "flag": "data:image/png;base64,iVBORw0KGgoAAAANSUhEUgAAACgAAAAeCAMAAABpA6zvAAAABGdBTUEAALGPC/xhBQAAAAFzUkdCAK7OHOkAAAAgY0hSTQAAeiYAAICEAAD6AAAAgOgAAHUwAADqYAAAOpgAABdwnLpRPAAAArJQTFRFCzWDAw0hAAAAAAEBAAEDEEq3D0atCCdfAQUMAAECD0ewEE29DkKiBhxGD0evD0asD0izEEy7DDmNBBIsAAABD0euCi91AgkXEEy6CCRaAQQJEEy8DT+cBRk+AQEBD0m0DDeHAw8mEEiuD0auEEu4EEm1CCttCA4ZIR0VExMTDQ4PEQ4OEQ0ODkawC0SyD0u6E0mtepTG6+vt/v337v7+7v//8P/+DUawFUurJlafCUOzEUitEUiuEkmtAj2tNWrDsJ7B+ouK+oqK7o6U8I2S8Y2RsK89JVSgB0K1ATy7EEeuEkmvBkCrADelQSd2sQkk5QAA2gAF0gAL1gAIEUmtFEqsB0G12ckftrM4BUC2OWGSjZZXOGGSB0K0EUivEkqxBE67DEy1YzV1zBop6hIT2xYe2BcgBUC3ADm+CkSy08Mm/+UB1cQl/+oApqpDBkG1EkatAEu6G0Smgilb3hEX5w8Q2RIb2hIaR2uIoKNK3soe/N0J+NsL/+cAyb0tCkOzEkasDUixBEq3KECdmyNJ3xEXR2qIn6JKyb0sKECcmyNI1MMlpqtDHESmgila2coftrI5jJZYDUy1ZDV1sK49EEevBkCsADimsQok2gAG0wEL1gAJJlWfD0itDkavAjqsNWjDsJzA+oiJ+YiK7YuT8IuR8YuQD0ivD0K3E0yue5/J7PTw/v/67/7/7///8f//D0S1EEWzC19+D4ZCKJ5CGpI/FI08F407F406D0WyEEO3DVaSCXtMB44oBYorAIQsAoYsA4csEEK5Dk6hCnFeB4ssB4wqB4gyB4kxCIoxD0iuC2dxB4c0Bo0nB4kwD0S0DF2FCIBABo4mB4ovD0ayEEK4DVSWCXhQB40oDkylCm5jB4otB40pB4gxC2V1B4U3Bo4nDViPCH1IBo8lB4ou////wjbOagAAAAFiS0dE5VhlC78AAAAJcEhZcwAAAEgAAABIAEbJaz4AAAHTSURBVDjLY2BgZGJmYSIMGFjZ2DmYODkJK2Tj4ubh5SSslIGPj19AUEiYSYRThJBCPlF+VlYxcSZmTkIK+fjY2CT4JaXw2g9RCLSfS1pGlgmoVA4HgCkE2i8vqKDIJELIRCU+PmV+FVU1dQ1NLW0dLACqUFdPCeRUPn0DQyNjE1MzTABRaG5haWVtYwtUqmtn7+Do5Oziig4gCnVt3dw9PDy9gExvH18//4DAoGA0AFYYEhoWHhEZFR0Ta8PHFxefkJiUnJKalooCwArTMzKzsnNy8/JtwOYX8BUWFZeUlpUjA5BC3YrKquqa2rp6cyVoGDQ0NjW3tJZhKGxrBynsQFHY2YWpEGJ1d24PwurePmxWgzzTPyEyZiLMM5Mm4/AMMHimgIJnKih4pk33mxEwc9ZsbMEDDPA5kACfO2/+goWLFi9ZugwdoETh3OUrVq5avWbtuvWYAClRiM7dsHHT5i1bt23fgQXAkxnf3J27du/Zu2//gYNYAUzhXK5Dh48cPXb8xEkcAKLw1Kldc0+fOXvi+DmcAJy55m44f+Hipct4lIEVzr1y9dr1G0fxKgMqPMV16Oat23eO3z1HQOGGuffuPzhHwDiQwoePHj8hrOzcOQAzcawWKKBwzgAAACV0RVh0ZGF0ZTpjcmVhdGUAMjAxMy0xMC0wN1QxMzoxNTowMCswMjowMHb0YAsAAAAldEVYdGRhdGU6bW9kaWZ5ADIwMTMtMTAtMDdUMTM6MTU6MDArMDI6MDAHqdi3AAAAAElFTkSuQmCC",
    "name": {
      "common": "South Sudan",
      "deu": "SÃ¼dsudan",
      "fra": "Soudan du Sud",
      "hrv": "JuÅ¾ni Sudan",
      "ita": "Sudan del sud",
      "jpn": "å—ã‚¹ãƒ¼ãƒ€ãƒ³",
      "nld": "Zuid-Soedan",
      "por": "SudÃ£o do Sul",
      "rus": "Ğ®Ğ¶Ğ½Ñ‹Ğ¹ Ğ¡ÑƒĞ´Ğ°Ğ½",
      "spa": "SudÃ¡n del Sur",
      "svk": "JuÅ¾nÃ½ SudÃ¡n",
      "fin": "EtelÃ¤-Sudan",
      "zho": "å—è‹ä¸¹",
      "isr": "×“×¨×•× ×¡×•×“×Ÿ",
      "ces": "JiÅ¾nÃ­ SÃºdÃ¡n",
      "slk": "JuÅ¾nÃ½ SudÃ¡n",
      "est": "LÃµuna-Sudaan",
      "pol": "Sudan",
      "urd": "Ø¬Ù†ÙˆØ¨ÛŒ Ø³ÙˆÚˆØ§Ù†",
      "kor": "ë‚¨ìˆ˜ë‹¨"
    }
  },
  "ST": {
    "currency": "STD",
    "callingCode": "239",
    "flag": "data:image/png;base64,iVBORw0KGgoAAAANSUhEUgAAACgAAAAeCAMAAABpA6zvAAAABGdBTUEAALGPC/xhBQAAAAFzUkdCAK7OHOkAAAAgY0hSTQAAeiYAAICEAAD6AAAAgOgAAHUwAADqYAAAOpgAABdwnLpRPAAAAdFQTFRFgUwAAaMAAp0AAZwAAJ0A+gEAi0YAAKcAA50A6AwA/wAAjUQAAKYA6woA7ggAj0MAAKUA8gUA7QkAkUIA6wkA8QYAk0EA7AkAlEAAAKQABZ0ABJ8AlT8AAJYAAJQA7goAokMAZc8Ab8gAbcUAbccA8QsA8QUA7gkA+wAA/2oA//8A//4A8QoA7AAA8mAA/P8A+/wA+fsA+v0A+/4A+/0A+vwA8AAA9mEA/v4A8goA7QAA+2gAw8QA6ekA7e0AwMAA/PwA7wYA9ggA/wUASQcAuMUAw8MAREQA/f0A8AYA8gYA7gYAdwMARAUADAAAMDIAU1IAxcUAzMwAVVUAMzMACwsAR0cAeHgA+PgA8QkA9AYA2wYAPQUAAAAABAEAnZ0ApqYABwcAOTkA4+MA7QcA/wgAWQAAITEAGBQAz88A2NgAGhoAIiIAUVEA8AcA9QcA4AAAhnQAu7kAra0As7MAiIgA5+cA8QcA8QAA954A/f8A/vwA+/sA8QgA7QYA9ZoA+fkA/P4A/gAA/6AA//0A8AgA+AAAhWwAadgAbsMA7wcAZ14AApIAaVwAAKkABZsABJ4Aa1oABJsAblkAcFcAAKgAclYAdVQAd1MAA5wA////YmTFYgAAAAFiS0dEmpjfZxIAAAAJcEhZcwAAAEgAAABIAEbJaz4AAAGJSURBVDjLY2BgZGJmIQIwsLKxcxCjkoGTi5uHGJUMvHxc/AJEqGTgFRTiEiZCJYOIoKgQlxhhlQzigqJAlRKSHFLSeAFYIVCljKSsnCw+wCAPUghUqaCopKyCBzCoqoEUiqpraGppa+EBDDoQhaLqunr6BoZGxiYQYGxiCmNCAFyhqI6ZuZaFBdwEJCaqiaKillbWNrZaEHkLLTt7LQccCh2dnF1cobIOWm7uWh4W2BR6enn7+Pr5BwRqeQBhUHBIaFh4hBZCKUMkzETPqOiY2Lh4sJyFVkJibFIykjokhaIpqWnpGZlA47SAOCs7JxfFkQiFefkFhVpFCWCFDlrFJVqlZVhNLC+vqKyqtqiBitdYWHig+roWqq5Ot76qwcjQxBga3oZGho0oAQ5RmJfX1KzVgjcKW8HqytvaOzpV8CaKLrB5XN3sPbL4k1keUF0XV29f/wQCCTcPpG5i3ySCeSbPs4trMmF1LAxdXVxTphJWB1TINY0YdSwMTdOJsBekcAbPTGLUsQAAE1aYJc9tpZgAAAAldEVYdGRhdGU6Y3JlYXRlADIwMTMtMTAtMDdUMTM6MTQ6NDkrMDI6MDCI5EAcAAAAJXRFWHRkYXRlOm1vZGlmeQAyMDEzLTEwLTA3VDEzOjE0OjQ5KzAyOjAw+bn4oAAAAABJRU5ErkJggg==",
    "name": {
      "common": "SÃ£o TomÃ© and PrÃ­ncipe",
      "deu": "SÃ£o TomÃ© und PrÃ­ncipe",
      "fra": "SÃ£o TomÃ© et PrÃ­ncipe",
      "hrv": "Sveti Toma i Princip",
      "ita": "SÃ£o TomÃ© e PrÃ­ncipe",
      "jpn": "ã‚µãƒ³ãƒˆãƒ¡ãƒ»ãƒ—ãƒªãƒ³ã‚·ãƒš",
      "nld": "Sao TomÃ© en Principe",
      "por": "SÃ£o TomÃ© e PrÃ­ncipe",
      "rus": "Ğ¡Ğ°Ğ½-Ğ¢Ğ¾Ğ¼Ğµ Ğ¸ ĞŸÑ€Ğ¸Ğ½ÑĞ¸Ğ¿Ğ¸",
      "spa": "Santo TomÃ© y PrÃ­ncipe",
      "svk": "SvÃ¤tÃ½ TomÃ¡Å¡ a Princov ostrov",
      "fin": "SÃ£o TÃ©me ja PrÃ­ncipe",
      "zho": "åœ£å¤šç¾å’Œæ™®æ—è¥¿æ¯”",
      "isr": "×¡××• ×˜×•××” ×•×¤×¨×™× ×¡×™×¤×”",
      "ces": "SvatÃ½ TomÃ¡Å¡ a PrincÅ¯v ostrov",
      "slk": "SvÃ¤tÃ½ TomÃ¡Å¡ a Princov ostrov",
      "est": "SÃ£o TomÃ© ja PrÃ­ncipe",
      "pol": "Wyspy ÅšwiÄ™tego Tomasza i KsiÄ…Å¼Ä™ca",
      "urd": "Ø³Ø§Ø¤ Ù¹ÙˆÙ…Û’ Ùˆ Ù¾Ø±Ù†Ø³Ù¾Û’",
      "kor": "ìƒíˆ¬ë©” í”„ë¦°ì‹œí˜"
    }
  },
  "SR": {
    "currency": "SRD",
    "callingCode": "597",
    "flag": "data:image/png;base64,iVBORw0KGgoAAAANSUhEUgAAACgAAAAeCAMAAABpA6zvAAAABGdBTUEAALGPC/xhBQAAAAFzUkdCAK7OHOkAAAAgY0hSTQAAeiYAAICEAAD6AAAAgOgAAHUwAADqYAAAOpgAABdwnLpRPAAAAPxQTFRFAJkAAZkBAJcAEaAR7vfs/////uvq/ujq/uzq/xAQ/w8Q/yIQ/wAA/wEA/xEA/58A/wMA/wEB/wMB/wQB/wcB/wAB/0YB//8B/zAB/wIB/5YA//8A/4EA/wQA/ygA/1MA/0AA/0EA/0oA/+MA/9kA/0cA/1sA/yQA/xoA/7EA//4A/6AA/1IA/+gA//0A/98A/0IA/wUA/ywA//sA//wA//QA/yAA/1QA/0sA/6wB/6EB/ygB/6YB/6QB/wUB/x4A/9gA/1EA/wIA/9UA/xkA/xYW/xgW/xAW/zoW/zUW/wIW/xoW/zcW/vLx/vPx/uzx/vbx/u3x7/fuEqASQPZ3DwAAAAFiS0dEBfhv6ccAAAAJcEhZcwAAAEgAAABIAEbJaz4AAAD3SURBVDjLY2AYOMBIJGBgIhIwMBMJGFiIBAysRAIGNkzAzoFFkIETDXBxcXJzcXKhC3My8KABXh4+fgEeTMAgiAyEhIVFRMXEJURFhIUlUWQEMUwU4JGSluGRxTQRxVY5eQVFJWVpFVVVVTV1IB+nQg1NaS0o1ObDrRCkVEdXWg8I9Q1QlWEoNOQxMtYzkTY145HFqxDoFXNpE2M9aQse9CBCDR5BYVFLcStrG3FbUTtBfMHDy2Pv4MjjxGPu7ILhRldk4Obu4enl7e3t5enj7oYi48rgiwL8/P0DgFSAf6AfqoQv8cksiEjAEEwkID5zEZ1dBw4AAEpqU4Ui4NrQAAAAJXRFWHRkYXRlOmNyZWF0ZQAyMDEzLTEwLTA3VDEzOjE0OjU3KzAyOjAwFHE73wAAACV0RVh0ZGF0ZTptb2RpZnkAMjAxMy0xMC0wN1QxMzoxNDo1NyswMjowMGUsg2MAAAAASUVORK5CYII=",
    "name": {
      "common": "Suriname",
      "deu": "Suriname",
      "fra": "Surinam",
      "hrv": "Surinam",
      "ita": "Suriname",
      "jpn": "ã‚¹ãƒªãƒŠãƒ ",
      "nld": "Suriname",
      "por": "Suriname",
      "rus": "Ğ¡ÑƒÑ€Ğ¸Ğ½Ğ°Ğ¼",
      "spa": "Surinam",
      "svk": "Surinam",
      "fin": "Suriname",
      "zho": "è‹é‡Œå—",
      "isr": "×¡×•×¨×™× ×",
      "ces": "Surinam",
      "slk": "Surinam",
      "est": "Suriname",
      "pol": "Surinam",
      "urd": "Ø³Ø±ÛŒÙ†Ø§Ù…",
      "kor": "ìˆ˜ë¦¬ë‚¨"
    }
  },
  "SK": {
    "currency": "EUR",
    "callingCode": "421",
    "flag": "data:image/png;base64,iVBORw0KGgoAAAANSUhEUgAAACgAAAAeCAMAAABpA6zvAAAABGdBTUEAALGPC/xhBQAAAAFzUkdCAK7OHOkAAAAgY0hSTQAAeiYAAICEAAD6AAAAgOgAAHUwAADqYAAAOpgAABdwnLpRPAAAAr5QTFRF//////7+//v7//z8//39/v7+/v39/v///+7u/3t7/nh4/nl5/nd3/4aG/4+P/4mJ/np6/nBw/87O/vz8/97e/gUF/gAA/gEB/gMD/kVF//f3/nx8/gQE/6Gh7u727uz17fT9+dnc/wsL/gYG/goK/iUl/mlp/ggI/aKj7///7eryEhKHFRSHBAyHr4+2/xUO+wAA/5WV/7q6/7e3/6en/8PD/iAg/QAA/wAA6o2XHy+eDwuBExOHAAB8AwJ8AAB7qYiy/xYO+gAA/6mp//T0/+fn/+zs//Ly/iEh6YyWDR6TAAB2AQF8AgJ/BgR/AAB+qYmz/xcP/hMT/i0t/mpq/h4e/hkZ/QEC6YyXDyCWAAB5AwN/AQF+BAN+qIiz/xoS/mJi/+/v//Dw/+Li6IyXDh+VAAB4AgJ+qIm0/xsT/mBg//X1/9nZ/eTl+/7//ezt/9vb/6Sk6I2YBQR/mY/B/y4m+w4P+gkL/ikp/25u/AAA+gUH+gsN+wEC/wEA252vBRKNAAB6BQWAAABzYm+7/2Fa/wQD/gIC4yAtrcLrzVBo/wMD/wIB/ycgqprDBAN/AgF9AAB3IS+b9ZufqAQvnQIypgItDwF3AAF/ggI/tgIlmAU46QAA/3BmXGu5AAByAAGAAwOBsKHGfTxzAACABASIAAGDAQGABAR/AgKAAAGCAwKEAAGKOwti27LAChaOAAB9AQKBEgF1FAN3BwBwPzONp7LeAAJ3BQJ6AgF+BAJ+CQZ/AABseYnLcmyuAQBrFgR47QEK7QEJ7gQN5gAA/2ddlqDVAQB1BQSAAwJ5AABxYnfG/peR6AAA7QMM/wQC/2Nbta7RHSycAAB0AgJzDRiPk5vR/4qF/gIA/zAp86GkkY/GOkyteX/B5qq2/0tD/QQE/QIC/QEB+wEB/zwz/4N+/05G/gUC/QMD/AICh3PFowAAAAFiS0dEAIgFHUgAAAAJcEhZcwAAAEgAAABIAEbJaz4AAAHCSURBVDjLY2AYdoCRCQyYmcEUC2WGsbKysrFzcHJxc/Pw8vEDKQFBIXZhVgwAUsvCICIqJi4hJiklLSYhJiMmy8CExUQ5OTl5BUUlCWUVMVUGNTFlZXUxDU0tOQzAoK2traOrp28gZmhkzCBkYmpmbmFpZW2jjQ4YbG1t7ewdHJ3EnF1cGVzc3D3MLTy9vH1s0QGDr6+vn39AoFOQh1gwQ4hYaFi4RURkVLQvOmCIiYmJ9Y+Ld0pgdE1kSEp2NzG3SElNS49BBxCFGZlOWdk5uXn5BUmF5hZFuBQWp5WUOpWVG1QwVFZV19TW1Tc0YlfY1NzS6tTWbtHR2WXR3ePU22ffH4OpcMKECbETJ002nzJ12vS0GTNnzZ4zd958vwkYgGEBECy0XbR4ydJly1esXLV6zdp16zdsXIABGDYBweYtW7dt3+E3IWbnrt179u7bf2ATJmA4CASHDh85eqzx+IkVJ06eOn3m7LmDWABDHRicN7hw8dLlK81Xr12vulGHDTCEQ4CMwc1bt+/cvXff4MHDR+FYAIM4FMg8Fnvy9NlzA5l2cawArlBc4oVTldNLGXFxQgqBSkVxKkNViBcMoEIAB2QRibuKCK0AAAAldEVYdGRhdGU6Y3JlYXRlADIwMTMtMTAtMDdUMTM6MTU6MTgrMDI6MDCJsS7yAAAAJXRFWHRkYXRlOm1vZGlmeQAyMDEzLTEwLTA3VDEzOjE1OjE4KzAyOjAw+OyWTgAAAABJRU5ErkJggg==",
    "name": {
      "common": "Slovakia",
      "deu": "Slowakei",
      "fra": "Slovaquie",
      "hrv": "SlovaÄka",
      "ita": "Slovacchia",
      "jpn": "ã‚¹ãƒ­ãƒã‚­ã‚¢",
      "nld": "Slowakije",
      "por": "EslovÃ¡quia",
      "rus": "Ğ¡Ğ»Ğ¾Ğ²Ğ°ĞºĞ¸Ñ",
      "spa": "RepÃºblica Eslovaca",
      "svk": "Slovensko",
      "fin": "Slovakia",
      "zho": "æ–¯æ´›ä¼å…‹",
      "isr": "×¡×œ×•×‘×§×™×”",
      "ces": "Slovensko",
      "slk": "Slovensko",
      "est": "Slovakkia",
      "pol": "SÅ‚owacja",
      "urd": "Ø³Ù„ÙˆÙˆØ§Ú©ÛŒÛ",
      "kor": "ìŠ¬ë¡œë°”í‚¤ì•„"
    }
  },
  "SI": {
    "currency": "EUR",
    "callingCode": "386",
    "flag": "data:image/png;base64,iVBORw0KGgoAAAANSUhEUgAAACgAAAAeCAMAAABpA6zvAAAABGdBTUEAALGPC/xhBQAAAAFzUkdCAK7OHOkAAAAgY0hSTQAAeiYAAICEAAD6AAAAgOgAAHUwAADqYAAAOpgAABdwnLpRPAAAAbBQTFRF/////v///f3+/Pz9+/z9/P3+/f7+/v7+/v7///7++vv80drut8PXpLTTq7nSvMje4Obz/f391LbBKE2hADKiNVFwGTeJMUl2HEKCAjmlUV+g+t/d/v3+/Pv8x5CdACKICz+fAjalOliBI0qQBjiiADqhJSd5+c7J/v3916atDiyKCD2gAjScIUeIFUCQBTSbADujPDh//93X/fz9/vz85ra3FCmDCz6jDzycdpLOSW25FT+dADSgTT59/+nh/f//7vL47u/28Pz/68HBGCJ6eJrR5ur07PD34Oby5urzL2C1WD54/+vn6/T97vH3GUejGkaiE0qqMTeEfWmW+/////792+j4YT91IESbF0elGUajBDaaAjedCjCQd055ssvroLDWq7vcobLXqb/iqK/QVjNsADaeBjaaCTqcCzqbAz2jNSt0bFmMyN/3wdHrzt/0rMHjXDdtHzOKBDyhCjqcCDmcCTmcBTuhPjF3j2mN29HcyLfJdk14JzOFAzuiCTmbATuiDyyKOClwLSh0BjKVCjmbBjygATyjAjyjCDueBDmeFziTzyoh4ikW3SkZ3ikYRVLwSwAAAAFiS0dEAIgFHUgAAAAJcEhZcwAAAEgAAABIAEbJaz4AAAEFSURBVDjLY2CgEWBkYmZhYWUjqI6dA0pzElLJxc3Dy8cvQECVIIOQsIiomLiEpJQ0gwwehbIMcvIKikrKKqpq6gwauFRxcHDIMmhqaevo6ukbGBoxGnNgByC1JgymZuYWllbWNrZ29ji94+Dg4Ojk7OLq5u7h6eXt4+vngB0w+Pv7BwQGBYeEMrAxhIVHREb5YwcM0UAQExsXn5CYlJySmpYejQMwZABBZlZ2Tm5efkFhUXFJBg7AUAoCZeUVlVXVNbV19aW4AERhaVlDY1NzS11rKSGFpa1t7R2deNTBFZaWteJTBlRYTyRg6CISMHQTCRh6iAQMvUQChj4iAUM/kWBkKgQAEhil/zRkdXwAAAAldEVYdGRhdGU6Y3JlYXRlADIwMTMtMTAtMDdUMTM6MTU6MDMrMDI6MDBHHHqWAAAAJXRFWHRkYXRlOm1vZGlmeQAyMDEzLTEwLTA3VDEzOjE1OjAzKzAyOjAwNkHCKgAAAABJRU5ErkJggg==",
    "name": {
      "common": "Slovenia",
      "deu": "Slowenien",
      "fra": "SlovÃ©nie",
      "hrv": "Slovenija",
      "ita": "Slovenia",
      "jpn": "ã‚¹ãƒ­ãƒ™ãƒ‹ã‚¢",
      "nld": "SloveniÃ«",
      "por": "EslovÃ©nia",
      "rus": "Ğ¡Ğ»Ğ¾Ğ²ĞµĞ½Ğ¸Ñ",
      "spa": "Eslovenia",
      "svk": "Slovinsko",
      "fin": "Slovenia",
      "zho": "æ–¯æ´›æ–‡å°¼äºš",
      "isr": "×¡×œ×•×‘× ×™×”",
      "ces": "Slovinsko",
      "slk": "Slovinsko",
      "est": "Sloveenia",
      "pol": "SÅ‚owenia",
      "urd": "Ø³Ù„ÙˆÙˆÛŒÙ†ÛŒØ§",
      "kor": "ìŠ¬ë¡œë² ë‹ˆì•„"
    }
  },
  "SE": {
    "currency": "SEK",
    "callingCode": "46",
    "flag": "data:image/png;base64,iVBORw0KGgoAAAANSUhEUgAAACgAAAAeCAMAAABpA6zvAAAABGdBTUEAALGPC/xhBQAAAAFzUkdCAK7OHOkAAAAgY0hSTQAAeiYAAICEAAD6AAAAgOgAAHUwAADqYAAAOpgAABdwnLpRPAAAAJxQTFRFAEBzAD90I1NjG05nAD50AD9zHVBmG09nPGFYM1tcGk5nHE5m37sO37oO5L0M4bsN3bkP3roP5L0M/80A/8wA3LkQAEBzAD90I1Nj3LgQGk5nAD50AD9zAD51I1JkGk1oAD11578L4LsO/MoC+skC4rwN4bwN5r4L/MoB+8oC470MIFFkHlBlP2JXNl1bHU9mH1BlI1FkI1Jj////hM0NagAAABJ0Uk5T/Pz9/Pz8/v7+/v7+/v7+/v7+yMbBHgAAAAFiS0dEMzfVfF4AAAAJcEhZcwAAAEgAAABIAEbJaz4AAACNSURBVDjL7dHJDoJAEEXRh+KE4tQlqC2COA/g8P8fp0AKNxXSC+OKs75JJa8AZjWmikjNmnZLAo/58zxcLPVKUoc/Cn0WrIswjLQEbdbpbrIw7jl9CQbMHW7pYzcaTyRQX5RTMpAh89D49J4djqesO19iEa7slhTzpPeHBOWi0bN68PJH+lX9wjr8b/gGzuNz038exeMAAAAldEVYdGRhdGU6Y3JlYXRlADIwMTMtMTAtMDdUMTM6MTQ6NTYrMDI6MDCyBjBrAAAAJXRFWHRkYXRlOm1vZGlmeQAyMDEzLTEwLTA3VDEzOjE0OjU2KzAyOjAww1uI1wAAAABJRU5ErkJggg==",
    "name": {
      "common": "Sweden",
      "deu": "Schweden",
      "fra": "SuÃ¨de",
      "hrv": "Å vedska",
      "ita": "Svezia",
      "jpn": "ã‚¹ã‚¦ã‚§ãƒ¼ãƒ‡ãƒ³",
      "nld": "Zweden",
      "por": "SuÃ©cia",
      "rus": "Ğ¨Ğ²ĞµÑ†Ğ¸Ñ",
      "spa": "Suecia",
      "svk": "Å¡veÃ©dsko",
      "fin": "Ruotsi",
      "zho": "ç‘å…¸",
      "isr": "×©×•×•×“×™×”",
      "ces": "Å vÃ©dsko",
      "slk": "Å vÃ©dsko",
      "est": "Rootsi",
      "pol": "Szwecja",
      "urd": "Ø³ÙˆÛŒÚˆÙ†",
      "kor": "ìŠ¤ì›¨ë´"
    }
  },
  "SZ": {
    "currency": "SZL",
    "callingCode": "268",
    "flag": "data:image/png;base64,iVBORw0KGgoAAAANSUhEUgAAACgAAAAeCAIAAADRv8uKAAAABGdBTUEAALGPC/xhBQAAAAFzUkdCAK7OHOkAAAAgY0hSTQAAeiYAAICEAAD6AAAAgOgAAHUwAADqYAAAOpgAABdwnLpRPAAAAAZiS0dEAP8A/wD/oL2nkwAAAAlwSFlzAAAASAAAAEgARslrPgAABO5JREFUSMfll1tsVFUUhv+1zmXOdKadKRAHUjCCFXsRSMAEFCIqXhINaAI00aY1Engw8QGfTNAHHvogmBCQAFoTEwwXDUQEIVgoTYAQExuE1hLackvDpVCg0M7tzJy99/KhpVyiCeVlHtzP519f/rXXZR96pb4JhThcEGohwbbFujDggUysIGBq+nlBYcBy94mlgAUIIIAZvfrMZ+HH/9oABApBQkwqrwcHc2zDcpnDnjCLHkW50C4UP463IUtRcID8ZeIzkgslyt57Y2Hmem+ms8u/2m0j76JYwPJ49u1QTP6F8/DRggjBBo7mMgdCsY5cJsiqXT9sfPWdhVobDd3XdupCY2Pftu2eUhyNGh08FIWImMUYmPss2huNPsoR4AGhBood6mNalxzsnjJ/2qzacH9Px7nDLfsbq16YoXI5y3UJAFFPa+vJFSvQ1uZG4iZQIEDANpsgFwQ527bZ80bI1geu+5BbgXEF4wXFghLRJRIrQWtaf55M9xDPnvHhM7ZV6hVdvXmz/e8jS5csdUbkIvGJE8uXLbva1ZW++Jc7yTMRzXFkdIqnlD/1fk1OBerWLYuGDdnDMh62KgY6IlalYkPKIM50JK3WXFZPT352PCmxrqfSlu+OLZtUsn/f9sWLl2zYsF5rPZRO0ZqY5+/ceWKD079rhzcuQmRSQby0YtbkZZ+k2GS6Ox0LYgCBPXSnKsk2CWyt5mjLgdzmvGBcDL9f02tOayLU19WyZQkhOSg9HV2zX5t+5dKx5ubmTZs2xWKxIAgAWJaVzWa//GLV/E+3H+nN9v62xy+uWrSl6fKx5t9mzpmoMhErmtOW42k4oH2RaMAoeSk76NsDmUg8ko2O0QoUcbD3pFl3IWALolFVXc3MAIVCdj6Xt22nq7s7nU6vXr26rq4umUxalgXAGFNZUeG4ru+rlpWL6MpBq2ySSWciqTuXrsVDVjAhkexvK+LrbAuRY4LLxeMPldekBxOhojv1fes9DWKwpuHmHSk7MdlsnggjNaL/q3dFSIENcO2Gp/Odiak/TVwZYsxxfplx6igQtg1xUT7X0j73bnl5TA8M5kKpo7YhHhC8G4Yd5q+yPgFLFi+2bNsYM2SrtLS0oaGhurra87ytW7cCEJHhVK9axa7bUluT2XPQ5rgIsiJN0143lTET+Iduv1nVe9wLi01itBN+8c6xluyE24npZRebS8PZXCgaEnPH4C045GGt7/+4bZvDrEVGOhPA5s2bE4lENptlZgBDxWVHIi319Zk9v3qlcaOVEHsKlf7pU6kyFS6dmvwjykFOQrQ3GhXiony6bUz52fHTFpw/HDOBIqZ7TRwjalWqwfdTInSvzwE4jjN37twtW7ZUVFQYrYmImIN8vqW2Nrl7txePG6XuDz6jO8c+d27c8293HwgT65EBIsSODiyVU25YgR6cXRooJroBfOP7fyoFwGLWWldMnfp9Y+PL8+YR8/0Bsnw52tvdB6gj3cpGGTFkOUPxaV9seHIJEYhIDB6eoQRoIESwgeNK7ckHZ7VWIBjhSPijZR9vXPv13TMd3d9+d2v7Dk8rjkYfoY7Ep6F8CTD6JUEK0gNzHuY2JIBySS8YM9ntv0bij2pJPMFaRAhwQAwQETElfV9cF6Ndi0/+EHgwITJqkX2oqUBPn5k1JwoCtmNFA4UBa2MVBPz/+4X5B7UOY07uJBIYAAAAJXRFWHRkYXRlOmNyZWF0ZQAyMDEzLTEwLTA3VDEzOjE0OjM1KzAyOjAwRYEjcQAAACV0RVh0ZGF0ZTptb2RpZnkAMjAxMy0xMC0wN1QxMzoxNDozNSswMjowMDTcm80AAAAASUVORK5CYII=",
    "name": {
      "common": "Eswatini",
      "deu": "Swasiland",
      "fra": "Swaziland",
      "hrv": "Svazi",
      "ita": "Swaziland",
      "jpn": "ã‚¹ãƒ¯ã‚¸ãƒ©ãƒ³ãƒ‰",
      "nld": "Swaziland",
      "por": "SuazilÃ¢ndia",
      "rus": "Ğ¡Ğ²Ğ°Ğ·Ğ¸Ğ»ĞµĞ½Ğ´",
      "spa": "Suazilandia",
      "svk": "Svazijsko",
      "fin": "Swazimaa",
      "zho": "æ–¯å¨å£«å…°",
      "isr": "×¡×•×•×–×™×œ× ×“",
      "ces": "Svazijsko",
      "slk": "Svazijsko",
      "est": "Svaasimaa",
      "pol": "Suazi",
      "urd": "Ø³ÙˆØ§Ø²ÛŒ Ù„ÛŒÙ†Úˆ",
      "kor": "ì—ìŠ¤ì™€í‹°ë‹ˆ"
    }
  },
  "SX": {
    "currency": "ANG",
    "callingCode": "1721",
    "flag": "data:image/png;base64,iVBORw0KGgoAAAANSUhEUgAAACgAAAAeCAMAAABpA6zvAAAABGdBTUEAALGPC/xhBQAAAAFzUkdCAK7OHOkAAAAgY0hSTQAAeiYAAICEAAD6AAAAgOgAAHUwAADqYAAAOpgAABdwnLpRPAAAAk9QTFRF+LC270RS+83R8Vtn/enr9ICK+Kmv7z9N+87S+Kmw/+vr73yI5er1aXm8xMznO1aumKbUGzqg5ej3aHzAxMzjPFaumKbV5ej1aH3C5ej0w8vmO1atoK3YIT6i7SY27Sk5//7+7Sg4////7S8+7Sc3/vj5///8/v/v///5/fv88unZ7N9/59JR48x58OXK+/j4/vn6/+Hh+9XQ7bZP3ogq0Hg/13sz6qo188ez/tzc//v795KSxFxOzWRBxmRWzVxKy2NY02BL02Vl8XV3//j496ytgo1eW7VdZrCxgo+VebC9iMHQlqiz6JGU///+/ry9oI6RabyznbvBwcDAqLzAiLnEmKCr8Zia7yk4/v7y/P/Z/La0ppKelrO6uLe3rq6utLOzobG0k6e18ZSX/f7g/f3n0ipF0ChE+fmu9PVb85qVlKKwl6isoaCgm5ubmpqaoKanibK/4YKJ9u149vaCHSWLHCSKHSSK8faB6u5+8IOHjqe1maqtvL296urqxMXFpaurhrfD2nF57d2e3+5h/v74/v//ASKVACOW6vWo2/Fu/JiTyVVct4mOsZyiqLW8raGnuJKWvWRr9Wxw5+yM4PF69/j8ACCUACOV+fvi1e1T6ep9/KyT+IiG8nN54mBo7m929oOE+5qM8NuP2e9E9Pq+CCmYACGU9fnE2u9a6vc8+PpX+PeW8+Of+PSe9/ps3vJK1+9P7/ejASGUACKV/P3x9Paf9/ZC8Pcy1e5D6fQ1+Pg38fSD9Pbh/v73/f3q/Pzi/Pzn///1/v7/ACCTZ/3rWQAAAB50Uk5T/v7+/v7+/v7+/v7+/v7+/v7+/v7+/v7+/v7+/v7+RRzUyQAAAAFiS0dEIl1lXKwAAAAJcEhZcwAAAEgAAABIAEbJaz4AAAFkSURBVDjLjdBjcwNhFIbhrc3Uzlvbtp3atm07tbW1bdv9Yc2mSdtpsvvu8/maueccBOHR0CQzRIuXj0olAwHgF9DWIQWBrqAQPI9BAITh+W9IIs+C8DwbQvMsqKdvAMkzoaGRsYmpmbmFCEEeg5ZW1ja2dvYOjk4EeQw6u7i6uXt4enn7EOQx6OvnHxAYFBwSSiO4HoNh4RGRUdExsXHs6+O5DAEJiUnJKalp6RmZWdk5mBQVy83jHALyCwqLiktKy8orKquqMSguUVNbxzEE1Dc0NjW3tLa1d3R2dfcAuqRUbx+XIaB/YHBoeGR0bHxicmqaNiMtM4tyGwLm5hcWl5ZXVtfWNza3ZCnbOygOBLt7+weHR8cnp2fncvIXlyguBFfXN7d39w+PTwo4WTYE4Pnl9e1dUQkv+wsZo0viZ/9C3Gv/QWUKUfYHMp5MmGVDaJYF4Vkm/FBRhWaZUE39kwRD0S96IZTLS03RjwAAACV0RVh0ZGF0ZTpjcmVhdGUAMjAxMy0xMC0wN1QxMzoxNDo0MSswMjowMLsLDnsAAAAldEVYdGRhdGU6bW9kaWZ5ADIwMTMtMTAtMDdUMTM6MTQ6NDErMDI6MDDKVrbHAAAAAElFTkSuQmCC",
    "name": {
      "common": "Sint Maarten",
      "deu": "Sint Maarten",
      "fra": "Saint-Martin",
      "ita": "Sint Maarten",
      "jpn": "ã‚·ãƒ³ãƒˆãƒ»ãƒãƒ¼ãƒ«ãƒ†ãƒ³",
      "nld": "Sint Maarten",
      "por": "SÃ£o Martinho",
      "rus": "Ğ¡Ğ¸Ğ½Ñ‚-ĞœĞ°Ñ€Ñ‚ĞµĞ½",
      "spa": "Sint Maarten",
      "svk": "SvÃ¤tÃ½ Martin",
      "fin": "Sint Maarten",
      "zho": "åœ£é©¬ä¸å²›",
      "isr": "×¡× ×˜ ×××¨×˜×Ÿ",
      "ces": "SvatÃ½ Martin (Nizozemsko)",
      "hrv": "Sveti Martin",
      "slk": "Sint Maarten",
      "est": "Sint Maarten",
      "pol": "Sint Maarten",
      "urd": "Ø³Ù†Ù¹ Ù…Ø§Ø±Ù¹Ù†",
      "kor": "ì‹ íŠ¸ë§ˆë¥´í„´"
    }
  },
  "SC": {
    "currency": "SCR",
    "callingCode": "248",
    "flag": "data:image/png;base64,iVBORw0KGgoAAAANSUhEUgAAACgAAAAeCAIAAADRv8uKAAAABGdBTUEAALGPC/xhBQAAAAFzUkdCAK7OHOkAAAAgY0hSTQAAeiYAAICEAAD6AAAAgOgAAHUwAADqYAAAOpgAABdwnLpRPAAAAAZiS0dEAP8A/wD/oL2nkwAAAAlwSFlzAAAASAAAAEgARslrPgAABWlJREFUSMeVlluMnVUVgL+19j6dMlM7xYxVLAnW2DRYGmhkrMBgW2mRJpRepwNKKtGo8dJolKIJVBQlKUlhfGhijLyROBP7oEgiojESTDCiZkI717Yz9DJMSVs7F2amc9l7Lx/+85+5cDqX/XQe/r2/vb6111pH4NcsZomYmftIzWhLy9Orbh5ISVRt/m0GAQpwHnbACXRRVEDVYOlPn/7DqpsHYtQFURNEKMBf4bNwAmSRYOdSjFX3b2359nf/bibOpfn3RAA8PAv3wyVQMPyiJMfoKitHXmhsBswQmW9PAA8D8Bi8DB4SJGAxETuXoPInT/1x3W19Icwn2XLqf+HOnBqL1EWAnaYQKu/a2P74E382w/s5JWdheXgR7oZu8BBg2lUXCo6m3k02/rLJObM0p+IAChG+AV+HCAph9lcLAnsfsapDh17d+Ll3QlB115Fc0tsD98BvZiR10WDVFMIN62/rOXz4FYqZvo7eCB5egc/Af8roXWzEAtb4QtMNlZMxavmXHEHAw2F4CIbAldE7w+K8kkNY/p1vvXrfto4YtXy4md4r8Ci8luuN80QzF1jVQqj45Op3f/6L31PsWTOX5Xr/CQ1wIa+ZBXSzOVWLgT96tPnGD4/GqCIzzyvVzDH4PFzI9S6AOhfYu5jiske//I/de1rKSM5qZgIOwEGwvIQWvMqrFrEQl3zso1eee+74bMklvV1QDycXoTc7GlVEykesalBx5Mjxj68aDGGa5FLNHIfanLpAvc7hPWbESAi+3AcpxqqHdrz1lcfeTEmnumPWgxwcgqP577AAnggxEiNAocC997Jv32ywiMXoV1QPPf98c242T6qH9+AReH12xy8rDdUpnvfU1lJfz65drF5dJsfOpRCWPfOz5k+tuRyCep+mkvo6fAku5nrn5qVESqiyYQP79rFnD2vX5vlKpOQ/QK3asvntg9/7m5l4n6Za0lF4IvuoHDXjZbCUANatY+9e9u5l/fri3C5dRRXVKbAIMbqlFdcaG5vI5nwW6DB8FY6Xa0kf5K1Zw+7d1NezYQPOkR0UQolX2uqnhRtDWP7kk82339EbJtVLwsNJ2A+dM2tGBOeK79MMM265hZ07qa9n40YKhdk87w0zS4aZGYIT5/OrpxAqa+/s+tGP/0TCZdSX4JtwLU+qCD7nZcibbuLBB2looK6OiooSz0RMxZyYJVJSURWVTLjMjNhMVUJj428LhRSjOhIH4Rg4cII53DReTQ3bt9PQwObNVFUBZpYmxw1wqs6paPH8HDMex3qHe08Pnm7vb2+9erJzsMuTj6DHf/jyPXXdAfV9iYfhTaFCScJkQCJmrFjBtm00NNjWrVZdnQBLMjnu1ItzrlBRylpIkxdHLnYPdbf3t7f2t3b0d3S/331x9L0wEYoVqIjqr1KquHVt31v/emZZ9YS9JnJAuSS4kL0jq6qyL2xO+/fzwANSs1LNZOZMTpYuX7vUM9TTMdDRdrW1rb/9zNCZ3pF3xyfGiy9Ri91GxWXz3Mw8CEhjY9Oy6on47BJ9aiIRDcwvYUude/gR2bFLVtZo6d+s2dWx/50dPtc50JlhTg2eOj9yfmR8tFhmAg4ULagu0QyTPatkMeUNyae0/Gvf/8sXt7VNbNLCGxNSuVTu2kTDAXbuYOWHgOE0du7yiVP9nW1DHa0D7V0DXWeHzw6MDTKZYxQc4sUV3ExMSnbd3ubX3NpzZMvvuL264O+WY9vfv6+u9xM3npm40N77Ytvb/+7q73xn9NyV8X6bNGwaRkWXOpEpjJkFm7dxTy1p+sGmO4hvfLq2rda1jpw73dfSd7knjqVik8omgYoTVdGsHJOZLXQKXnf9H+eptxM9MZs5AAAAJXRFWHRkYXRlOmNyZWF0ZQAyMDEzLTEwLTA3VDEzOjE0OjM5KzAyOjAwgiFJBQAAACV0RVh0ZGF0ZTptb2RpZnkAMjAxMy0xMC0wN1QxMzoxNDozOSswMjowMPN88bkAAAAASUVORK5CYII=",
    "name": {
      "common": "Seychelles",
      "deu": "Seychellen",
      "fra": "Seychelles",
      "hrv": "SejÅ¡eli",
      "ita": "Seychelles",
      "jpn": "ã‚»ãƒ¼ã‚·ã‚§ãƒ«",
      "nld": "Seychellen",
      "por": "Seicheles",
      "rus": "Ğ¡ĞµĞ¹ÑˆĞµĞ»ÑŒÑĞºĞ¸Ğµ ĞÑÑ‚Ñ€Ğ¾Ğ²Ğ°",
      "spa": "Seychelles",
      "svk": "Seychely",
      "fin": "Seychellit",
      "zho": "å¡èˆŒå°”",
      "isr": "××™×™ ×¡×™×™×©×œ",
      "ces": "Seychely",
      "slk": "Seychely",
      "est": "SeiÅ¡ellid",
      "pol": "Seszele",
      "urd": "Ø³ÛŒÚ†ÛŒÙ„ÛŒØ³",
      "kor": "ì„¸ì´ì…¸"
    }
  },
  "SY": {
    "currency": "SYP",
    "callingCode": "963",
    "flag": "data:image/png;base64,iVBORw0KGgoAAAANSUhEUgAAACgAAAAeCAMAAABpA6zvAAAABGdBTUEAALGPC/xhBQAAAAFzUkdCAK7OHOkAAAAgY0hSTQAAeiYAAICEAAD6AAAAgOgAAHUwAADqYAAAOpgAABdwnLpRPAAAAMxQTFRF/wAA/wEB/xkZ/xgY/xkY//T0/vTz/vT0/////v///f/+//7+/f79tuG13/Lf/v7+zerMxefF7fjtRLJEn9ef7vjudsd2Zb9l6/frmNaYHqUeCZsJDp4OOrA61e7VvuW+LKssDJ0MC5wLJqgmsuCy/P78f8p/AIsACJcI0u3Ss+CzAJEAAI4AotmiX79fc8dzSrZKrN6s+/77jtKOV7xXZMFkesp69vv2zuvO8Pnw+Pz4/v/+/f39//7/9PT08vPy8/TzGRkZAAAAAQEBn8Z0IQAAAAFiS0dECIbelXoAAAAJcEhZcwAAAEgAAABIAEbJaz4AAADOSURBVDjL7cxpU8IwGATgV1rKpgSKIMqhXF6oeHAXq63C//9P1DZJD2acfIdnMpNkZ2eJTv5zpkl/saAYZiHPNNSTiopVKuZZlnoSBMZsxpDF7CSjssBRqcIpp3HUzsHFRy46dTQu0MwM1nF5hZZcFD20O93rmx64qnH0B8PR7Z2I5OI9Hh7HT6neX/T8MnkNr1zx7f1jKtPIDPPFchVecdGJYe1iEy46KXA/PffrO/5QsuDhgJdk5EuB/xP4WUF0YvSribaaaKdJf/Eoi3sV+oSvKztrfwAAACV0RVh0ZGF0ZTpjcmVhdGUAMjAxMy0xMC0wN1QxMzoxNDozMCswMjowMBe5DNYAAAAldEVYdGRhdGU6bW9kaWZ5ADIwMTMtMTAtMDdUMTM6MTQ6MzArMDI6MDBm5LRqAAAAAElFTkSuQmCC",
    "name": {
      "common": "Syria",
      "deu": "Syrien",
      "fra": "Syrie",
      "hrv": "Sirija",
      "ita": "Siria",
      "jpn": "ã‚·ãƒªã‚¢ãƒ»ã‚¢ãƒ©ãƒ–å…±å’Œå›½",
      "nld": "SyriÃ«",
      "por": "SÃ­ria",
      "rus": "Ğ¡Ğ¸Ñ€Ğ¸Ñ",
      "spa": "Siria",
      "svk": "SÃ½ria",
      "fin": "Syyria",
      "zho": "å™åˆ©äºš",
      "isr": "×¡×•×¨×™×”",
      "ces": "SÃ½rie",
      "slk": "SÃ½ria",
      "est": "SÃ¼Ã¼ria",
      "pol": "Syria",
      "urd": "Ø³ÙˆØ±ÛŒÛ",
      "kor": "ì‹œë¦¬ì•„"
    }
  },
  "TC": {
    "currency": "USD",
    "callingCode": "1649",
    "flag": "data:image/png;base64,iVBORw0KGgoAAAANSUhEUgAAACgAAAAeCAIAAADRv8uKAAAABGdBTUEAALGPC/xhBQAAAAFzUkdCAK7OHOkAAAAgY0hSTQAAeiYAAICEAAD6AAAAgOgAAHUwAADqYAAAOpgAABdwnLpRPAAAAAZiS0dEAP8A/wD/oL2nkwAAAAlwSFlzAAAASAAAAEgARslrPgAABzhJREFUSMe1lnlwVWcZxp9vOffcNblkg5AiEEIKLRCRNFiMMA4MoYAsslaBDlqWmYqyamug0Ka0bGOBApMyKlpSFimIiNDaBqyUkSUJSxILFwIJIRAg4ebe5G7nnO/7/CPE0mVqGOM7549vvvPO/N5n3ud9zyFVw3JTNm11ZQ14ecWhN1YfEEpx7iIEptk0+tnRewbXly1c9vjw3PdnbZj93BbO3VCQIixhGzl12Gu9atnWtX0K8ueXJu185xhnbktItC9oY//vND03rf6VVQUF485UrMvJzrSsACAA9qVkwqi0RHNSZp9NL353m/8P3uIDT5447vzZslt1AYCqdjJbwaOOeoryVlgXztUMGtDXf+n02fzC3/w0zq0DzZSSz/IoASJCd816fnTx8LsT/7TSO3ZM79Nny6yUrP6riosvEuIQ7ZYLgPuvXXxpXUXR08NfGRJ6YuYsPTtn3o7tEyesmTVlq2VEiVIACGBEI10ey3j7R6mDjq01u3RLLT7R6E19dur2Pfs+JIQBHqUeSTDIoNw3GYW/scWe2mXJ3JyRZbuCFyvTt73FuveoDsKxefX1FctTcrL1wyfUn/faD+1i8xYmjnmm3NewZMl7vqv3kpI8XGO+ihv+e35CePvxJFpyVgGcUytmBCPCk9ZF3rtrRaLUbnenpdSu2XC7sNCV+XjmH3eZ/oCM66S5naKxMRwxdYfN5dKjMcsVr/9w4Qe7j1ZyZrdEu8Fn/3MCKCCA1sYqQAG07a1su28NBihAAgLEC7WYDj8in2CIis9lfW2PjYer+JKVFUDainhYiwW0GkkARtv5kYJnzpj64MSpYYhgIKyE4F6v5JqKhGMVFeHLl7X4ePfQocISjHOe4JWGqUVaPPFOIWFJlaArz9/duGaAELTbYfwfM15jlBBKGu61pKV68oalA2i5UE6rLzvHT779+hvB/F+5e/XKOHQIgIhG/Yf/Gp/RoyZj0AfvV3p1cLvudNruVB/AtXOgTrR7ovikUQWEGkpGh+Q8Vbj7BRlqqf35Qr3kxOms8Reqkl9gEECcRz948Hx11Z2FS/Lsdv6v70+0Mp8s7z5p2/5KK3gdxAnlBB5tjimg0jqnHTy8+uTp/B4Xim8O/pYZjW0a8eqEosip01d1h00AjPNgS3jR0rfz8jbfyvpeVm1NWna/X5xZc3J+4pjpk8C8BBIAIWBU/deHEADgCxaNX7VmcsL9uuujR3F/w6kJS1cUx3zvHgXClNtNoQRgSSUEBTwfFZf1T7/w4vIfLF+7HrNnx+bM2ULJ2MU/zn+36n5dPcCE1FrFtJnyC0EAC7AAyjf/enKk8M3ajZv9I6asa8nau+EUYk26LS5mmFIpN0Ui4KWtK1NqLM4S1qurdu3Z+cm2HXOGnzgZLtoxf+dbJx1ZRaAzpn9z7sy4QDDAqKYgoRiUIvQzqpSWy5O4dOXVkhIfX5Q9L1J63DFtwZ5jZv2nRxh1Keo2TAHYqipuFARCt5GeWJ3sO3ge0ExLKAXO433X6kcMXTVtSm72Mzmh9HllHx8HPOk9SG7WIqMyautkQDigt4BKZRCiyJ06pjtJvCdGuj2VnDILkHxjqQAbi72VBIKxOCFk21jqvvKqgnICjENVDFX/BOxSKgCWJSjVQbB33yd79xUDLs6TgLBlKQREw5Uuds0umke4eu+3JdQ21PM71bb6Wpumk5Susb42BaUAUE45E82caSD2z9tSEaJxyhlaOLEYczzcMymVlIoxF9cSObMRmABhFJDcoROPeEwXGaThaUJgxZgQtKHGGbirKwnLpA/MZUkFUHzVjlVKWQoAhcJXDqgQEqJ1+RAAiigIjRkOIbzcFk/C3ZSAO96kClc05XKLzmnQ7Q8+IxQdFkoKAt1kPStIXIURCYqES0LBE0dS02OelFhy91hyKuBWorXWDgQ3hxRgs7mk6lql2bYFU3zn53Rt7hmZ+HJTKMjCQSUtMEsPhUWHgZUCIG/USSABVh3TDVufymuVhPhct4KmESL9B4fsLlAK00iqvxMDSAeCUXE5HDMybLTcAmURcZR1OrKAtDgT0kV43JCQaTCicP1+z5obAYB1TI+lVATa1Ut3S2oGEic0iHsGLzI89TmR0gHYGEhAC6ywgNvzYVm6FW3gTOswc1HGgYbt7yWj00BYsjTm9JvUESP2mCwx7LeE3UFgaiN/u9sEYvLhhfY/hhAK0N4p8n306UwkkVMBWzO4qREnl83KXtKk0K3zlr/knSu5xKhdStWB4wRKNYjG5xdHA+qlgQmNVETrlSOk9GTjbr9v2M768n+58gpgSUUAEGBuh7KplKG+/Qb87XdmimP9mWq/nSG7d/rHlcvG/+RmoPEmIQ6lZMeDATBGhQjFJ/csfK3X9FH7hZHw+u9HrFxfCuM+oQ4pH2zAjge36oaKSmX7dm5WUyB6qbycMSqlrVXr/xEMgFJCiBIiDBDGnFLiC//6/wbpyX5GRbA9AgAAACV0RVh0ZGF0ZTpjcmVhdGUAMjAxMy0xMC0wN1QxMzoxNDozOCswMjowMCRWQrEAAAAldEVYdGRhdGU6bW9kaWZ5ADIwMTMtMTAtMDdUMTM6MTQ6MzgrMDI6MDBVC/oNAAAAAElFTkSuQmCC",
    "name": {
      "common": "Turks and Caicos Islands",
      "deu": "Turks-und Caicosinseln",
      "fra": "Ãles Turques-et-CaÃ¯ques",
      "hrv": "Otoci Turks i Caicos",
      "ita": "Isole Turks e Caicos",
      "jpn": "ã‚¿ãƒ¼ã‚¯ã‚¹ãƒ»ã‚«ã‚¤ã‚³ã‚¹è«¸å³¶",
      "nld": "Turks-en Caicoseilanden",
      "por": "Ilhas Turks e Caicos",
      "rus": "Ğ¢ĞµÑ€ĞºÑ Ğ¸ ĞšĞ°Ğ¹ĞºĞ¾Ñ",
      "spa": "Islas Turks y Caicos",
      "svk": "Turks a Caicos",
      "fin": "Turks-ja Caicossaaret",
      "zho": "ç‰¹å…‹æ–¯å’Œå‡¯ç§‘æ–¯ç¾¤å²›",
      "isr": "××™×™ ×˜×•×¨×§×¡ ×•×§××™×§×•×¡",
      "ces": "Turks a Caicos",
      "slk": "Turks a Caicos",
      "est": "Turks ja Caicos",
      "pol": "Turks i Caicos",
      "urd": "Ø¬Ø²Ø§Ø¦Ø± Ú©ÛŒÚ©Ø³ Ùˆ ØªØ±Ú©ÛŒÛ",
      "kor": "í„°í¬ìŠ¤ ì¼€ì´ì»¤ìŠ¤ ì œë„"
    }
  },
  "TD": {
    "currency": "XAF",
    "callingCode": "235",
    "flag": "data:image/png;base64,iVBORw0KGgoAAAANSUhEUgAAACgAAAAeBAMAAACs80HuAAAABGdBTUEAALGPC/xhBQAAAAFzUkdCAK7OHOkAAAAgY0hSTQAAeiYAAICEAAD6AAAAgOgAAHUwAADqYAAAOpgAABdwnLpRPAAAABJQTFRFAABnnJwo//8A/5wA/wAA////tPKynwAAAAFiS0dEBfhv6ccAAAAJcEhZcwAAAEgAAABIAEbJaz4AAAAaSURBVCjPY2AAA0YlMDBxAQOGUcFRQVoKAgCIN03vQD/YJgAAACV0RVh0ZGF0ZTpjcmVhdGUAMjAxMy0xMC0wN1QxMzoxNDo1NiswMjowMLIGMGsAAAAldEVYdGRhdGU6bW9kaWZ5ADIwMTMtMTAtMDdUMTM6MTQ6NTYrMDI6MDDDW4jXAAAAAElFTkSuQmCC",
    "name": {
      "common": "Chad",
      "cym": "Tsiad",
      "deu": "Tschad",
      "fra": "Tchad",
      "hrv": "ÄŒad",
      "ita": "Ciad",
      "jpn": "ãƒãƒ£ãƒ‰",
      "nld": "Tsjaad",
      "por": "Chade",
      "rus": "Ğ§Ğ°Ğ´",
      "spa": "Chad",
      "svk": "ÄŒad",
      "fin": "TÅ¡ad",
      "zho": "ä¹å¾—",
      "isr": "×¦×³××“",
      "ces": "ÄŒad",
      "slk": "ÄŒad",
      "est": "TÅ¡aad",
      "pol": "Czad",
      "urd": "Ú†Ø§Úˆ",
      "kor": "ì°¨ë“œ"
    }
  },
  "TG": {
    "currency": "XOF",
    "callingCode": "228",
    "flag": "data:image/png;base64,iVBORw0KGgoAAAANSUhEUgAAACgAAAAeCAMAAABpA6zvAAAABGdBTUEAALGPC/xhBQAAAAFzUkdCAK7OHOkAAAAgY0hSTQAAeiYAAICEAAD6AAAAgOgAAHUwAADqYAAAOpgAABdwnLpRPAAAAZtQTFRF1wIA1gIA3AAAxQ4AHIEAEYkAFIYAE4cA2AAA1wEA3QAAxQ0AGYAADocAEYUAEYYA2AEBGoAAD4gAEoYAG4AAE4YA1wAA2xUV2hMTxQwAF38ADIYAD4QADoUA2QQE2QgI1QAA6nd352dn1gAA2QMDxg0AJIQAGowAHYoAHIoA1QEB1AAA+M/P87S00wAA1QMD2AEA2hUA6NEA6d0A6doA2g0N6nNz63l57ICA/vv7/e/v7IGB7YeH6XBw2AIB3BYA/dsA/+gA/+QA/+UA5VVV/fHx//////z8++Xl4kFB3BUA/NgA/uUA/uIA2xgY+t/f+NHR2AsL/dkA/+YA/+IA/+MA2AIC2x4e/vb2/vX1/vn5/O3t2hUV/uMA3igo3zAw5VNT2xkZ52Fh2wAAyg4ASpMAQpwARJkAQ5oA1gEB1wEB1wICxAwAEHwABIMAB4EABoIAxg4AG4EAEIgA1gEAwwwAEn0AB4UACoIACYMA9q4A9a4A960A8bEAyswAx84AyM0A/+4A/+cA/+EA/+AA/uEA/OIA69sAHosA5rKH+QAAAAFiS0dERhe6+e0AAAAJcEhZcwAAAEgAAABIAEbJaz4AAAFHSURBVDjLrdLXUgIxFIDhI7aIhQiyYgEWF+wFe0VFdMHe14LYsPfee39sQ0Bn1qxOLvyu/znJnARALU4Xn5CYlMwCpJaiT01LzzCwvkOMv8JMo4kvzDKaTaxYiIVsi4BpmJObl29lRUObXXQUSHYnCXWuwqLiElY0FEvLyisqq0SE3Ki6prZOAwkxqm9obGpuaW3z2FG70NHp7fKxgF6wu0f2++VAr4DdQl//wKAGejQWh4ZleWRUxIiEY+MTkywaKsLU9MxscA7RkEwMsWhoEx2B+YWgR7SR8I87EosWSVpajuwxvLK6tr7BioWbWHFubePIwnd29/YPWLFQIQ1W6Mu4uH/PL5/CrQb6w6Njs9ZEQe0kfHp2fnHJgiu165vbu/sHDfDI8D55NcDzDy+vb5ogxAl8nOCdE3xwAisnMHECA6f/Dz8Bhgr8J1Oa6VUAAAAldEVYdGRhdGU6Y3JlYXRlADIwMTMtMTAtMDdUMTM6MTQ6NTErMDI6MDB3oQ7lAAAAJXRFWHRkYXRlOm1vZGlmeQAyMDEzLTEwLTA3VDEzOjE0OjUxKzAyOjAwBvy2WQAAAABJRU5ErkJggg==",
    "name": {
      "common": "Togo",
      "deu": "Togo",
      "fra": "Togo",
      "hrv": "Togo",
      "ita": "Togo",
      "jpn": "ãƒˆãƒ¼ã‚´",
      "nld": "Togo",
      "por": "Togo",
      "rus": "Ğ¢Ğ¾Ğ³Ğ¾",
      "spa": "Togo",
      "svk": "Togo",
      "fin": "Togo",
      "zho": "å¤šå“¥",
      "isr": "×˜×•×’×•",
      "ces": "Togo",
      "slk": "Togo",
      "est": "Togo",
      "pol": "Togo",
      "urd": "Ù¹ÙˆÚ¯Ùˆ",
      "kor": "í† ê³ "
    }
  },
  "TH": {
    "currency": "THB",
    "callingCode": "66",
    "flag": "data:image/png;base64,iVBORw0KGgoAAAANSUhEUgAAACgAAAAeBAMAAACs80HuAAAABGdBTUEAALGPC/xhBQAAAAFzUkdCAK7OHOkAAAAgY0hSTQAAeiYAAICEAAD6AAAAgOgAAHUwAADqYAAAOpgAABdwnLpRPAAAACpQTFRF5wAA+9HR/////vz9LkSsABKWAh2bABuaABiZ0dbt/fz9/e7u6RER5wEBg9UTbwAAAAFiS0dEAmYLfGQAAAAJcEhZcwAAAEgAAABIAEbJaz4AAABISURBVCjPY2CgFxDEAhiUsAAGYywAu0qsgi5YAEMoFsCQhgUwlGMB9BPswAIYZmIB2P2+CgvArnI3FsBwBgvAHpt3sQDi0wIAVyKx+Q1baa0AAAAldEVYdGRhdGU6Y3JlYXRlADIwMTMtMTAtMDdUMTM6MTQ6NDYrMDI6MDB+rDD1AAAAJXRFWHRkYXRlOm1vZGlmeQAyMDEzLTEwLTA3VDEzOjE0OjQ2KzAyOjAwD/GISQAAAABJRU5ErkJggg==",
    "name": {
      "common": "Thailand",
      "deu": "Thailand",
      "fra": "ThaÃ¯lande",
      "hrv": "Tajland",
      "ita": "Tailandia",
      "jpn": "ã‚¿ã‚¤",
      "nld": "Thailand",
      "por": "TailÃ¢ndia",
      "rus": "Ğ¢Ğ°Ğ¸Ğ»Ğ°Ğ½Ğ´",
      "spa": "Tailandia",
      "svk": "Thajsko",
      "fin": "Thaimaa",
      "zho": "æ³°å›½",
      "isr": "×ª××™×œ× ×“",
      "ces": "Thajsko",
      "slk": "Thajsko",
      "est": "Tai",
      "pol": "Tajlandia",
      "urd": "ØªÚ¾Ø§Ø¦ÛŒ Ù„ÛŒÙ†Úˆ",
      "kor": "íƒœêµ­"
    }
  },
  "TJ": {
    "currency": "TJS",
    "callingCode": "992",
    "flag": "data:image/png;base64,iVBORw0KGgoAAAANSUhEUgAAACgAAAAeCAMAAABpA6zvAAAABGdBTUEAALGPC/xhBQAAAAFzUkdCAK7OHOkAAAAgY0hSTQAAeiYAAICEAAD6AAAAgOgAAHUwAADqYAAAOpgAABdwnLpRPAAAAWhQTFRFzRc4zRU2zRU0zRU1zRU39tbc9tba9tbb9tbo9tbl///////+//+7///P///9//39//37//3///2E//3L//2G//2o//2v//2Y//36//+V///V///8//+9//+m///3///d///c///l///6///f///U//9O///4///D//9a//9d///i///e//9L///x///u///o//9Z//9w///5///7///s///k//+E//+r//9V///H//+B//+q//+f//9v///p//+T//+g//+y//9W//9l//+///+P//+u///q//+v//9x//9i//9+//+d//+h//9z//93/f79/f78/f7//f7W/f5o/f5N/f6Q/f46/f5P/f6N/f5B/f6C/f7j/f77//+x//+W///C///X///B///A//+L///K1OzZ1Oza1OzY1Ozk1Ozt1Ozo1Ozl1OzgH508H509H506H504H507H505JJ9BI59AIp8/J6FD5kCDSwAAAAFiS0dECmjQ9FYAAAAJcEhZcwAAAEgAAABIAEbJaz4AAAEdSURBVDjL7ZDHV8JAGMQ/G9GJrsauEURUUBRRsCEqKvYu9t6lRCXE9u+bI7t55OXmxd9hDzPzZt5+RP/YUWalvKLSKlKVgEuSqmskySXqBBEZtXVgFpnqORqUxialuUVpbVPaecfS2NEJpqLLLZbyQU+3bE57e8zH18tKBhn6+v0qAgODQWBoOGTGSzX6RmQZ4dGxCBAdZzbTEx4wPyanEGEIhW2C0zGwKGbiUFXMznH/ERrnkVhYXEour6wiuFa6Ucb6xuZWfHvHvZvci/EHov1iDlKHR8cnp2fnF5dXqWvO4qcZbm7vAt77h8enZ+Hi9FJMOpPNaVr2VdNyb5k0Z9E7R14v6Lph6B8FI8879OkQ+nLIXwa/HUI/DvkFp7PQDyhhj5YAAAAldEVYdGRhdGU6Y3JlYXRlADIwMTMtMTAtMDdUMTM6MTQ6MzMrMDI6MDAmURZLAAAAJXRFWHRkYXRlOm1vZGlmeQAyMDEzLTEwLTA3VDEzOjE0OjMzKzAyOjAwVwyu9wAAAABJRU5ErkJggg==",
    "name": {
      "common": "Tajikistan",
      "deu": "Tadschikistan",
      "fra": "Tadjikistan",
      "hrv": "TaÄ‘ikistan",
      "ita": "Tagikistan",
      "jpn": "ã‚¿ã‚¸ã‚­ã‚¹ã‚¿ãƒ³",
      "nld": "Tadzjikistan",
      "por": "TajiquistÃ£o",
      "rus": "Ğ¢Ğ°Ğ´Ğ¶Ğ¸ĞºĞ¸ÑÑ‚Ğ°Ğ½",
      "spa": "TayikistÃ¡n",
      "svk": "TaÇ†ikistan",
      "fin": "TadÅ¾ikistan",
      "zho": "å¡”å‰å…‹æ–¯å¦",
      "isr": "×˜×’×³×™×§×™×¡×˜×Ÿ",
      "ces": "TÃ¡dÅ¾ikistÃ¡n",
      "slk": "TaÇ†ikistan",
      "est": "TadÅ¾ikistan",
      "pol": "TadÅ¼ykistan",
      "urd": "ØªØ§Ø¬Ú©Ø³ØªØ§Ù†",
      "kor": "íƒ€ì§€í‚¤ìŠ¤íƒ„"
    }
  },
  "TK": {
    "currency": "NZD",
    "callingCode": "690",
    "flag": "data:image/png;base64,iVBORw0KGgoAAAANSUhEUgAAACgAAAAeCAMAAABpA6zvAAAABGdBTUEAALGPC/xhBQAAAAFzUkdCAK7OHOkAAAAgY0hSTQAAeiYAAICEAAD6AAAAgOgAAHUwAADqYAAAOpgAABdwnLpRPAAAAvdQTFRF6lpU+7Cq4uj0ZnW1BgZkAABXBQRnAABkp5q82xkUAABjBQNiCBZ9XEOCwUpW72Jb7cjJERV1AABiAQFnAABmX0WCvFFi9m9k/8O51djqX2yuCAhnAABWppm62xkVppm5AABeChV6Vj5/uEtc9G5k/8S6297tYGenAQt1RjN7qj9W6GFd/8O829noUFifq5+/2xgTq6HCSjd+wFZk72li+bm1x9DnT2GrAAFfAABVqpy9pZW3lY64rbLU6MDE6I2O+9/c///+9dvczwwMzw0M9d3e/L249aai+/Lz8/X5qJq8k4OtqZy9n5O4CwpsAQFm3BoV3xwW2hUQ0RYW0h8fzAsMywcIzw0NzAEBzhYXzxsczgkJzwkJ3h0X3xoTzBgaDwJgAABnAQBm3x0X3hwW3xsTqp2+ppm7qZu89PX59drc++Dc6cDErbPUqJe4n5G3CwtsAQFlAABUAAFgT2Krx8/n+Li07mhiv1VkSTZ+2hgU2hkVqp+/T1ee2djn/8K752FdRjN6AQt2AABfAABlAQJmBQhranKu3N7t/8i893BkvExcVz9/p5q63xkV3hkVCAhmYG2v2Nzs/8e7xFRhW0KBAANpAgNoJBlvVzZ2BQZrAwJn8cjJ21pctUVYVT+ABxR7BANim4+2AABYBQZkX22w0dfq7qeny05WDQNjEBd3oDRQ4R4aUjV3AABoAQBlCABSDAZZCBN7AQBhBARoBgdlFCODDhJyAQBjAgBlZzJpmTVUJx1xAgFnAAJqAAJpAQBiAABgCwxvAwZvDAtsAQBkAgBkAQNoAgBjAwFlAwRpQidvKxtuAAJoHh15CgpsGx140C4xnDFOAAxzAQJoMiV2mi9NaS1jEhRzCQprVCpqQCRtAgFmOyd05SUcnjFNAAtyAQFoHRhxPCd0Nyh2AAJnAwFmAQFkBQVpEhNxPRxneDBfFRBsBwVpGxp1ryY65w4GZS9nAARsAANqcS1flipJNB9tBQRoDw1vAgRuEQ5sAwBk////z9KtAgAAAAFiS0dE/DwOo38AAAAJcEhZcwAAAEgAAABIAEbJaz4AAAIRSURBVDjLY2BgZGJmYWVj5+Dk5ODi5uLh5eMXEBQSFkEHDKJi4hKSUtIysnJy8gqKSsoqqmrq7CKYgEFBQ1NLW0dXT5/TwNDI2MTUzNzCUgSbQitrG1s7ewdHJ2cXVzd3D08vbx9fP3Z/TIWcAYFBwSGhYeEREc6RUdExnLFx8QmJSdgUJnNGR0dFOkdEhIeFhgQHpaRiV5iW7p2R6eHu5urinOWYbZ+Ta5OXXwCz2r8QobCouKS0rLyi0rCquqa2rr5Bq7GpuQUq2dLaBg8AhvaOzq7uHkWF3r7+XpkJEydN7poydRpU5fQZM2fNhimcM3fe/AVcC7kWxccvYmdbvGTpsuUrVoLd6M+1avWatevWQxVu2LiJa/NsfxG/hAQ/Ef8trYu3btu+IxEst3Pdrt172PdCFe7bf2A2yOktiYkgC/23+B/kSoRaN/vQ4SNAwUKQPENSEsSH/nCGMIiGsI8eA6pjP94KJBlEsIK9J06C0gU4OE+dPnMWl0J/oXPnoQ7w57pw8dJldn+sCluuXL12/QY01Ftu3roNDAWsCu+I3L13/wE7NB7vPNzrj8NqYfZHj588hXOf3RHB6Rn/lkK0lIZDYdKdOyJEKcQE1FLoT5xC/8LnwkQpZH/xEp7N8ChMEjny6vWbty0EFfqzv3v/4eMnwgpF1n/+8vVbyx0i3Pj9x89fLUQFz9Hf8FwIAJ4c7JVGOu4bAAAAJXRFWHRkYXRlOmNyZWF0ZQAyMDEzLTEwLTA3VDEzOjE1OjA4KzAyOjAwRRsubAAAACV0RVh0ZGF0ZTptb2RpZnkAMjAxMy0xMC0wN1QxMzoxNTowOCswMjowMDRGltAAAAAASUVORK5CYII=",
    "name": {
      "common": "Tokelau",
      "deu": "Tokelau",
      "fra": "Tokelau",
      "hrv": "Tokelau",
      "ita": "Isole Tokelau",
      "jpn": "ãƒˆã‚±ãƒ©ã‚¦",
      "nld": "Tokelau",
      "por": "Tokelau",
      "rus": "Ğ¢Ğ¾ĞºĞµĞ»Ğ°Ñƒ",
      "spa": "Islas Tokelau",
      "svk": "Tokelau",
      "fin": "Tokelau",
      "zho": "æ‰˜å…‹åŠ³",
      "isr": "×˜×•×§×œ××•",
      "ces": "Tokelau",
      "slk": "Tokelau",
      "est": "Tokelau",
      "pol": "Tokelau",
      "urd": "Ù¹ÙˆÚ©ÛŒÙ„Ø§Ø¤",
      "kor": "í† ì¼ˆë¼ìš°"
    }
  },
  "TM": {
    "currency": "TMT",
    "callingCode": "993",
    "flag": "data:image/png;base64,iVBORw0KGgoAAAANSUhEUgAAACgAAAAeCAIAAADRv8uKAAAABGdBTUEAALGPC/xhBQAAAAFzUkdCAK7OHOkAAAAgY0hSTQAAeiYAAICEAAD6AAAAgOgAAHUwAADqYAAAOpgAABdwnLpRPAAAAAZiS0dEAP8A/wD/oL2nkwAAAAlwSFlzAAAASAAAAEgARslrPgAABKNJREFUSMe1lktoXFUYx//fuffO3HncyTySdB7JJC1N0mdIbTRtpbYNtKGKi6LdFLGVbqSga0FdFQTpwo0UESkI3YgLFUSK1bZEqFAhBftw0klqk2aSySSZTOZ578y953ORuBGK0Ml8cHYHfud3zv8759AnI9gxh6cZCED3eF0Nq2Q7EtQe5upWvBuFrQIMAETEzNikUutlyme4c/il3kMvWoqVmv9hj1nJTpprKbYMUGKDCgmWTBqxZCJiYjS3BlHMsMswdrwxOp765eaNnybygc8amn80Fknoa/NYNwXD7/UnY0k2WVM1N7khmzUWQgM3amvTX//ly012KslVuSuvR7vOSCNJAJEAM+ogQcwwgoaqqKP7Rt3C3axxIA6nbs/8nD1XqZ2MlQaHh94cPfv017uFyalQL6QjFUVNxBKChKaqvVt6a7VaIpI4/cppVKAI5fnP2OVBpBczj/Fw1tTJyirX5p3vTeZYnCrB9Z0WhsdfqBaqVvXx3GOYqFQqpw6fuvrjVQI9v7GUaJShg6tCNJKkb60VVeGBcErs2CDAdhqp9GTAE2jztkEAFRwbOiZIgNEEF6qZx2KOZJRnhgLdQdnmmPf2Bg9N5BZmFXXBQTfArPiV5bXlhewCNFx458L5sfNHPzgKF5rpLtUpIKeLmcP+IwsFMQeh4QjlUgd9FcsZyDtMAMixnf0D+0cHR0f6RxKRxNjHY+MT48InHOk8N5gu7kYgLarbxHKfHtcQa5i39MDOdKGcEu1R+/1BNAAwwAgaQRK0mlsFQD5i2VSsVdVAb0wupaQzUw/thMst46mqb1UmOmS5HYIBAhFAVCgWAAivIKJmXDfAzHBs1ADRqN+YoYYqBmqWCdg2wOB/E8RgKCAiybLJDt4AW2vIz2M6hFkXkqEwwUxxJRjAYA4yB06sUzdqE+9qUc9jRaCym7arOJ6IntjbP+iQswtZA/WVTXF7hrE7jNAyXI/4bwF6MqWvdEwp7EqjowzqaqZR/w/sakN7DAMZBHRM645TmO8yqSfHW8IodwISECBsvrpKBFLhAfpNJOdtSfBZsAEo62FumbFZQukpHvUg60YlrpIg91wjoGB/CjUfEANaoAtAWCso6bg8guIOV7odD8Lc6Hd9sQ+zcdg5sAK0RlvVIzCWcO4uFdz2tqhGQqqZ+tsqurOwkiAHoJYYq24DgW56IY0qZCllAWTY5AUbnShFNia1JFxg2CYXdCV55tTLY6+aDy7NTaTn//C5amvrV3SL8iVqiyiIxJFvPz/54XtmPrOyVD/wWs/Ri/3VAIpzRArQonCVl6AGrUj9TunOlaufXvrqy2nTe7Jr++uRAyPFRQaJFhmrnhCFfMv3f/t9cEg7f9av7fyoY/Dgoz9vi0oxFIdtAnpLlFVWuG+Ybl5JZ6IcGzZ8ypP739zKfHft2FsyH4W0m/7HPgtcXYFk7tnjTN/G7FRR8mVidLRTWw+tXWelE05rHgrBEk/G0XMYXg9IskYKoPSd4OUUl3MQWouEoWoeLDxEeBh9x7F4D0JzPGEEunD3MtSWUQGI9TF9HfUyjDg8YbgDSF+DVYZQsXkP/3/rHyDlCfbydKOTAAAAJXRFWHRkYXRlOmNyZWF0ZQAyMDEzLTEwLTA3VDEzOjE0OjM4KzAyOjAwJFZCsQAAACV0RVh0ZGF0ZTptb2RpZnkAMjAxMy0xMC0wN1QxMzoxNDozOCswMjowMFUL+g0AAAAASUVORK5CYII=",
    "name": {
      "common": "Turkmenistan",
      "deu": "Turkmenistan",
      "fra": "TurkmÃ©nistan",
      "hrv": "Turkmenistan",
      "ita": "Turkmenistan",
      "jpn": "ãƒˆãƒ«ã‚¯ãƒ¡ãƒ‹ã‚¹ã‚¿ãƒ³",
      "nld": "Turkmenistan",
      "por": "TurquemenistÃ£o",
      "rus": "Ğ¢ÑƒÑ€ĞºĞ¼ĞµĞ½Ğ¸Ñ",
      "spa": "TurkmenistÃ¡n",
      "svk": "TurkmÃ©nsko",
      "fin": "Turkmenistan",
      "zho": "åœŸåº“æ›¼æ–¯å¦",
      "isr": "×˜×•×¨×§×× ×™×¡×˜×Ÿ",
      "ces": "TurkmenistÃ¡n",
      "slk": "TurkmÃ©nsko",
      "est": "TÃ¼rkmenistan",
      "pol": "Turkmenistan",
      "urd": "ØªØ±Ú©Ù…Ø§Ù†Ø³ØªØ§Ù†",
      "kor": "íˆ¬ë¥´í¬ë©”ë‹ˆìŠ¤íƒ„"
    }
  },
  "TL": {
    "currency": "USD",
    "callingCode": "670",
    "flag": "data:image/png;base64,iVBORw0KGgoAAAANSUhEUgAAACgAAAAeCAMAAABpA6zvAAAABGdBTUEAALGPC/xhBQAAAAFzUkdCAK7OHOkAAAAgY0hSTQAAeiYAAICEAAD6AAAAgOgAAHUwAADqYAAAOpgAABdwnLpRPAAAAmRQTFRFShsF0DQO1wgQwwAPywIPzAMPywAPAAAAKSMCwW8L6kMPxgAPxwAPzAIPAgEACAwAlHwH/qEN2zkOyQAPAgIAAwIAWk0E88cM950N0zIOyAAPAQEABAMAJhwCzacK/9gN6pEN1jUOygAPBwQAlnEH/9YN+ssM65EN2DUOXEQE8rwM/9IM9sYM7ZMN1zQOKiACz58K/8wN98cM+cgM7ZIN1zMOAQEBCQcAnHgI/8sN+L8M+skM7ZAN1zIOAgICBAMBAwMBYksF9cEM/cUN87oM+soM7Y8N1zAOEBAQDQ0NAwMDBAQELyQC1KUK/84N9LoM9r0M+8oM+sgM7I4N1i8OOjo6paWlGRkZFhYWBQQBDAkBon0I98AM9bsM+L4M7I0N1i4OIyMj////kZGRERERjIyMzc3NaVAF+MMM/ccM9LwM7IwN1i0OGhoa8/Pz/v7+8fHxampqNCgC2qoL/88N974M+MAM+8sM+scM64oN1SsOyAEPU1NTv7+/+/v71NTUBgYGCwgBnnsI/8YM9r8M970M+cQMywEPcnJy5+fn/f39V1dXkHAH/8cM9r4M8aEM2TsOFBQUurq6ysrK3t7e/Pz8RkZGKR8CzqEK7pUN2DcOl5eX8vLyDAwMMjIyR0dHXEcE8r4M/8kN7pQNiYmJCAYAmHUH/80N+MIM9LsM2DYOLi4uBAMCKSACzaAK7pMN/sYNCAcAzZ4KXEUE/9MM9sUMCAUAmHQH/9cN+csM6o4NKh8C0KoK1jIOX1IE9ccM9pkN0y4OCg8AmoAH/p0O2TQOLSYCxW8L6T4PTxwF0jIO1gcQblB1CQAAAAFiS0dEYiu5HTwAAAAJcEhZcwAAAEgAAABIAEbJaz4AAAIISURBVDjLY2BgZGJmYWUjCBjYOTi5uHl4eQkq5GPnFxAU4hYmZCoDu4gou5i4hKSwFAsvfoXs0jLssnLyCopKeJUCFbKzy7Arq6iqqWvgMxWsEGS9ppa2jq4ebqUQhSDr9Q0MjYxNTIWFsSsFKzQzA1lvbmFpZWRtY4tdKcREO6BKewd2RydnF1drN3dsSoEKzdg9PNm9vEHW+/j6+QcEBgWHYCoFKrRjDw0Dqg6PYI9kj4r2i4mNcw2KTxAWRo0tsMLEpOSU1LQUdjNREfb0jMysuDi1oOwcoFIWNKtz8/ILkgrZvcG+LyouKS0rjSuvqKySqkZR6FlTm1SXVN9gxg4J/Mam5paystY46zZdW6V2hEKzjs6k/K78pG52L4hC6Z7evrKy0tIK6/4JyArZ2b0mTkqaPGXqNKBrgVZPnwGyutTadeYsYSlUN3qzz54zl33efHZ2UVH2BQsXZcWVurounoWaSEAmerMv6QD5BGjt0mXLV6yMAypbBYx1VrTgAXp7tQe7md0aGfa16/xWBgS6rsdQBk8UZuAUtGDhBhdXV10NTGUwhcBUIcO+cZllmVGgCVZlyMls7SZQMtPDrgwp4W7W2rLVhFDClWHftn3Hzl2mBLIC0Nrde3bs2itMIHMBrd23/8BBXFkArpCP/dDhI0e5CSgDmXjs+AmiipSTp04TVUgBALXfkEz9cz3PAAAAJXRFWHRkYXRlOmNyZWF0ZQAyMDEzLTEwLTA3VDEzOjE1OjI0KzAyOjAwwJ5DZQAAACV0RVh0ZGF0ZTptb2RpZnkAMjAxMy0xMC0wN1QxMzoxNToyNCswMjowMLHD+9kAAAAASUVORK5CYII=",
    "name": {
      "common": "Timor-Leste",
      "deu": "Timor-Leste",
      "fra": "Timor oriental",
      "hrv": "IstoÄni Timor",
      "ita": "Timor Est",
      "jpn": "æ±ãƒ†ã‚£ãƒ¢ãƒ¼ãƒ«",
      "nld": "Oost-Timor",
      "por": "Timor-Leste",
      "rus": "Ğ’Ğ¾ÑÑ‚Ğ¾Ñ‡Ğ½Ñ‹Ğ¹ Ğ¢Ğ¸Ğ¼Ğ¾Ñ€",
      "spa": "Timor Oriental",
      "svk": "VÃ½chodnÃ½ Timor",
      "fin": "ItÃ¤-Timor",
      "zho": "ä¸œå¸æ±¶",
      "isr": "×˜×™××•×¨ ×œ×¡×˜×”",
      "ces": "VÃ½chodnÃ­ Timor",
      "slk": "VÃ½chodnÃ½ Timor",
      "est": "Ida-Timor",
      "pol": "Timor Wschodni",
      "urd": "Ù…Ø´Ø±Ù‚ÛŒ ØªÛŒÙ…ÙˆØ±",
      "kor": "ë™í‹°ëª¨ë¥´"
    }
  },
  "TO": {
    "currency": "TOP",
    "callingCode": "676",
    "flag": "data:image/png;base64,iVBORw0KGgoAAAANSUhEUgAAACgAAAAeCAMAAABpA6zvAAAABGdBTUEAALGPC/xhBQAAAAFzUkdCAK7OHOkAAAAgY0hSTQAAeiYAAICEAAD6AAAAgOgAAHUwAADqYAAAOpgAABdwnLpRPAAAANJQTFRF/////vv76J6evQAAwgQEwQAA/PHx+OTk+urq//7+/vr63XR0zCsr/fn53G9vugAAySMj/vn5/PPz22xsuwAAyiMj/PLy/ff3/vz82mdnxhMTyiYmxA4OwAAAwgUFySEhyB4e+uvr0FFRtwAAuwMDvgAAwgAAuwEBvgwM+ejo//396J+f2mho33x8zTIyxRAQ3HBw3XFx3nl5vAAAyicn2W1txiMj/fX1/v39/fj45pqa0D8/55yc4YWF4YOD4IGB4YKC446O1VJSvwAAwQICwgMDuoAxsAAAAAFiS0dEAIgFHUgAAAAJcEhZcwAAAEgAAABIAEbJaz4AAACySURBVDjL7dHHDoJAEIDhWQF1VxSxsKBiQ2zYEHuv7/9KGmIMJrJLPPtf5vJlkskABEMQE0Tpay8RTyQxH2ICKUFOA+ZuRJBRsiofkhzkC0VNpZgJdTBK5YpZrdXlBrBh02rZbbOjdHtM2AdnMBzZ44k71TD3GNebRThGpzC3FssVYUL0bA2brUF1gijsOJ95v9AJhXu/w/Hkj/PleguBXjDBs6WQQPzsHgqliP3hH/4OH2kvI7hBH2EDAAAAJXRFWHRkYXRlOmNyZWF0ZQAyMDEzLTEwLTA3VDEzOjE0OjM5KzAyOjAwgiFJBQAAACV0RVh0ZGF0ZTptb2RpZnkAMjAxMy0xMC0wN1QxMzoxNDozOSswMjowMPN88bkAAAAASUVORK5CYII=",
    "name": {
      "common": "Tonga",
      "deu": "Tonga",
      "fra": "Tonga",
      "hrv": "Tonga",
      "ita": "Tonga",
      "jpn": "ãƒˆãƒ³ã‚¬",
      "nld": "Tonga",
      "por": "Tonga",
      "rus": "Ğ¢Ğ¾Ğ½Ğ³Ğ°",
      "spa": "Tonga",
      "svk": "Tonga",
      "fin": "Tonga",
      "zho": "æ±¤åŠ ",
      "isr": "×˜×•× ×’×”",
      "ces": "Tonga",
      "slk": "Tonga",
      "est": "Tonga",
      "pol": "Tonga",
      "urd": "Ù¹ÙˆÙ†Ú¯Ø§",
      "kor": "í†µê°€"
    }
  },
  "TT": {
    "currency": "TTD",
    "callingCode": "1868",
    "flag": "data:image/png;base64,iVBORw0KGgoAAAANSUhEUgAAACgAAAAeCAMAAABpA6zvAAAABGdBTUEAALGPC/xhBQAAAAFzUkdCAK7OHOkAAAAgY0hSTQAAeiYAAICEAAD6AAAAgOgAAHUwAADqYAAAOpgAABdwnLpRPAAAAjRQTFRF8pKS/v//SkdHAAAABwcHAgICBQUFXFpa////7oeH3QAA4QUF4AEB4AIC4AMD3gAA9ZiY9P//Ozg4BAQEbGtr7HV14QQE4AAA9qGh8/7+NzQ0bm1t63Fx3AAA96en7/r6Mi4uBAUFdHJy6mlp+K6u6/b2LCkpeXd36WJi+ra25/LyJyQkBAMDfnx86Ftb3AIC+7294+3tIx8fAwMDAQEBg4KC51RU3QUF/cTE3+joHhsbiIiI5k5O3QgI/srK2uPjGhYWjY2N5UdH3wAA3QsL/9HR1d3dFhISAwQEkpOT5EFB3g8P/9fXz9fXEg8Pl5mZ4zs73hIS/93dytHRDwsLnJ6e4jU13hYW/+PjxMvLCwgIoaSk//v74S8v3xsb/+jovsTECAUFpqqq//j44Soq4QMD3x8f/+7uuL6+BgMDAQAAq6+v//T04CUl4CQk//Lysre3AwAAAQICAgEBAgAAsLW1/+/v3yAg4Skp//f3rLCwBAEBtLu7/+rqpaioAgMDucDA/+Xl3hcX//7+n6GhvcXF/+DgmJqaCgcHwsvL/9ra3Q8PDAkJxtDQ/9TUi4uLy9XV/87O3AgIhISEAwICEg4Oz9ra/8jI3AUFfX19FBER097e/sHBd3V1FxQU1+Pj/bu7cG5uGhcX2ufn/LS02wAA6mpqaWdnHhoa3uvr+62t7HFxYmFhIR4e4u/v+qen7XZ2X15eIyAg4vDw+J2d74iITkxMCAgICQkJLy0t8fj49ZWVDCFcogAAAAFiS0dECIbelXoAAAAJcEhZcwAAAEgAAABIAEbJaz4AAAICSURBVDjLddT5Ww1hFAfw4ZjrmDvvXAzz2kaFCCnckS2iCRVRJFtFuOjay74nRPZ932Xf9+Wfc17vczXde9/vz5/nPOc5z3O+mtatO/TQ9RD0xF5G2AyGJWJRtEjvPn3BBtChH/Y3HK6KZhkDBg4S0obBOMQIKyGz3KEZmUJmwTAcrpQaN5k7InuknDkKc1RS40KOHjMWcoUch3kKSZAzM3/8hIkQBc+GSViQXgrIGZ88Zeo0KadjYVr5D5KcMbNolpSzsTidlJAzv2TO3HlClkIZlkccFSQ5f0HFQjq7F4VFWJkqE5BbftXiJdVSLsWaFPkfkly2fMVKKVfV1iXLTkiyfvWaBiF1WLtufZIMQB7zN2zc1OgJGd+8ZWtXGYQ8Ftm2fcfOpmZobtq1e89eP6aC3Ins238grnugewcPHa4Pyq6QZF3tETgqZOOxluO+pYIka1pPQJQkNJw8VdUpkyHJSmyT8vSZ9rM+U0GS5VgGpUKeO3+hJCFTIXeMYrwItpDVly5f4UwFedgoxKtgx+EaXL9x85aU6SDJArwtniMKd+7eyzeZCpLMw/v0bSQfPHzkMlMFSebgYwgJ+eTpsw6SCkjyOb6Q8uWr1x0WU0GSb/Ct2DMX3r3/4FpKyB33I36iE9HMz1++Ghr1T6KLAv1E0HTcb/gdfoRCP+HX7z9/Ac3knLPtY9BvAAAAJXRFWHRkYXRlOmNyZWF0ZQAyMDEzLTEwLTA3VDEzOjE1OjA2KzAyOjAwFSRVMQAAACV0RVh0ZGF0ZTptb2RpZnkAMjAxMy0xMC0wN1QxMzoxNTowNiswMjowMGR57Y0AAAAASUVORK5CYII=",
    "name": {
      "common": "Trinidad and Tobago",
      "deu": "Trinidad und Tobago",
      "fra": "TrinitÃ©-et-Tobago",
      "hrv": "Trinidad i Tobago",
      "ita": "Trinidad e Tobago",
      "jpn": "ãƒˆãƒªãƒ‹ãƒ€ãƒ¼ãƒ‰ãƒ»ãƒˆãƒã‚´",
      "nld": "Trinidad en Tobago",
      "por": "Trinidade e Tobago",
      "rus": "Ğ¢Ñ€Ğ¸Ğ½Ğ¸Ğ´Ğ°Ğ´ Ğ¸ Ğ¢Ğ¾Ğ±Ğ°Ğ³Ğ¾",
      "spa": "Trinidad y Tobago",
      "svk": "Trinidad a Tobago",
      "fin": "Trinidad ja Tobago",
      "zho": "ç‰¹ç«‹å°¼è¾¾å’Œå¤šå·´å“¥",
      "isr": "×˜×¨×™× ×™×“×“ ×•×˜×•×‘×’×•",
      "ces": "Trinidad a Tobago",
      "slk": "Trinidad a Tobago",
      "est": "Trinidad ja Tobago",
      "pol": "Trynidad i Tobago",
      "urd": "Ù¹Ø±ÛŒÙ†ÛŒÚˆØ§Úˆ Ùˆ Ù¹ÙˆØ¨Ø§Ú¯Ùˆ",
      "kor": "íŠ¸ë¦¬ë‹ˆë‹¤ë“œ í† ë°”ê³ "
    }
  },
  "TN": {
    "currency": "TND",
    "callingCode": "216",
    "flag": "data:image/png;base64,iVBORw0KGgoAAAANSUhEUgAAACgAAAAeCAMAAABpA6zvAAAABGdBTUEAALGPC/xhBQAAAAFzUkdCAK7OHOkAAAAgY0hSTQAAeiYAAICEAAD6AAAAgOgAAHUwAADqYAAAOpgAABdwnLpRPAAAAa1QTFRF5wAT5wIV5wQX5wMW5gAK5QAC5gAJ5wIW5gEM5gAH6yk68Wx39I6W9I+Y8nB77C8/5gEK5wMX6iEu+LG3//z8////+bvB6yo35gAF7DtG/e7w//7+/ezt/Nzf/vHy/vb37klU5gAM6iEt/ers96yz7DRD6AcZ7kVT//r6/vT26y865gAG96es8neD5QAA5wwT96qy//v8//v7+Lm95gAL5wEV6iUz/vX1962z5QAD5gAN9660+svP9pui7DRB8F9q7UhQ7UBN+s3P6BQf96208W558nN984CJ/vHx6iAu84GK9I2W7DhH5wIT8Wpz/vr69ZWd83+J84SN96et7T9O5wAO5AAA9ZWb/vj49ZSc5wQW5QAE8F5p7UpS7k1a97K16Rok9Zih7ktZ/ODj8nF76iMx/vT05wIS+b3B+LG2/vT17DI/9qSp836I5w8X96mx//39+La66R4q/efp+LO57DpI6Akb7UJR+LK4/vn6/vHz6ys27DZB/ert/vDx/OLl/vP0/vL07URP6R0p96mw+LS66iUy5gEN6iM18GVw9IeQ9ImR8Wl05gEL5wMVuLb+ywAAAAFiS0dEFeXY+aMAAAAJcEhZcwAAAEgAAABIAEbJaz4AAAFCSURBVDjL3ZNXW8JAEEUTEojBiuEqGgWxKxoVQQ2i2BUbVuy9d+y99/qbXd7ZwKuefT3fzO7MXYb517A6Ahtd43g9wcBGUYU40RifkJiUbEgRtDyTmCqZESYt3cJp1BMzMiEjK9sqw5ZDN1l7bh6QX1BYJKEYJaU87Z6CowwoVyoqYTZXOVHtctMK1tSiTvXUw9tAVBmNhsgldaoPaFKagZbWtnYv0KHXRRb1nejyK93o6e1T+hHAgEoTB2H1K0MYHhkNjmEcExRxcmoamAnOAnPzC4tLwDKlNWtfWYWkrq1jQ4JtE9iiPIaMZxvYUXb3nCFysM9TxsO4PQeHwNHxyekZznFx6aIGQxCvrskKb27vZNw/ODSWzYmPT4FwJkLPLw4To4Hwanl7//j8MorfmjELB9elkuDyPzFkPLav8Kf5BfpyNUN31ky0AAAAJXRFWHRkYXRlOmNyZWF0ZQAyMDEzLTEwLTA3VDEzOjE1OjAzKzAyOjAwRxx6lgAAACV0RVh0ZGF0ZTptb2RpZnkAMjAxMy0xMC0wN1QxMzoxNTowMyswMjowMDZBwioAAAAASUVORK5CYII=",
    "name": {
      "common": "Tunisia",
      "deu": "Tunesien",
      "fra": "Tunisie",
      "hrv": "Tunis",
      "ita": "Tunisia",
      "jpn": "ãƒãƒ¥ãƒ‹ã‚¸ã‚¢",
      "nld": "TunesiÃ«",
      "por": "TunÃ­sia",
      "rus": "Ğ¢ÑƒĞ½Ğ¸Ñ",
      "spa": "TÃºnez",
      "svk": "Tunisko",
      "fin": "Tunisia",
      "zho": "çªå°¼æ–¯",
      "isr": "×˜×•× ×™×¡×™×”",
      "ces": "Tunisko",
      "slk": "Tunisko",
      "est": "Tuneesia",
      "pol": "Tunezja",
      "urd": "ØªÙˆÙ†Ø³",
      "kor": "íŠ€ë‹ˆì§€"
    }
  },
  "TR": {
    "currency": "TRY",
    "callingCode": "90",
    "flag": "data:image/png;base64,iVBORw0KGgoAAAANSUhEUgAAACgAAAAeCAMAAABpA6zvAAAABGdBTUEAALGPC/xhBQAAAAFzUkdCAK7OHOkAAAAgY0hSTQAAeiYAAICEAAD6AAAAgOgAAHUwAADqYAAAOpgAABdwnLpRPAAAActQTFRF8xkw8xox8xwz8xcv8xQs8xUs8x0z8xsy8gwk8gsk8x409Co/9CU68xIq8gQe8g8n9lpr+7O7/eDj//n6//7+/ufp+qiw9UNV8goj8xgv8xMq8yM5+7nA//////3+/eHk+qSu+Y+a+qGr/L3E+HyJ8xYt8yE3/dLX/vLz+HGA8xYu8gch8gYf8gMd8g4n9lFj9lRl8xcu8xwy8g0l+6my//v7//b39ktd8xkx8xw08gsl8x418xQr8xsx9UdZ//r7+HqH8x828xgw8xoy8xIp9T5S9llq8gkh+ZOe/ujq8yA38xYv8gwl9ThM/uXo9CtA9CM5911t/MDH+7jA8xsz8x00915u/dvf/vT1+YyY8xAo8xMr/M3S+qew8gkj8xMs9TtP/LzD+7a98gEa/L7F+7vC9259/vP1/vHz9UNW8xEp+Y6a/uzu9CM68gki/d/i9CxB92R0+HF/9UFU//39+YOQ8gId9UZZ8goi8xEo+qCp//r69ldp8gIc8gok9CI58x818xUt/MfN//f4+IGO8gUf91xt9lNk+6qz/u3v+7a++qCq+7G5/MPJ+HOB9kxe+qSt/dTY/u7v/drd+pei9TZK8g4m8yE48gUemlBhbQAAAAFiS0dEHesDcZEAAAAJcEhZcwAAAEgAAABIAEbJaz4AAAFvSURBVDjLY2AYzoCRkZEYZUxMzCysDGzshExj5+Dk4ubh5eNnwquOnZVfQFBIWERUTFxCEo8D2KWkZWTlZOUVFJWUVSRxq2RUVVOXldPQ1NLW0dXTNzAEimBXaGRsImtqZq5rwcRkyWhlbS0paWPLiMVX7Px2svayDrqOTiDgzOzk4urGKckhiaGQzd1DVtbTy9vCCQKcfXz9/AMCAwwxTQySlQ32CYGqcwoJDZMNj4iMwrCcMTpGVjY2DqrQIj4hUVZYNimZHYsbU2RlUxEmOlmkyaZnZGaxY7oxW1Y2J1cL5saQPPP8gsIiKYwwYo8qLjGVLS1zBKt01mLIKhev8KnEEj5MnFWy1fY1tcwhTExOdfUNDI02Rka22GLGkL1JtqS5xTqvla+xrV2VAWd6Y2cx6pAVke3s6u7p7WOVZMAN2A05+idMnBQxecrUCga8gNFoWp7hdCbjGbz40yPIUDYGLUNbNqJyA3F5ZlACAKV7S8gA90V0AAAAJXRFWHRkYXRlOmNyZWF0ZQAyMDEzLTEwLTA3VDEzOjE0OjMxKzAyOjAwsc4HYgAAACV0RVh0ZGF0ZTptb2RpZnkAMjAxMy0xMC0wN1QxMzoxNDozMSswMjowMMCTv94AAAAASUVORK5CYII=",
    "name": {
      "common": "Turkey",
      "deu": "TÃ¼rkei",
      "fra": "Turquie",
      "hrv": "Turska",
      "ita": "Turchia",
      "jpn": "ãƒˆãƒ«ã‚³",
      "nld": "Turkije",
      "por": "Turquia",
      "rus": "Ğ¢ÑƒÑ€Ñ†Ğ¸Ñ",
      "spa": "TurquÃ­a",
      "svk": "Turecko",
      "fin": "Turkki",
      "zho": "åœŸè€³å…¶",
      "isr": "×˜×•×¨×§×™×”",
      "ces": "Turecko",
      "slk": "Turecko",
      "est": "TÃ¼rgi",
      "pol": "Turcja",
      "urd": "ØªØ±Ú©ÛŒ",
      "kor": "í„°í‚¤"
    }
  },
  "TV": {
    "currency": "AUD",
    "callingCode": "688",
    "flag": "data:image/png;base64,iVBORw0KGgoAAAANSUhEUgAAACgAAAAeCAIAAADRv8uKAAAABGdBTUEAALGPC/xhBQAAAAFzUkdCAK7OHOkAAAAgY0hSTQAAeiYAAICEAAD6AAAAgOgAAHUwAADqYAAAOpgAABdwnLpRPAAAAAZiS0dEAP8A/wD/oL2nkwAAAAlwSFlzAAAASAAAAEgARslrPgAACApJREFUSMellntwlcUZxp939/vONTknJ4QkJCDkhtKAQkBqwTKIKGItF7XY4tii4KXOiO3gFQerrYIiWDuO1hFREFSwELTgdNqCWGvRQSPILYFcICCBk5Sck3P/Lrtv/whUHKwF3L++P77d3z67z/vuQx0Txvpv+6X35ptffOWzJ+5fGY93ChE2TY9ldd9465S3ppufTrlRAn2G1NhrNtfWLZIA4LrKMiLl0ybV3B1s7Lt1/dCfz3j+mllzdyUMD7mMsxliY9WUrjfeyEyd9OuB0b1tS+c9frvfbzhOHICUAqdWYQBEROyqFAcjk6eOXfMj/Uz7S6Pl8er16+prZ764Zh8ChtZnhwXEnctbJn85bpVv9J6HH5fXj19yWaZp/8K7770BUK6bBJ9ciEDsWhA0+eqR784wX+5cNkm0hRctXT95/ojZf7/hJ/P372uGx3P2YKr83u/i8Yztzx8zpuquQbEh/1ybP7C8fPETO+N5u1ri16e2771ppgDyqysi//pi7/sNIz5+247H8+c9/ImncuFj73z4XoPH7wmbRnJcdXLacKRtCDorcOdftxCBlYrFMhQpLCsO5pqalObCwRWysLBjxeqOJ58UgFFSWrNurUc5ie6kp7JSMLfvaZNShCJBW3GE1bNZ/2OpoEHsfsvxEms+uS1qAHo/JQGAzSAhCHC1ZsA4bZoGGJCABgjwCjCgNZSUhUq9NGnm4tmPykRMSfkN+sCStFI+KS0N0kwiB2SBDJBiZBkacLV2tGaAAX0GWAEaUEBaI6ORBtJACrC/7VyZtenmCieUNJCTp10fwMbFS58igmFIy3ITPRnBWobDCATdWMzr9/Rs+yRWX0+ADBeU/2quMIxc1ja8HrMwopRCPBYO+ZQ08lyrzF+JTJakOFMra7MqdHhC35131mxYXdD8t+ioffEq47bGCtfV8e50WVl43n0TR1QVpJpbnT+vL/7x1elLLqXiVSfq6wVgFhaEH5jvmp5ik9Lbt3etfD1v4lUbqqZs2LgbiXix37P7ggiqlXIIp3lLEAOAdI6kSy4ftmNk2RedTvjVg9dCKLlvh9W0s/n7dYMfXXRjdfbosbn3uK++cDQycO6Kw+9uPfLTocaxt9cDyC/tG5swbexlTynHrbuqrrg0HH16cUH9csM0Nu2z/7H5g+MejdG1sGwQnax8Fqy8AEhLVwVKvbGPo5cciFd8EB1N0haz7vhZc+eqNcunFy+5P/aLm5L9Kp794SNXvuNbt3WHrTQMs/dqNZHweDui8fseXH3RxQt/35hfvGXrqLXL50Ta36/86Lnpg8srquHYBClJG6ShPQXexKii3WEzOapoD4zsm4evXLjz7pdbpxpmilmK1/5wXemyRc1D66Jx9crlD11R71+yZEPycAtggmGA/YAP8DELMJgEAsc7js+7fXFV4T1Pb86pl9f1f+jhe7277vA1Av4CM0muH64/5I3Hs0W/Hba8Y+r06ryjsEJZbRq+7rQ2XW0CTHVL6rN79/a5YtyXgX6HtuwkL4l8P2vWttunrPCiIpHatZukNIIBDBnW8PkRZhaChBQqY3N3qrS2bMjlQ3Uidahpf3tgwJD8tllVGwV4Wcu0foHOF0YtvbCgbUXztPl7ZnflIkSKT1mA8PoOBAJIpqBsGQpozdzbJolgu3CBgB/M0BrZLIKe04xDQgo3ayOVgxTk97KD6/p/VD/+AUF6xgdP1X85vjbcNmPA1t/snuM301nlI+j/gg2pbO6xSBBLqZK5r1UCkSBwOtm7QxhCZ74qV93bSQSJgBdg5Sqv4STsvDdbr5XQJ+ywV1qNiYFLm2aCOKt8gAYEner+hNe2n2Vb///tF8y5PjWRA4L0/u6LhO8Eg8DEpMECQMiwksrLDBCL74w7rT+BpL+rNVPcnC6V/i4NAkBCA8IrbVO4j9SuKDBTpnQAfGcwC0laEvdqUiyZFJNSLImYANICLAYGo38a89h9ta/Xj10wLHQQ2vyOYMo30+zkCdcbNNNg6tXd6yB2fT7iUl8M2jjQNWxHTxWUpzHZ//POOilzEtNuPz+mIM1u4JKC1jsHrxtf2nCgpzJuhUm4va8dgYv83RNKPr218r2GeI0000knOG/nPZ1W5JiT57JpnB8VADNBOFWh9gUj/pi08zdHRx5MlxAxGESstTk83Pr8qOfKw0cc5X1w95xt0ZEk7Y+iIyEtgM8TTACzCHpSMTv0zsGruq0QgQ0j57o+QRrMYPFhdOS26PBB6eItxy/NZvuavm5XS2G4mgXOr5xOPQIQYJ0pGV7yWcrJa4nXwBu7IHgsZYcA8pvJHidYYFjHM8WDQodakgOIvpbHzlkx9RIBgtYsiyL793QPMaXVJ9x6It3Pw2LTuAeIeNYnC45mi7JGjoXdkhgEYTO+lsXODUwAa0++mdYs0soL5R3ki8+uXalYPNN4ywlS15RvG1G0V5C+pt+2/ekS3RuLz6CeK5g8wrKAWyr+0uME3zp8JYQ7rLDprto303Zw07EfHLHCq9onGsKRpF9rn+SVtqW8wDcH3nMCs8PGgxeuXXDxMlt78mRuVfvEpsTA1Qem/tsKd1kFEtyTLVrZdh2ARK6AjNz/op4bWJDWTnBTx5g5VRuzyrOpY2zGDn3cMaY72yfj+o8kB5A3TmYm7vgBkJll/raAfQ6u7o1tNeFDCSvkEY6UzqFkf8PIaeUFNAlXscRJ9+HMSz1/xQyCcJp7Kog0mBiAcFxtELkANMuvfjuL8R8dveX2nx36eAAAACV0RVh0ZGF0ZTpjcmVhdGUAMjAxMy0xMC0wN1QxMzoxNDo1MiswMjowMEZJFHgAAAAldEVYdGRhdGU6bW9kaWZ5ADIwMTMtMTAtMDdUMTM6MTQ6NTIrMDI6MDA3FKzEAAAAAElFTkSuQmCC",
    "name": {
      "common": "Tuvalu",
      "deu": "Tuvalu",
      "fra": "Tuvalu",
      "hrv": "Tuvalu",
      "ita": "Tuvalu",
      "jpn": "ãƒ„ãƒãƒ«",
      "nld": "Tuvalu",
      "por": "Tuvalu",
      "rus": "Ğ¢ÑƒĞ²Ğ°Ğ»Ñƒ",
      "spa": "Tuvalu",
      "svk": "Tuvalu",
      "fin": "Tuvalu",
      "zho": "å›¾ç“¦å¢",
      "isr": "×˜×•×‘××œ×•",
      "ces": "Tuvalu",
      "slk": "Tuvalu",
      "est": "Tuvalu",
      "pol": "Tuvalu",
      "urd": "ØªÙˆÙˆØ§Ù„Ùˆ",
      "kor": "íˆ¬ë°œë£¨"
    }
  },
  "TW": {
    "currency": "TWD",
    "callingCode": "886",
    "flag": "data:image/png;base64,iVBORw0KGgoAAAANSUhEUgAAACgAAAAeCAMAAABpA6zvAAAABGdBTUEAALGPC/xhBQAAAAFzUkdCAK7OHOkAAAAgY0hSTQAAeiYAAICEAAD6AAAAgOgAAHUwAADqYAAAOpgAABdwnLpRPAAAAdFQTFRFCDmcCjqdCTqcBzebCzmaADumXi9k7R8G2yES3iEQAzKZBzicDDydGEOhBjWaCzudPmWyAzKYLlWsobPaACeUKlOoLVerBDaaCjudCDqcBzSaAB2OgZrNqrrdOGSpsMjaK1am4OX0JU+nACSSAjSaR2y1Sm23OGOsa564apu4gKnDYJazapa6L1esZIPBJ1KoK1Wq2+LwTIaqutDf/////f3+ZZa3lbjMr7zgATSZDz2gG1OcjbLH+Pr8+vz9+Pr7RX6nJVKnDDyeCTqdAzWaIk+mzNTsk7PJpcHU/P3+aJW12ePsjKPSCzydCTmcET6hGFKbj7TI/v7/+fv8SIGoHk2kKFKp1t/uwNTiapm5jbLJvMflBzmbRWu0TG+4M1+qZ5u2cJ+7hq3GY5e0aJe5Vni7CDqde5TKqbrcLlylq8XYIU+i2+HyLlirCTmbDDucCDibPWOwBzWZKE+oorPaACqVIkukLVaqBTaaCzucDDmZADulXi9jBDmeBTqfAjObBzufFEKjBDqeBDadAzWcADuoXDBlFzeSFjeSGDmTFziTFDWRGDiTGjeQZy5e7B8HzyMa0CMa0CMZziMa1SIW3yEP4iEO4iEN4CEP3SER3SEQW/bs6wAAAAFiS0dENKmx6f0AAAAJcEhZcwAAAEgAAABIAEbJaz4AAAEdSURBVDjLY2CAAkYmBmYQAQIsrGzsHJyoAKaOiYubh5eBj4+JgEJ+BgFBIWERUTFxCbwKJaWkZWTl5BUUlZSZJfEoZFJRVVPX0NTS1tHV01dhwq2QUcXA0MjYxNTEzNzCEr/VVtY2JrZ2JvYOjk5MuBU6u7i6uXuYeAKhl7ePL7cfbhOZ/AMCgSYGBYeEuuAxEejGsHCjCKCBkVHRMQx++HwdGxefkJiUnBKWitfXDGlS0ukZmVnZObnKzLiszgOD/ILCouKS0rLyikogr6q6BlNhLQTU1dc2NDY1t9SBOAytbZgK2yGgo7Oro7urp6cDxOnN6+vHUDgBDiZOhLEmTZ4ylRNd4TRsYPoMTgyFM7GCWZgKOYkEowqHvEIA5+WDvzAavScAAAAldEVYdGRhdGU6Y3JlYXRlADIwMTMtMTAtMDdUMTM6MTQ6NTkrMDI6MDBETkCCAAAAJXRFWHRkYXRlOm1vZGlmeQAyMDEzLTEwLTA3VDEzOjE0OjU5KzAyOjAwNRP4PgAAAABJRU5ErkJggg==",
    "name": {
      "common": "Taiwan",
      "deu": "Taiwan",
      "fra": "TaÃ¯wan",
      "hrv": "Tajvan",
      "ita": "Taiwan",
      "jpn": "å°æ¹¾ï¼ˆå°æ¹¾çœ/ä¸­è¯æ°‘å›½ï¼‰",
      "nld": "Taiwan",
      "por": "Ilha Formosa",
      "rus": "Ğ¢Ğ°Ğ¹Ğ²Ğ°Ğ½ÑŒ",
      "spa": "TaiwÃ¡n",
      "svk": "Taiwan",
      "fin": "Taiwan",
      "isr": "×˜×™×™×•×•××Ÿ",
      "ces": "Tchaj-wan",
      "slk": "Taiwan",
      "est": "Taiwan",
      "pol": "Tajwan",
      "urd": "ØªØ§Ø¦ÛŒÙˆØ§Ù†",
      "kor": "ëŒ€ë§Œ"
    }
  },
  "TZ": {
    "currency": "TZS",
    "callingCode": "255",
    "flag": "data:image/png;base64,iVBORw0KGgoAAAANSUhEUgAAACgAAAAeCAMAAABpA6zvAAAABGdBTUEAALGPC/xhBQAAAAFzUkdCAK7OHOkAAAAgY0hSTQAAeiYAAICEAAD6AAAAgOgAAHUwAADqYAAAOpgAABdwnLpRPAAAAPxQTFRFAJkAA5oABJkAAJEALqoA0OoA//8A9fYAZ2cAAAAAAQEAAZkABJsAAJUAApcAc8YA9PkAxMQAKioAApoAA5kAKqkAxeYA9PYAcHEAAgIAApYAdccA9vkAwMIAJicAAwMAxOUA9PUABAQAKCgBc3UD9fYCJygBwcMD8vgKcXID9PYDwOQ7LarRwcME9fkHdceHApb9AJT/xOU4KqnUAJH/A5n8A5r8dMaIAJX/BJv7AZn+AJn/Apr9cHIDAJQAdscALaoAweQA8/kAcnQA9vkHJycAxOU3dceIcXIC9PYCxeY2KysAxcUB8/kJcsaKaGgA0OorLqrQBJn7////k/P2mwAAAAFiS0dEU3pnHQYAAAAJcEhZcwAAAEgAAABIAEbJaz4AAADxSURBVDjLjcx5WwFRGIZxjN56TrK00BDTKEubKGsnVEqFtHz/D9OcsV0xJ+/99339fD59/oAR3KDNLQgA+m07tBOORCm26376cW/fOIhT4lDAxD+jwyVTR5TOwJp80HPHZDtcVkw+k8cJCzzOwgmHywKnORaXL1CRwYmzc7q4ZHBXVLouVzjczW21VmdwjXKzdSdZ3L2UksfNRm+uveCm43rOHTmcGv0cTo2dZHc9p8aHRwanxicOp0a7hyXueZVT48sy1/fg1AjrL/fqxamRxbkih5uPJsTbOw203GwUGI7oY6znpqPAZ46+vqs/danvF4pIe3odrT25AAAAJXRFWHRkYXRlOmNyZWF0ZQAyMDEzLTEwLTA3VDEzOjE0OjM3KzAyOjAw0h4yWAAAACV0RVh0ZGF0ZTptb2RpZnkAMjAxMy0xMC0wN1QxMzoxNDozNyswMjowMKNDiuQAAAAASUVORK5CYII=",
    "name": {
      "common": "Tanzania",
      "deu": "Tansania",
      "fra": "Tanzanie",
      "hrv": "Tanzanija",
      "ita": "Tanzania",
      "jpn": "ã‚¿ãƒ³ã‚¶ãƒ‹ã‚¢",
      "nld": "Tanzania",
      "por": "TanzÃ¢nia",
      "rus": "Ğ¢Ğ°Ğ½Ğ·Ğ°Ğ½Ğ¸Ñ",
      "spa": "Tanzania",
      "svk": "TanzÃ¡nia",
      "fin": "Tansania",
      "zho": "å¦æ¡‘å°¼äºš",
      "isr": "×˜× ×–× ×™×”",
      "ces": "Tanzanie",
      "slk": "TanzÃ¡nia",
      "est": "Tansaania",
      "pol": "Tanzania",
      "urd": "ØªÙ†Ø²Ø§Ù†ÛŒÛ",
      "kor": "íƒ„ìë‹ˆì•„"
    }
  },
  "UG": {
    "currency": "UGX",
    "callingCode": "256",
    "flag": "data:image/png;base64,iVBORw0KGgoAAAANSUhEUgAAACgAAAAeCAMAAABpA6zvAAAABGdBTUEAALGPC/xhBQAAAAFzUkdCAK7OHOkAAAAgY0hSTQAAeiYAAICEAAD6AAAAgOgAAHUwAADqYAAAOpgAABdwnLpRPAAAASxQTFRFAAAAHxwA4MsA/+kA/+cA/+gA+9IB+9EA+tAA+tME+tIC+s8A4k4H4kwF32Eg341c0pJG4bBy5Jlp32Af3jgI3TYG3F888NHL4NjbalUyvaGC/fn978/K3jkI3jgG20sg79DI////zsfHXFNS29nb4DkI3zYE4YRp/fz+//3/nJybdHVz8e/x//7//fz9wzIHwjEG3qiZ+/n7a2xrSU1Jur2618nG9+7tGwcBGQYAn5eWwL7AR0hHT01Kn0Ms3XVe/vf4n5iXZWRl7uzusbCxS0xNpnlv0lI19eflZWVmGhoax8bH9/f3paOlsa+xp6ep2cO/47ClxsTFNTU3xMPG8vDzs7K1sbCz+ff6xMTHHBkAODUagHxhjIhtn5uBgn5j38oA3cgA4cwC4MsBYexgUAAAAAFiS0dEIcRsDRYAAAAJcEhZcwAAAEgAAABIAEbJaz4AAADaSURBVDjLY2AYAoCRSMDARCRgYCYSMLAQCRhYiQQMbOiAnYOTi5sdQ5iBBw3w8vELCAoJ86KLM4igAlExcQlJKWkZMVE0CQZZFCAnr6CopKyiqKggL4cqw6CKAtTUNTS1tHV0dfXU1VBlGPRRgIGhopGxiamZuaKhAaoMgwUKsLRSVLS2sbWzd3C0RJVBj3onPU1nF1c3dw9PAmnEy9vH188/IDDIi1BqCg4JDQuPiAwmmMyiomNi4+Kjowgns4TEpOTEhMGdzHAAjGSGC6AnM5wALZnhBtRXCAA5O0ad99aTXAAAACV0RVh0ZGF0ZTpjcmVhdGUAMjAxMy0xMC0wN1QxMzoxNDoyNyswMjowMB60MsYAAAAldEVYdGRhdGU6bW9kaWZ5ADIwMTMtMTAtMDdUMTM6MTQ6MjcrMDI6MDBv6Yp6AAAAAElFTkSuQmCC",
    "name": {
      "common": "Uganda",
      "deu": "Uganda",
      "fra": "Ouganda",
      "hrv": "Uganda",
      "ita": "Uganda",
      "jpn": "ã‚¦ã‚¬ãƒ³ãƒ€",
      "nld": "Oeganda",
      "por": "Uganda",
      "rus": "Ğ£Ğ³Ğ°Ğ½Ğ´Ğ°",
      "spa": "Uganda",
      "svk": "Uganda",
      "fin": "Uganda",
      "zho": "ä¹Œå¹²è¾¾",
      "isr": "××•×’× ×“×”",
      "ces": "Uganda",
      "slk": "Uganda",
      "est": "Uganda",
      "pol": "Uganda",
      "urd": "ÛŒÙˆÚ¯Ù†ÚˆØ§",
      "kor": "ìš°ê°„ë‹¤"
    }
  },
  "UA": {
    "currency": "UAH",
    "callingCode": "380",
    "flag": "data:image/png;base64,iVBORw0KGgoAAAANSUhEUgAAACgAAAAeBAMAAACs80HuAAAABGdBTUEAALGPC/xhBQAAAAFzUkdCAK7OHOkAAAAgY0hSTQAAeiYAAICEAAD6AAAAgOgAAHUwAADqYAAAOpgAABdwnLpRPAAAABtQTFRFJoz/J43+Ior/NZTu8Pcc//8H/v4M//8L////WTbNKwAAAAFiS0dECIbelXoAAAAJcEhZcwAAAEgAAABIAEbJaz4AAAAoSURBVCjPY2AYwUAQC2BQwgIYjLEABhcsgCEUC2BIwwIYyrGAESIIAFnli3Xgo9d8AAAAJXRFWHRkYXRlOmNyZWF0ZQAyMDEzLTEwLTA3VDEzOjE0OjU2KzAyOjAwsgYwawAAACV0RVh0ZGF0ZTptb2RpZnkAMjAxMy0xMC0wN1QxMzoxNDo1NiswMjowMMNbiNcAAAAASUVORK5CYII=",
    "name": {
      "common": "Ukraine",
      "deu": "Ukraine",
      "fra": "Ukraine",
      "hrv": "Ukrajina",
      "ita": "Ucraina",
      "jpn": "ã‚¦ã‚¯ãƒ©ã‚¤ãƒŠ",
      "nld": "OekraÃ¯ne",
      "por": "UcrÃ¢nia",
      "rus": "Ğ£ĞºÑ€Ğ°Ğ¸Ğ½Ğ°",
      "spa": "Ucrania",
      "svk": "Ukrajina",
      "fin": "Ukraina",
      "zho": "ä¹Œå…‹å…°",
      "isr": "××•×§×¨××™× ×”",
      "ces": "Ukrajina",
      "slk": "Ukrajina",
      "est": "Ukraina",
      "pol": "Ukraina",
      "urd": "ÛŒÙˆÚ©Ø±ÛŒÙ†",
      "kor": "ìš°í¬ë¼ì´ë‚˜"
    }
  },
  "UM": {
    "currency": "USD",
    "flag": "data:image/png;base64,iVBORw0KGgoAAAANSUhEUgAAACgAAAAeCAMAAABpA6zvAAAABGdBTUEAALGPC/xhBQAAAAFzUkdCAK7OHOkAAAAgY0hSTQAAeiYAAICEAAD6AAAAgOgAAHUwAADqYAAAOpgAABdwnLpRPAAAAj1QTFRF4bm96r/B6b/B3a6y5bO15bK1wltjyF1j8unr+vDx+vDwyHB2z3J31ZSZ3JicGS9dJTplITdjGjBdKDxnHjNhGzFfKT1oHzZjQjJXtzxFvT1EGjBedYKdXWyNFStaIDVih5OrRFV7FCpZLkJsjpmvdYKeGC5cWmyNQDFWuD5Hvj9GM0dwRlh9NEdwOEtzLEBqTF2BLUFrOUx0M0dvPVB2KT9pTFJ1HDJfeIWgFy1bJjpmhI+oNklxFi1bS12BY3KRFixbUmOF9/f5////aHaUVGSGIjdjPlF3Gi9dfYqkU2SGaHeVUGKFSk5ySlt/PlB3MkZvMUVuKz9qV2eJKz9pO093QDFVtjpCvDpBFSxbgo6nUWKEEilYJjtmj5qwOUxzEihYFCtaa3mXFCxbRDpfRFZ7KDxoJzxnXW2NKT5pYXCQQFJ5UF6BTl+DHjNgcH6aO051HjRhYnGQS1yAUGCD9fT1/vv8/vv7Fy1cfYmjT1+DiZSsZ3aUFS1cRkBkO011M0ZvMERtQVN5QlR6LEBrQ1V7Ok10N0pyL0VvQTBVtTc/uzc+coCcW2qLhJCpLkJri5atc4CcWGmLR0drHzRhITZiaXiWRVd8c4GdIDZiWGiKJTpmPE92YG+PL0NtKj5pJztnIDZjTlh76c/S8dbX8dXXdoOfXm2NiZWsEylZL0JskJuxd4SfFy5cW22OQDNXukZOwUZNwEZNJDllPVB3P1F4MkdwSzxfu0ZOzdLczNHbzdHbzNDb1tPb8NXXWNrergAAAA90Uk5T/v7+/v7+/v7+/v7+/v7+6a2FXwAAAAFiS0dEQ2fQDWIAAAAJcEhZcwAAAEgAAABIAEbJaz4AAAITSURBVDjLY+AXEOQXEhbhFxUT5RcRFuIXFODnFxCXkJRCAwzSMrJy8gqKSsoqykqKCvJysqpqaqrqGppaaICBX1tZR1dP38DQyNBAX09XR9nYxMTY1IyBkQkVMPDzm1sYWFpZ29jaWFtZ2lmYq9nbqzk4OjmjAQZpF1dpNwt3D0NPQw93CzdpL29zc28fX2YWVlTAwO/nryzmFRAYFBwUGOAlpuzvFxLiFxoWHoEGGPgjpaOiY2Lj4hPi42JjoqOkE5OS5JJT2NjRAIOQY2paeoZNpn6WfqZNRnpaqmNsrGN2DgcnFypg4M/KzXPLLyjUV9UvLMh3y8stKiwsKi4pLStHBQz8FaKVVYmx1XpKetWxiVWVog41Nba1ddw8aICBv77Bv7HJsLmltaXZsKnRv6Gtvb2to7OrGw0w8Pf0ysn3NSf2T+hPbO6Tl+udqKY2cdJkXj40wMA/Zeq06XnpM7TztGek502fNjNv1qxCaSwBzp8+e9YcMeG58+bPmyssNmfW7AXFxQsWLlq8ZCkqYOBftlxJfkXqylWrV61MXSGvtHzN2rVr1q3fsHETKmAQMNLdHLtFefP8rfM3K2+J3axrJCBgtG37DgyFO3ft2rlz1+6dO/fs3LkbxATjvfuWolvtTCRg4CMSMHQTCRh4iAQM5UQCBi4iAQM7kYAhgkjAwEokID7AmYgEDFpEAgYpIgEA2hc6qEvsr/QAAAAldEVYdGRhdGU6Y3JlYXRlADIwMTMtMTAtMDdUMTM6MTU6MDIrMDI6MDDha3EiAAAAJXRFWHRkYXRlOm1vZGlmeQAyMDEzLTEwLTA3VDEzOjE1OjAyKzAyOjAwkDbJngAAAABJRU5ErkJggg==",
    "name": {
      "common": "United States Minor Outlying Islands",
      "deu": "Kleinere Inselbesitzungen der Vereinigten Staaten",
      "fra": "Ãles mineures Ã©loignÃ©es des Ã‰tats-Unis",
      "hrv": "Mali udaljeni otoci SAD-a",
      "ita": "Isole minori esterne degli Stati Uniti d'America",
      "jpn": "åˆè¡†å›½é ˜æœ‰å°é›¢å³¶",
      "nld": "Kleine afgelegen eilanden van de Verenigde Staten",
      "por": "Ilhas Menores Distantes dos Estados Unidos",
      "rus": "Ğ’Ğ½ĞµÑˆĞ½Ğ¸Ğµ Ğ¼Ğ°Ğ»Ñ‹Ğµ Ğ¾ÑÑ‚Ñ€Ğ¾Ğ²Ğ° Ğ¡Ğ¨Ğ",
      "spa": "Islas Ultramarinas Menores de Estados Unidos",
      "svk": "MenÅ¡ie odÄ¾ahlÃ© ostrovy USA",
      "fin": "Yhdysvaltain asumattomat saaret",
      "zho": "ç¾å›½æœ¬åœŸå¤–å°å²›å±¿",
      "isr": "×”××™×™× ×”××¨×•×—×§×™× ×”×§×˜× ×™× ×©×œ ××¨×”×´×‘",
      "ces": "MenÅ¡Ã­ odlehlÃ© ostrovy USA",
      "slk": "MenÅ¡ie odÄ¾ahlÃ© ostrovy USA",
      "est": "Ãœhendriikide hajasaared",
      "pol": "Dalekie Wyspy Mniejsze StanÃ³w Zjednoczonych",
      "urd": "Ø§Ù…Ø±ÛŒÚ©ÛŒ Ú†Ú¾ÙˆÙ¹Û’ Ø¨ÛŒØ±ÙˆÙ†ÛŒ Ø¬Ø²Ø§Ø¦Ø±",
      "kor": "ë¯¸êµ­ë ¹ êµ°ì†Œ ì œë„"
    }
  },
  "UY": {
    "currency": "UYI",
    "callingCode": "598",
    "flag": "data:image/png;base64,iVBORw0KGgoAAAANSUhEUgAAACgAAAAeCAMAAABpA6zvAAAABGdBTUEAALGPC/xhBQAAAAFzUkdCAK7OHOkAAAAgY0hSTQAAeiYAAICEAAD6AAAAgOgAAHUwAADqYAAAOpgAABdwnLpRPAAAAiVQTFRF/////v35///+/v36/v789uis/Pfj9vDN+vXg/v76+Oy8/Pnr/Prx//7+9+mi+Oup8+iP9+y2+vLI9eOH/Pru//790NjrcYjDb4bC/v378uip9+24+O+u9+uJ8uVT8t1l+OuA+O+y9Oyk9Ou+q7jbAyiSACWR+fDN+e6++fTM8eFS8ddH9ehe8eQd8dUs9e1k8uZM8d1o/Pnt/Pnp/fnsAyiTACaRACaS+/Xd9uaY9+iJ9e5+8eAR8eES9fQH9O8M8ekP8NMc9uh7+OuP9eOK+O/IvsjjOlmrOFir/Pjo9ueR9OJW8ugj+f0A+v8A9/YC8ugv9e5o9++j+vTR/v34+/v98vT69OzE8eOB8N5H8NkV8+kH+f4B8eEJ79gc8N5U8eSQ9vHU/fvx+fHB9u2W9e9g8uUk+PoA9vgC8ug09uli9+6m/fvz+Pn86u32/v779umx9uWN+O2a9OJr8NUP8uwY9OwJ9PIO8NsV8eMc9vGR9+uH9+mb/PjmucThLE6mKkyl/fru/vz2+vXd8NxR8+ti9vBk8NQc8uw49u5l8NlN8eRn+vbX+fHF+/biAymTACeS8uiu9/G6+O+f9++K8dtR9Ox++PCF+fTB9uy49Oy//fz2+/bb9uaE/Pjj8+aY9/C3+O2d+O+w/fv11t3ug5fLgpbK+/fh+fLO9/HU+vfl+/ff+O++///9oK/XACmTACiSFz2d2N7u+fr9SmeyWnW5/v7/+P+5hQAAAAFiS0dEAIgFHUgAAAAJcEhZcwAAAEgAAABIAEbJaz4AAAFASURBVDjLldRFV0MxEAXg4bV4ixd3SnGH4u4W3N2d4u7u7u7u9vt4hW0K02+Xk7u5czIBkI8Cw+FichxFJWUVVTX1/2I8voamlraOrh5PAKBvYEgjDRoZm5iamVtYWlnbsCehrYiGvbGzd3B0cnZxdXP38PTyBqGP2JeCDfr5BwQGBYeEhoVHREZFQ0xsHA0b5MYnJCYlE5KSmpaekQlZ2VRslZzcvPwCQkhhUXFJaRkju3R5RWVVdQ0htXX1DY0ATc1UAJKW1rb2js6u7p7evv6BQRgaHqEBYEbHxicmp6ZnZufmFxaXQLi8QvMzx9W19Y3Nre2d3T3pHGWOByT7B4dHxyenZ3DOB7i4vKL57XN9A7d39w+o9yN4BObPwBMSPCPBCxK8IsEbEn6t3pHgAwnESCBCgk8k+EKS8+tB+Ab8+Iwkca/RVwAAACV0RVh0ZGF0ZTpjcmVhdGUAMjAxMy0xMC0wN1QxMzoxNDo1NCswMjowMCWZIUIAAAAldEVYdGRhdGU6bW9kaWZ5ADIwMTMtMTAtMDdUMTM6MTQ6NTQrMDI6MDBUxJn+AAAAAElFTkSuQmCC",
    "name": {
      "common": "Uruguay",
      "deu": "Uruguay",
      "fra": "Uruguay",
      "hrv": "Urugvaj",
      "ita": "Uruguay",
      "jpn": "ã‚¦ãƒ«ã‚°ã‚¢ã‚¤",
      "nld": "Uruguay",
      "por": "Uruguai",
      "rus": "Ğ£Ñ€ÑƒĞ³Ğ²Ğ°Ğ¹",
      "spa": "Uruguay",
      "svk": "Uruguaj",
      "fin": "Uruguay",
      "zho": "ä¹Œæ‹‰åœ­",
      "isr": "××•×¨×•×’×•×•××™",
      "ces": "Uruguay",
      "slk": "Uruguaj",
      "est": "Uruguay",
      "pol": "Urugwaj",
      "urd": "ÛŒÙˆØ±Ø§Ú¯ÙˆØ¦Û’",
      "kor": "ìš°ë£¨ê³¼ì´"
    }
  },
  "US": {
    "currency": "USD",
    "callingCode": "1",
    "flag": "data:image/png;base64,iVBORw0KGgoAAAANSUhEUgAAACgAAAAeCAMAAABpA6zvAAAABGdBTUEAALGPC/xhBQAAAAFzUkdCAK7OHOkAAAAgY0hSTQAAeiYAAICEAAD6AAAAgOgAAHUwAADqYAAAOpgAABdwnLpRPAAAAj1QTFRF4bm96r/B6b/B3a6y5bO15bK1wltjyF1j8unr+vDx+vDwyHB2z3J31ZSZ3JicGS9dJTplITdjGjBdKDxnHjNhGzFfKT1oHzZjQjJXtzxFvT1EGjBedYKdXWyNFStaIDVih5OrRFV7FCpZLkJsjpmvdYKeGC5cWmyNQDFWuD5Hvj9GM0dwRlh9NEdwOEtzLEBqTF2BLUFrOUx0M0dvPVB2KT9pTFJ1HDJfeIWgFy1bJjpmhI+oNklxFi1bS12BY3KRFixbUmOF9/f5////aHaUVGSGIjdjPlF3Gi9dfYqkU2SGaHeVUGKFSk5ySlt/PlB3MkZvMUVuKz9qV2eJKz9pO093QDFVtjpCvDpBFSxbgo6nUWKEEilYJjtmj5qwOUxzEihYFCtaa3mXFCxbRDpfRFZ7KDxoJzxnXW2NKT5pYXCQQFJ5UF6BTl+DHjNgcH6aO051HjRhYnGQS1yAUGCD9fT1/vv8/vv7Fy1cfYmjT1+DiZSsZ3aUFS1cRkBkO011M0ZvMERtQVN5QlR6LEBrQ1V7Ok10N0pyL0VvQTBVtTc/uzc+coCcW2qLhJCpLkJri5atc4CcWGmLR0drHzRhITZiaXiWRVd8c4GdIDZiWGiKJTpmPE92YG+PL0NtKj5pJztnIDZjTlh76c/S8dbX8dXXdoOfXm2NiZWsEylZL0JskJuxd4SfFy5cW22OQDNXukZOwUZNwEZNJDllPVB3P1F4MkdwSzxfu0ZOzdLczNHbzdHbzNDb1tPb8NXXWNrergAAAA90Uk5T/v7+/v7+/v7+/v7+/v7+6a2FXwAAAAFiS0dEQ2fQDWIAAAAJcEhZcwAAAEgAAABIAEbJaz4AAAITSURBVDjLY+AXEOQXEhbhFxUT5RcRFuIXFODnFxCXkJRCAwzSMrJy8gqKSsoqykqKCvJysqpqaqrqGppaaICBX1tZR1dP38DQyNBAX09XR9nYxMTY1IyBkQkVMPDzm1sYWFpZ29jaWFtZ2lmYq9nbqzk4OjmjAQZpF1dpNwt3D0NPQw93CzdpL29zc28fX2YWVlTAwO/nryzmFRAYFBwUGOAlpuzvFxLiFxoWHoEGGPgjpaOiY2Lj4hPi42JjoqOkE5OS5JJT2NjRAIOQY2paeoZNpn6WfqZNRnpaqmNsrGN2DgcnFypg4M/KzXPLLyjUV9UvLMh3y8stKiwsKi4pLStHBQz8FaKVVYmx1XpKetWxiVWVog41Nba1ddw8aICBv77Bv7HJsLmltaXZsKnRv6Gtvb2to7OrGw0w8Pf0ysn3NSf2T+hPbO6Tl+udqKY2cdJkXj40wMA/Zeq06XnpM7TztGek502fNjNv1qxCaSwBzp8+e9YcMeG58+bPmyssNmfW7AXFxQsWLlq8ZCkqYOBftlxJfkXqylWrV61MXSGvtHzN2rVr1q3fsHETKmAQMNLdHLtFefP8rfM3K2+J3axrJCBgtG37DgyFO3ft2rlz1+6dO/fs3LkbxATjvfuWolvtTCRg4CMSMHQTCRh4iAQM5UQCBi4iAQM7kYAhgkjAwEokID7AmYgEDFpEAgYpIgEA2hc6qEvsr/QAAAAldEVYdGRhdGU6Y3JlYXRlADIwMTMtMTAtMDdUMTM6MTU6MTUrMDI6MDDoZk8yAAAAJXRFWHRkYXRlOm1vZGlmeQAyMDEzLTEwLTA3VDEzOjE1OjE1KzAyOjAwmTv3jgAAAABJRU5ErkJggg==",
    "name": {
      "common": "United States",
      "deu": "Vereinigte Staaten von Amerika",
      "fra": "Ã‰tats-Unis",
      "hrv": "Sjedinjene AmeriÄke DrÅ¾ave",
      "ita": "Stati Uniti d'America",
      "jpn": "ã‚¢ãƒ¡ãƒªã‚«åˆè¡†å›½",
      "nld": "Verenigde Staten",
      "por": "Estados Unidos",
      "rus": "Ğ¡Ğ¾ĞµĞ´Ğ¸Ğ½Ñ‘Ğ½Ğ½Ñ‹Ğµ Ğ¨Ñ‚Ğ°Ñ‚Ñ‹ ĞĞ¼ĞµÑ€Ğ¸ĞºĞ¸",
      "spa": "Estados Unidos",
      "svk": "SpojenÃ© Å¡tÃ¡ty",
      "fin": "Yhdysvallat",
      "zho": "ç¾å›½",
      "isr": "××¨×¦×•×ª ×”×‘×¨×™×ª",
      "ces": "SpojenÃ© stÃ¡ty",
      "slk": "SpojenÃ© Å¡tÃ¡ty americkÃ©",
      "est": "Ameerika Ãœhendriigid",
      "pol": "Stany Zjednoczone",
      "urd": "Ø±ÛŒØ§Ø³ØªÛØ§Ø¦Û’ Ù…ØªØ­Ø¯Û",
      "kor": "ë¯¸êµ­"
    }
  },
  "UZ": {
    "currency": "UZS",
    "callingCode": "998",
    "flag": "data:image/png;base64,iVBORw0KGgoAAAANSUhEUgAAACgAAAAeCAMAAABpA6zvAAAABGdBTUEAALGPC/xhBQAAAAFzUkdCAK7OHOkAAAAgY0hSTQAAeiYAAICEAAD6AAAAgOgAAHUwAADqYAAAOpgAABdwnLpRPAAAAYxQTFRFlKzUjafRo7jaw9DnxNHnqLvckqrTkKnSj6jSkqvTkanTkarTlazUyNXp////8fT5zNjrucnjnLLXk6vTnbPYqbzcqr3dmrHXpLjaorfalq3Vv83l2+PxiqTQjqjSlq7Vs8Tg1+Hv2uPwqb3dxtPow9Hnla3Vla3U8PP5/P3+mrHWl67Vk6vUjqfRn7XY5ev1mbDWztrsydbqprrbusnjm7HX+/z+7vL4mK/Wwc/mmK/VpbnbvMzkvczlsMLfscPg3OTxscLgiKPPk6zUnLPXlavSkajQo7XX9/j6/Pz9usfgma7TkafQ19/stsXfk6nQ4+jxoLPWr7/c3OPu3+XvqLrZxdDlytTnjaXOlqvSlKrRk7bllLflj7Pjnr/q1er96/v/z+X8qcjukrbknL7ol7rmk7bknr/plLjllrnmnb7onb7plbjmmbvnmrznk7flmniCm3mCl3aBknJ+lnWAmXeBmHaBmXiBmHeB5aiR5KiR5amR5qmS/vz7/f38vnhNB5UAAK4DAagAAKkAcIAQIwAAAAFiS0dEDm+9ME8AAAAJcEhZcwAAAEgAAABIAEbJaz4AAAElSURBVDjLY2BgYGBkYmZhZQADNnYGDk4ubgZsgIedl49fQFBIGMjmFBHlFBOXkGTDok6KUZpPhltWDsSW51BQ5FBSVlFlVMOiUl1DU4tdWx3I0tHV4ZZjkGNjZ8dmM7cenz47yAB1HQNDAzFeDiNjQRMOdUyFbKZm5mwgcU42C0sraxt2W0k7e3YsCtU5HPgcnRicdVwsdLR5eOQZtBnUpLBZ7erm7uHp5e3t4+vnHxAYFOwTEhoWHhEZhQ4YomNi4+ITEpOSU1LT0jMys5Kzc3LzkvMxAENBQWFRcUlpWUFZaUFRAYgur6gowAQMlZVV1TXVlZWV1VAEYmMBDHxEAoZaIgHxJg4FhXVEAuJNrCcSMDQQCRgaiQQMTUQChmYiwbBSCACCMlF7L3AvtgAAACV0RVh0ZGF0ZTpjcmVhdGUAMjAxMy0xMC0wN1QxMzoxNDoyNyswMjowMB60MsYAAAAldEVYdGRhdGU6bW9kaWZ5ADIwMTMtMTAtMDdUMTM6MTQ6MjcrMDI6MDBv6Yp6AAAAAElFTkSuQmCC",
    "name": {
      "common": "Uzbekistan",
      "deu": "Usbekistan",
      "fra": "OuzbÃ©kistan",
      "hrv": "Uzbekistan",
      "ita": "Uzbekistan",
      "jpn": "ã‚¦ã‚ºãƒ™ã‚­ã‚¹ã‚¿ãƒ³",
      "nld": "Oezbekistan",
      "por": "UzbequistÃ£o",
      "rus": "Ğ£Ğ·Ğ±ĞµĞºĞ¸ÑÑ‚Ğ°Ğ½",
      "spa": "UzbekistÃ¡n",
      "svk": "Uzbekistan",
      "fin": "Uzbekistan",
      "zho": "ä¹Œå…¹åˆ«å…‹æ–¯å¦",
      "isr": "××•×–×‘×§×™×¡×˜×Ÿ",
      "ces": "UzbekistÃ¡n",
      "slk": "Uzbekistan",
      "est": "Usbekistan",
      "pol": "Uzbekistan",
      "urd": "Ø§Ø²Ø¨Ú©Ø³ØªØ§Ù†",
      "kor": "ìš°ì¦ˆë² í‚¤ìŠ¤íƒ„"
    }
  },
  "VA": {
    "currency": "EUR",
    "callingCode": "3906698",
    "flag": "data:image/png;base64,iVBORw0KGgoAAAANSUhEUgAAACgAAAAeCAMAAABpA6zvAAAABGdBTUEAALGPC/xhBQAAAAFzUkdCAK7OHOkAAAAgY0hSTQAAeiYAAICEAAD6AAAAgOgAAHUwAADqYAAAOpgAABdwnLpRPAAAAnlQTFRF/+AA/+AB/98A/+IR//3u///////++vfC/v75/v7//Pvx/v7+///9//7+/fzz+/nm/PjD+/ne/Pvw+fjg9/Go+PCI9/GZ+PTG//3t/fzv/v789fTu+fr++fbS9++p9+2M9++f9/K8/P3/9/by/v79+/v5/Pz7//zs9vLB3dmn6unf8fH59PPW/f7G/f+j/f+6+PbH8fH16+vn5uTG4N6++Pj4//zt8/Pyt7au2da8+fv67ufS4Z5d3IVC4ZRL7dqu9vr/8O/k6Nw39e6D3t7ivLy6xsbLv72v1dO29PH168S44K2s4rev9Ozz6urN59tF8Odu9ulB9etm+/ng///vzs/TsrKxz8/P1dTN0M662Ne36O7Q/P/97/bY7eqb49+t6eOG9OyA8udR8eQt/PnS4ODfubm45eXg8/Pz9vbyxcbU18XK9+dh9O+h9vf/8PH+7eNY9OlQ/Pzz/v//7+/x9fb+9vb7+fn/+frKrlocyKaG9/3/9/f8+vjb/v3q+Pn9/Pzy+PS/9/Xd9fCk+Okqv2dBtZKjx8zG8e/k5+fn7/D1///0/v73/vzs4+G/6uBY7+dy7uNl5d5L3reUxHV+15ydy8GjwcGryMfKxMTHzsue/fzp//3r8Ohw9vK86txm58mqz5Ka7MrJvqyu5+vuwsLH7Ozv7OR79/K09OHf3sNL/f/ny4eO9+jozdHJzrCt+/HxxMTC7e3s4eDZ3ddw7d5hz5EtyLF77+r0yHx568/W6NiUs4Rrsn6Ew8jG2tSJ//71/f3+/Pz6/Prg8+Pa687U7tTTvmlp4ba28NbX9ufn9PX19/f3///6vXBw7djY/v39+fPz/Pn5CdrmUAAAAAFiS0dEBfhv6ccAAAAJcEhZcwAAAEgAAABIAEbJaz4AAAFWSURBVDjLY2BAB4xMzCysbKzogGGEKGRjZecgzkROLm6CCnlYeVn5+AUEheCOwGUiGxursIiomDiYhVOhBKuklLSMrJy8gqKSsoqqGk6F6qwamlraOrp6+gaGRsYmpjgVmrGaW1haWdvY2tk7ODo5g92J3Y0urm7uHp5e3j6+fv4BgUHBQKVYFYaEhoVHREZFx8TGxSckJiWnAEMBh2dS09IzMrOyc3Lz8gsKi0B2Y1dYzFZSWlZeUVlVnVFTWwc0D2c41jc0NjW3tLa1d3R2dffg9HUva1//hImTJk+ZOm36jJmzZuO0eg7r3HmsrPMXLFy0eAkr69JlrNw4FS5fwbpy1eo1a9et38C6cRNOhb2sm7ds3bZ9x85du/fs3bf/AJ5EcfDQ4SNHjx0/cfLU6TNn2fAlM6AkL+u586zcBBMum8qFCxcv8XJzE5HCic9cvIMjXwMAtnNhztqhnUkAAAAldEVYdGRhdGU6Y3JlYXRlADIwMTMtMTAtMDdUMTM6MTQ6NDgrMDI6MDAuk0uoAAAAJXRFWHRkYXRlOm1vZGlmeQAyMDEzLTEwLTA3VDEzOjE0OjQ4KzAyOjAwX87zFAAAAABJRU5ErkJggg==",
    "name": {
      "common": "Vatican City",
      "deu": "Vatikanstadt",
      "fra": "CitÃ© du Vatican",
      "hrv": "Vatikan",
      "ita": "CittÃ  del Vaticano",
      "jpn": "ãƒãƒã‚«ãƒ³å¸‚å›½",
      "nld": "Vaticaanstad",
      "por": "Cidade do Vaticano",
      "rus": "Ğ’Ğ°Ñ‚Ğ¸ĞºĞ°Ğ½",
      "spa": "Ciudad del Vaticano",
      "svk": "VatikÃ¡n",
      "fin": "Vatikaani",
      "zho": "æ¢µè’‚å†ˆ",
      "isr": "×”×•×•×ª×™×§×Ÿ",
      "ces": "VatikÃ¡n",
      "slk": "VatikÃ¡n",
      "est": "Vatikan",
      "pol": "Watykan",
      "urd": "ÙˆÛŒÙ¹ÛŒÚ©Ù† Ø³Ù¹ÛŒ",
      "kor": "ë°”í‹°ì¹¸"
    }
  },
  "VC": {
    "currency": "XCD",
    "callingCode": "1784",
    "flag": "data:image/png;base64,iVBORw0KGgoAAAANSUhEUgAAACgAAAAeCAMAAABpA6zvAAAABGdBTUEAALGPC/xhBQAAAAFzUkdCAK7OHOkAAAAgY0hSTQAAeiYAAICEAAD6AAAAgOgAAHUwAADqYAAAOpgAABdwnLpRPAAAAW5QTFRFAFiqBFqnAE61mLhA//sA8O8D9PEA8fAA//cAotAAC5QAHJsAGZoA8/EA8vAA8/AA9/IA+/QA+/UA9vIA/fUA0OMApNEA//YAn9AA1uUAWbMAF5kA5uwA+PMA/PQA1+YAcL0A//gA8PAAqNMAD5YADJUAcb0A/PUAULAADZUAGJkAyOAA//UA7+4D4uoAKqEAFJgAG5sAFZgAxt8A+vQAmM0ACpQAIJ0AT7AA+vMA7e0DfMEABpIAHpwA5+wAKaAAGpoAHZwAttgA7u8A7u4DGJoADpYAptIAdL4AH5wAEpcAN6YA6u0A8O8AfcIAEJcAU7EAutoAzuIAK6EAFpkAsNYA7e4AL6MAEJYA1OQATa8A//wAAI4AXLUAnc8A//8Ae8EAEZcAsdYA//kAV7MA/vUAx98AOqcA8vEASa0AB5MAk8sAjcgAyuAA9fEA9/MAQKkAgMMAvtwACJMAMqQA7e8AYbcA7O4A9fIA////84ExSQAAAAFiS0dEeaHc1NAAAAAJcEhZcwAAAEgAAABIAEbJaz4AAAEqSURBVDjLY2CAAEYmZhZWNjTAzsHJxc0DAQzDWSEvH0QNHy9+hfwCgmCVfELCvPgU8omIiomzA1WIS0gK8uJRyC4uJS0jy8snJ8+loKiEWyE7h7KKqpqiEq+6hqaWtg4fLoW6snr6BoZGxiY6pmbmmhaWvEo4FFpxWNvYcnNJidvZGzg4cjmJO+NQ6CKnzePK7ebOIe5h5unl7SPsi9ONin6q/gEsgUFswSFuoRzsOD3DKxwWHhEpoh8V7R4TK86HL3gU4zziE7gSk5JTtFP58EYhu2CakWFiOl8Gobjmk8vU5LbNyubwJaCQXTyHy9HVMBcc5XhTT15+gQFXoSI7wfTILl5UXFIKSjuEEi47R1kcxEACCnmFy9nziMoKvBXE5hneQZ5dcSoEAMJHPXcKhncRAAAAJXRFWHRkYXRlOmNyZWF0ZQAyMDEzLTEwLTA3VDEzOjE0OjMxKzAyOjAwsc4HYgAAACV0RVh0ZGF0ZTptb2RpZnkAMjAxMy0xMC0wN1QxMzoxNDozMSswMjowMMCTv94AAAAASUVORK5CYII=",
    "name": {
      "common": "Saint Vincent and the Grenadines",
      "deu": "Saint Vincent und die Grenadinen",
      "fra": "Saint-Vincent-et-les-Grenadines",
      "hrv": "Sveti Vincent i Grenadini",
      "ita": "Saint Vincent e Grenadine",
      "jpn": "ã‚»ãƒ³ãƒˆãƒ“ãƒ³ã‚»ãƒ³ãƒˆãŠã‚ˆã³ã‚°ãƒ¬ãƒŠãƒ‡ã‚£ãƒ¼ãƒ³è«¸å³¶",
      "nld": "Saint Vincent en de Grenadines",
      "por": "SÃ£o Vincente e Granadinas",
      "rus": "Ğ¡ĞµĞ½Ñ‚-Ğ’Ğ¸Ğ½ÑĞµĞ½Ñ‚ Ğ¸ Ğ“Ñ€ĞµĞ½Ğ°Ğ´Ğ¸Ğ½Ñ‹",
      "spa": "San Vicente y Granadinas",
      "svk": "SvÃ¤tÃ½ Vincent a GrenadÃ­ny",
      "fin": "Saint Vincent ja Grenadiinit",
      "zho": "åœ£æ–‡æ£®ç‰¹å’Œæ ¼æ—çº³ä¸æ–¯",
      "isr": "×¡× ×˜ ×•×™× ×¡× ×˜ ×•×”×’×¨× ×“×™× ×™×",
      "ces": "SvatÃ½ Vincenc a Grenadiny",
      "slk": "SvÃ¤tÃ½ Vincent a GrenadÃ­ny",
      "est": "Saint Vincent",
      "pol": "Saint Vincent i Grenadyny",
      "urd": "Ø³ÛŒÙ†Ù¹ ÙˆÛŒÙ†Ø³ÛŒÙ†Ù¹ Ùˆ Ú¯Ø±ÛŒÙ†Ø§ÚˆØ§Ø¦Ù†Ø²",
      "kor": "ì„¸ì¸íŠ¸ë¹ˆì„¼íŠ¸ ê·¸ë ˆë‚˜ë”˜"
    }
  },
  "VE": {
    "currency": "VEF",
    "callingCode": "58",
    "flag": "data:image/png;base64,iVBORw0KGgoAAAANSUhEUgAAACgAAAAeCAMAAABpA6zvAAAABGdBTUEAALGPC/xhBQAAAAFzUkdCAK7OHOkAAAAgY0hSTQAAeiYAAICEAAD6AAAAgOgAAHUwAADqYAAAOpgAABdwnLpRPAAAANVQTFRF/8sA/80A4LMWHxikHhijHRejHxijAAC7AgK8EBDAAAC8AQG8LS7IMTHJDw/AAwO8AAC6OzvKoKDlIyPEAgK7hobejo7gBAS7Hh7Cnp7lQkLMBga8EhK/JyfFcHDYFhbAHR3CHx/Cbm7YLCzGAAC5ERG/Bwe8UVHQFxfAAQG6ExO/mprkWVnSMjLHY2PVDAy9CQm8YGDUNzfJGRnBBQW7MTHHr6/pMzPILS3GODjJGBjCW1zUGRnCFRbBWlzUGxzDGgCkGAGjGwCkwQAW3gAA3AAA////C5QEIwAAAAFiS0dERhe6+e0AAAAJcEhZcwAAAEgAAABIAEbJaz4AAACvSURBVDjLY2AYBVQBjEQCBiYiAQMzGmBhZmZlZQNRqICBHRVwcHJx8/BysPPxo0kwCKACQSFhEVExcQlJKTQJFIXSMgKycvICCooCMkrKKqpqOBWqS2oIaGqCWEBSS1sHl0IVXT19BM/A0EgFu0JxYxNNZDM0xY3FsSlUMTUzRzZCQMXCzBIhgBQ8VtY2qCFia2ePFDwOCODogAqckAUYnIkEDC5EAgZXIsGoQrwAAMoOjbEqrfOHAAAAJXRFWHRkYXRlOmNyZWF0ZQAyMDEzLTEwLTA3VDEzOjE1OjE3KzAyOjAwf/leGwAAACV0RVh0ZGF0ZTptb2RpZnkAMjAxMy0xMC0wN1QxMzoxNToxNyswMjowMA6k5qcAAAAASUVORK5CYII=",
    "name": {
      "common": "Venezuela",
      "deu": "Venezuela",
      "fra": "Venezuela",
      "hrv": "Venezuela",
      "ita": "Venezuela",
      "jpn": "ãƒ™ãƒã‚ºã‚¨ãƒ©ãƒ»ãƒœãƒªãƒãƒ«å…±å’Œå›½",
      "nld": "Venezuela",
      "por": "Venezuela",
      "rus": "Ğ’ĞµĞ½ĞµÑÑƒÑĞ»Ğ°",
      "spa": "Venezuela",
      "svk": "Venezuela",
      "fin": "Venezuela",
      "zho": "å§”å†…ç‘æ‹‰",
      "isr": "×•× ×¦×•××œ×”",
      "ces": "Venezuela",
      "slk": "Venezuela",
      "est": "Venezuela",
      "pol": "Wenezuela",
      "urd": "ÙˆÛŒÙ†ÛŒØ²ÙˆÛŒÙ„Ø§",
      "kor": "ë² ë„¤ìˆ˜ì—˜ë¼"
    }
  },
  "VG": {
    "currency": "USD",
    "callingCode": "1284",
    "flag": "data:image/png;base64,iVBORw0KGgoAAAANSUhEUgAAACgAAAAeCAIAAADRv8uKAAAABGdBTUEAALGPC/xhBQAAAAFzUkdCAK7OHOkAAAAgY0hSTQAAeiYAAICEAAD6AAAAgOgAAHUwAADqYAAAOpgAABdwnLpRPAAAAAZiS0dEAP8A/wD/oL2nkwAAAAlwSFlzAAAASAAAAEgARslrPgAAB65JREFUSMetlHtwFeUZxt/3+3b33HJuuZ1cTk4SKuGSIHeIEgRLoA4zglFA5Fodp8gISJV2BlJn7FRtEaqVMNCpHQhTdGqKigEtnVowBQUJNJAi94QEcr+c+9lzds9+39c/EtCOnbGEPLN/7c7ub5/vfd4Heyrm255aaSxcuvOdU9t+8V4w2E2IAwUhKSlnqufDE+WWrPTWtz+a++R+mQqDJQRYvcUFz49LPtL5eeFYX/fS50fN2QOGjkiEgP9f5Ld05qWaT6V1K7aMj1xq3rblN2sdThsTYQAGgAOfQkSAZJKT7NGjKh/Lqi08vSH9xoSq19XXf7/9/SYwEoj0rqgAIG09cO4th3fJWLrspe0lnt+9tv65F85Xvvn2sT++e4YlNQqACIaecLjtG2fYFvGv8pxWZcWay7kTt77xWU31mwAJgCxxt1gAfGbDhwlVi3B5RLFvVTFk/fOjlOnTHQsW9ugADQ1tpZNkp93TcEVvbU0/+amY+6hlytT6pvDuHUe7OwOZ2e5ISP1gX93dUgEAg5vWIyIlEI9pKpqozZrs9xsJLcVtT3R29f3lAEpy5vKl1Jaiy2ZKCQv4AcDptkmyZCK8sZtP26PftV8APAYAAAKAAsgAfOAugAEgAZgAACABwAEowACAACQBDEAziOvg+jEsGQJYmvhKJSFIKYnFtGhYVcwmdLuNSMwqiXhHV/eevSjLI9aukZyOaCAqKZKcnq5HVSvXTFaTWUKlMwlV/iEctfTszXGqqof80eKJBZteKS9Mk9XDtXD2VGv5MrfCyJ69is3C1/5Mz/UW2knw3T/FGi+0lC7c28iaG2+6FK4ldAGnEYEQ/L6ECUAUHAaSSC82xDtvBJ9cPXvj6gnZRw8Ef/nyv+uvv3ol/cWdZxaVptEP3jO7HFfGzX6gbHs8ok1ZPCfbTug7b2Weq7sVxdovu66ca0RUhOBCMCGEEPw717fFATgAAQDcveerVcsnWY8fjuzb3xC27GMlNQ3xaHurbHee3bdAenyOJSutacfH5UuqAVSXO2Pd5ooNzz2YcaFO21fdEqW7wkU7DrXked1FJa6okZQ4UuADQUlQSgSXOTMkpEyA4Caz3HxRbW3pR5SkCl+i8UeP+tH6Ycr0P59VYx1XCQoCshCkqy8GYDFza29/DIDIkjMUir36891Vrx1YX7l4ZeVu8yc1c/d/vAPSCkc7AtOORq/36JmKn0kK4VyI4lBf0GK9pljSArrqJj068aVa8xJzWlsACSDA47JkIY4Czd+FwAgxcTE4BpNCQdcBQciKrjMAQERKCWO6EDFZdijpHkONaqHAjIcLrhXVlrdfHV8ujt6wfNbvZCgfLJxysv7QVkfG6nj/yNnGP5qVr43cgksLTtd1EUIJ0Kwkt+v+TkokQBPj4k4NabqhgaQJSdeNwXgIYRgMQJIkV9IQsc62ZDQCQAkAM8l1GalMpy16CpPNwDWj4H4sngmEf+lxWYXoSFo0SaG3k0aQGcg5oPRt5OCOIyIIBIGI/5VOIQyDIyCigkABgCFYkmzardiJcIoAAkl1et7EB+cte3Z91Wirp6Q1eDTojDNiQsZuE4gAEAD/cxOEgO95evtXqRARStqLpHWFvQXmJKjxJePKFMWWL/iMvKKm+2D9iH6voumc4GAJgTSE3f+uDAQHY9JlqFRyzgfI+Oy8ySZHMBpqCfUWganhMt2o5FyJ0FTXN2dKhgVMQISReEfp20rbV2Ybk+y5h/w3C3z5qQC1PU3FE7Q/TGubZQ8Y/JuRDY9jIUCWRE3U01hjzkz9QQjb546cQAmcbDz+Re81NZ72U8M4E7aluuGO5eFxDEIQFIBo0+QVBfUPeevvT/dCwqD2dJAskz3hzZP6K9J7CON30jI8YEbRqrK8bvWi1/zXhONGxJ2fN9ogonTKD32pWUdClpqrjsOBNIMSHN4ZcwBkYlVuX9WUjqsd+PdeX4bLFY1FnTb7WGfurGRfSbZRmhJW+GCbDgtYAKAZWMCMtcJ96pa5CeyaCLX1ddgdDpfdUTqh7JjdKmusSbPpICRkA2/dKxiRAGgdnSnFiZyijv6AbPFKGkEqS2ZKKMj04dziqe38i7DLYIFCU74azgTQEMk9pRoRGdNsDu+GJa1x2+x2b2By+skLN3PMpkyt68LhYO8ol/Xg+bqeEsu6nBa3PmvmiHlS7qUNv8qNBLsR4CdDpYIQzOlOfXld70uLq9s6c/ae2nyw+9Y57RDXox4iepkyQhFtajBh8ZSlVjxdMm2+b1NWWtPOT9Zs2WqnAJOHBqYUhMDH5ttefGJ/JEI6OvxOOP6AZ1IOViRNynXVL0D4ubXYM3d55lNPj4n3X9tSmNneH3GO8X7dmyi9R8fc5bKtXQWtXfZl805Mz//82Bkw2cZwy+Iei/z+v/62qGRqkWRQ/Uhvz7WS++DY5VkNzeW5GeFd1Wzo4NviiIoQydFjfC88E5haeLDzVnO+Bzp60EjCI2XiyEkcWSiCuq+xbeGvd6U1N7UjKkJo9wpGhIHOYkyncupDMzLKJncW+y66rDfVRNxhVYJq9qlLY+ov5NWdCAAPUKIACC7IvTseFCEIwuCCITrMNrsnA60WEQrz3n6hx+MAYYIEUOK3S/M/RDXGpn3SjzAAAAAldEVYdGRhdGU6Y3JlYXRlADIwMTMtMTAtMDdUMTM6MTQ6MjgrMDI6MDDo/EIvAAAAJXRFWHRkYXRlOm1vZGlmeQAyMDEzLTEwLTA3VDEzOjE0OjI4KzAyOjAwmaH6kwAAAABJRU5ErkJggg==",
    "name": {
      "common": "British Virgin Islands",
      "deu": "Britische Jungferninseln",
      "fra": "Ãles Vierges britanniques",
      "hrv": "Britanski DjeviÄanski Otoci",
      "ita": "Isole Vergini Britanniche",
      "jpn": "ã‚¤ã‚®ãƒªã‚¹é ˜ãƒ´ã‚¡ãƒ¼ã‚¸ãƒ³è«¸å³¶",
      "nld": "Britse Maagdeneilanden",
      "por": "Ilhas Virgens",
      "rus": "Ğ‘Ñ€Ğ¸Ñ‚Ğ°Ğ½ÑĞºĞ¸Ğµ Ğ’Ğ¸Ñ€Ğ³Ğ¸Ğ½ÑĞºĞ¸Ğµ Ğ¾ÑÑ‚Ñ€Ğ¾Ğ²Ğ°",
      "spa": "Islas VÃ­rgenes del Reino Unido",
      "svk": "PanenskÃ© ostrovy",
      "fin": "Neitsytsaaret",
      "zho": "è‹±å±ç»´å°”äº¬ç¾¤å²›",
      "isr": "××™×™ ×”×‘×ª×•×œ×” ×”×‘×¨×™×˜×™×™×",
      "ces": "BritskÃ© PanenskÃ© ostrovy",
      "slk": "PanenskÃ© ostrovy",
      "est": "Briti Neitsisaared",
      "pol": "Brytyjskie Wyspy Dziewicze",
      "urd": "Ø¨Ø±Ø·Ø§Ù†ÙˆÛŒ Ø¬Ø²Ø§Ø¦Ø± ÙˆØ±Ø¬Ù†",
      "kor": "ì˜êµ­ë ¹ ë²„ì§„ì•„ì¼ëœë“œ"
    }
  },
  "VI": {
    "currency": "USD",
    "callingCode": "1340",
    "flag": "data:image/png;base64,iVBORw0KGgoAAAANSUhEUgAAACgAAAAeCAIAAADRv8uKAAAABGdBTUEAALGPC/xhBQAAAAFzUkdCAK7OHOkAAAAgY0hSTQAAeiYAAICEAAD6AAAAgOgAAHUwAADqYAAAOpgAABdwnLpRPAAAAAZiS0dEAP8A/wD/oL2nkwAAAAlwSFlzAAAASAAAAEgARslrPgAAB65JREFUSMetlHtwFeUZxt/3+3b33HJuuZ1cTk4SKuGSIHeIEgRLoA4zglFA5Fodp8gISJV2BlJn7FRtEaqVMNCpHQhTdGqKigEtnVowBQUJNJAi94QEcr+c+9lzds9+39c/EtCOnbGEPLN/7c7ub5/vfd4Heyrm255aaSxcuvOdU9t+8V4w2E2IAwUhKSlnqufDE+WWrPTWtz+a++R+mQqDJQRYvcUFz49LPtL5eeFYX/fS50fN2QOGjkiEgP9f5Ld05qWaT6V1K7aMj1xq3rblN2sdThsTYQAGgAOfQkSAZJKT7NGjKh/Lqi08vSH9xoSq19XXf7/9/SYwEoj0rqgAIG09cO4th3fJWLrspe0lnt+9tv65F85Xvvn2sT++e4YlNQqACIaecLjtG2fYFvGv8pxWZcWay7kTt77xWU31mwAJgCxxt1gAfGbDhwlVi3B5RLFvVTFk/fOjlOnTHQsW9ugADQ1tpZNkp93TcEVvbU0/+amY+6hlytT6pvDuHUe7OwOZ2e5ISP1gX93dUgEAg5vWIyIlEI9pKpqozZrs9xsJLcVtT3R29f3lAEpy5vKl1Jaiy2ZKCQv4AcDptkmyZCK8sZtP26PftV8APAYAAAKAAsgAfOAugAEgAZgAACABwAEowACAACQBDEAziOvg+jEsGQJYmvhKJSFIKYnFtGhYVcwmdLuNSMwqiXhHV/eevSjLI9aukZyOaCAqKZKcnq5HVSvXTFaTWUKlMwlV/iEctfTszXGqqof80eKJBZteKS9Mk9XDtXD2VGv5MrfCyJ69is3C1/5Mz/UW2knw3T/FGi+0lC7c28iaG2+6FK4ldAGnEYEQ/L6ECUAUHAaSSC82xDtvBJ9cPXvj6gnZRw8Ef/nyv+uvv3ol/cWdZxaVptEP3jO7HFfGzX6gbHs8ok1ZPCfbTug7b2Weq7sVxdovu66ca0RUhOBCMCGEEPw717fFATgAAQDcveerVcsnWY8fjuzb3xC27GMlNQ3xaHurbHee3bdAenyOJSutacfH5UuqAVSXO2Pd5ooNzz2YcaFO21fdEqW7wkU7DrXked1FJa6okZQ4UuADQUlQSgSXOTMkpEyA4Caz3HxRbW3pR5SkCl+i8UeP+tH6Ycr0P59VYx1XCQoCshCkqy8GYDFza29/DIDIkjMUir36891Vrx1YX7l4ZeVu8yc1c/d/vAPSCkc7AtOORq/36JmKn0kK4VyI4lBf0GK9pljSArrqJj068aVa8xJzWlsACSDA47JkIY4Czd+FwAgxcTE4BpNCQdcBQciKrjMAQERKCWO6EDFZdijpHkONaqHAjIcLrhXVlrdfHV8ujt6wfNbvZCgfLJxysv7QVkfG6nj/yNnGP5qVr43cgksLTtd1EUIJ0Kwkt+v+TkokQBPj4k4NabqhgaQJSdeNwXgIYRgMQJIkV9IQsc62ZDQCQAkAM8l1GalMpy16CpPNwDWj4H4sngmEf+lxWYXoSFo0SaG3k0aQGcg5oPRt5OCOIyIIBIGI/5VOIQyDIyCigkABgCFYkmzardiJcIoAAkl1et7EB+cte3Z91Wirp6Q1eDTojDNiQsZuE4gAEAD/cxOEgO95evtXqRARStqLpHWFvQXmJKjxJePKFMWWL/iMvKKm+2D9iH6voumc4GAJgTSE3f+uDAQHY9JlqFRyzgfI+Oy8ySZHMBpqCfUWganhMt2o5FyJ0FTXN2dKhgVMQISReEfp20rbV2Ybk+y5h/w3C3z5qQC1PU3FE7Q/TGubZQ8Y/JuRDY9jIUCWRE3U01hjzkz9QQjb546cQAmcbDz+Re81NZ72U8M4E7aluuGO5eFxDEIQFIBo0+QVBfUPeevvT/dCwqD2dJAskz3hzZP6K9J7CON30jI8YEbRqrK8bvWi1/zXhONGxJ2fN9ogonTKD32pWUdClpqrjsOBNIMSHN4ZcwBkYlVuX9WUjqsd+PdeX4bLFY1FnTb7WGfurGRfSbZRmhJW+GCbDgtYAKAZWMCMtcJ96pa5CeyaCLX1ddgdDpfdUTqh7JjdKmusSbPpICRkA2/dKxiRAGgdnSnFiZyijv6AbPFKGkEqS2ZKKMj04dziqe38i7DLYIFCU74azgTQEMk9pRoRGdNsDu+GJa1x2+x2b2By+skLN3PMpkyt68LhYO8ol/Xg+bqeEsu6nBa3PmvmiHlS7qUNv8qNBLsR4CdDpYIQzOlOfXld70uLq9s6c/ae2nyw+9Y57RDXox4iepkyQhFtajBh8ZSlVjxdMm2+b1NWWtPOT9Zs2WqnAJOHBqYUhMDH5ttefGJ/JEI6OvxOOP6AZ1IOViRNynXVL0D4ubXYM3d55lNPj4n3X9tSmNneH3GO8X7dmyi9R8fc5bKtXQWtXfZl805Mz//82Bkw2cZwy+Iei/z+v/62qGRqkWRQ/Uhvz7WS++DY5VkNzeW5GeFd1Wzo4NviiIoQydFjfC88E5haeLDzVnO+Bzp60EjCI2XiyEkcWSiCuq+xbeGvd6U1N7UjKkJo9wpGhIHOYkyncupDMzLKJncW+y66rDfVRNxhVYJq9qlLY+ov5NWdCAAPUKIACC7IvTseFCEIwuCCITrMNrsnA60WEQrz3n6hx+MAYYIEUOK3S/M/RDXGpn3SjzAAAAAldEVYdGRhdGU6Y3JlYXRlADIwMTMtMTAtMDdUMTM6MTQ6NTIrMDI6MDBGSRR4AAAAJXRFWHRkYXRlOm1vZGlmeQAyMDEzLTEwLTA3VDEzOjE0OjUyKzAyOjAwNxSsxAAAAABJRU5ErkJggg==",
    "name": {
      "common": "United States Virgin Islands",
      "deu": "Amerikanische Jungferninseln",
      "fra": "Ãles Vierges des Ã‰tats-Unis",
      "hrv": "AmeriÄki DjeviÄanski Otoci",
      "ita": "Isole Vergini americane",
      "jpn": "ã‚¢ãƒ¡ãƒªã‚«é ˜ãƒ´ã‚¡ãƒ¼ã‚¸ãƒ³è«¸å³¶",
      "nld": "Amerikaanse Maagdeneilanden",
      "por": "Ilhas Virgens dos Estados Unidos",
      "rus": "Ğ’Ğ¸Ñ€Ğ³Ğ¸Ğ½ÑĞºĞ¸Ğµ ĞÑÑ‚Ñ€Ğ¾Ğ²Ğ°",
      "spa": "Islas VÃ­rgenes de los Estados Unidos",
      "svk": "AmerickÃ© PanenskÃ© ostrovy",
      "fin": "Neitsytsaaret",
      "zho": "ç¾å±ç»´å°”äº¬ç¾¤å²›",
      "isr": "××™×™ ×”×‘×ª×•×œ×” ×©×œ ××¨×¦×•×ª ×”×‘×¨×™×ª",
      "ces": "AmerickÃ© PanenskÃ© ostrovy",
      "slk": "AmerickÃ© PanenskÃ© ostrovy",
      "est": "Neitsisaared, USA",
      "pol": "Wyspy Dziewicze StanÃ³w Zjednoczonych",
      "urd": "Ø§Ù…Ø±ÛŒÚ©ÛŒ Ø¬Ø²Ø§Ø¦Ø± ÙˆØ±Ø¬Ù†",
      "kor": "ë¯¸êµ­ë ¹ ë²„ì§„ì•„ì¼ëœë“œ"
    }
  },
  "VN": {
    "currency": "VND",
    "callingCode": "84",
    "flag": "data:image/png;base64,iVBORw0KGgoAAAANSUhEUgAAACgAAAAeCAMAAABpA6zvAAAABGdBTUEAALGPC/xhBQAAAAFzUkdCAK7OHOkAAAAgY0hSTQAAeiYAAICEAAD6AAAAgOgAAHUwAADqYAAAOpgAABdwnLpRPAAAAPZQTFRF7AAV7AEV7AkV7RQU7AIV6wAW8DoQ9YAL7AMV7AQV6gAX9XoL/N4D+rsG//8A7ywS7h4T/vAB9XcL7AYU7AAW818O+8QF6wEW7AUV7yYS7hoT7iES7RQT+bIG//4A/vgB8UAQ7h0T7yUS7yMS7h4S8DAR7hkT9X0L//kA/vQB//oA//0A//wA//sA7hwT8lMO95YJ7iET+8kE/vYB810N6wAX95UJ/NsD7y4R7zkR+KoI7QYU9oYK/uwC+8oE/NQE+KEI8k8P7ygS//kB+bMG81wN95gJ9G8M9XYL/NUD/eYC7AcV+KMI+J8I8UYP6wUW7RIT////RWZ05wAAAAFiS0dEUZRpfCoAAAAJcEhZcwAAAEgAAABIAEbJaz4AAAD7SURBVDjL3ZFZN8RAFIQTuUW6USaW0QYJYxsi9tjGMmPf+f+/Rseb43TLo6Ne+j5859atriD4WwrrcnXBgajWTsHgEOIaoNLDI6hjLBjlGMSfQkTioJFwHBN2FOelwCSUniKbmIaVizMzrVZjdm6eabaw2F5aXll1pV9jZ72zkZNpvllkbG45wBDbCXOmZIVyx8B1ZIzdPUtWHPcPytgdXcEcVhtzHh2XylePwYl1LQqe6q6/FpwxS1nw/Ne+L8jLniX73r4FV9e8ifRtwjsvqMp7PkBM2X58evZ5h8FLXyuxp6rXN+/KboSvX5Hg/cOfJoy/vx7zn9P/0ydsjBUrBoCy/wAAACV0RVh0ZGF0ZTpjcmVhdGUAMjAxMy0xMC0wN1QxMzoxNDo0MSswMjowMLsLDnsAAAAldEVYdGRhdGU6bW9kaWZ5ADIwMTMtMTAtMDdUMTM6MTQ6NDErMDI6MDDKVrbHAAAAAElFTkSuQmCC",
    "name": {
      "common": "Vietnam",
      "deu": "Vietnam",
      "fra": "ViÃªt Nam",
      "hrv": "Vijetnam",
      "ita": "Vietnam",
      "jpn": "ãƒ™ãƒˆãƒŠãƒ ",
      "nld": "Vietnam",
      "por": "Vietname",
      "rus": "Ğ’ÑŒĞµÑ‚Ğ½Ğ°Ğ¼",
      "spa": "Vietnam",
      "svk": "Vietnam",
      "fin": "Vietnam",
      "zho": "è¶Šå—",
      "isr": "×•×™×™×˜× ××",
      "ces": "Vietnam",
      "slk": "Vietnam",
      "est": "Vietnam",
      "pol": "Wietnam",
      "urd": "ÙˆÛŒØªÙ†Ø§Ù…",
      "kor": "ë² íŠ¸ë‚¨"
    }
  },
  "VU": {
    "currency": "VUV",
    "callingCode": "678",
    "flag": "data:image/png;base64,iVBORw0KGgoAAAANSUhEUgAAACgAAAAeCAMAAABpA6zvAAAABGdBTUEAALGPC/xhBQAAAAFzUkdCAK7OHOkAAAAgY0hSTQAAeiYAAICEAAD6AAAAgOgAAHUwAADqYAAAOpgAABdwnLpRPAAAApFQTFRFQgQAFTcUMYYzogAA0AAAzwAAzgAAiosAPyQAdQAAwwAA0QAA+/sA1dcAYV4ARQoAnQAAYmIAz88A+PgApacAQS4AZwEAvAAAAAAAHBwAiIgA7u4A4eMAb28AQA8AkgAAzAAAAwMAPT0At7cAtbgARzoAWwIAtQAADg4AaGgA3d0A6usAf4AAPBYAhQAAyQAAJiYAmJgA8vIAxMcAUEkAUQQArAAABQUASkoAxcUA7/AAj5IAPB8AeAAAxAAAFBQAeHgA5eUA0tQAXFkASAgAoQAAAQEAMDAAqakAoKMAPyoAbAAAvwAAIiIAVlYAZGQAS0sAEhIACQkAWVkA0dEA3N0AamkAQQ0AlgAAzQAAjIwAVVUAQkIAh4cAICAAiYkA5+cAsLMARTYAYAEAtgAAywAACwsAjY0ANDQAVFQADAwARUUAe3sAuLgA4eIAenoAOBMAQAAAQQAAUlIArKwAkJAADw8ADQ0A4+MAyMoAoKQAoaQAFRUAGBgAIyMAUFAAMzMAaWkA5OQAycgAoqAAo6EAY2MAjo4ANzcAUVEAfX0AX18APj4AubkA4eEAeXkAHzIMFDYUQUEAf38AmpoAi4sAHR0AiooAsrAAOkIFHU8eOJc5P6g/Hh4AMTEAWloA0tIA3NsAaWoBHDgRLXwwQKlAQKtAQKpAqqoAoaAAMDsHIFkjO548QaxB09IAWVsCGz0VMIUzBgYAxsYA7+8AkI8AKDcJI2MnPaI9mZkAxsQAS08DG0QZNI426+oAf34AITYMJ24rPqY/trUAPkUEHEwdN5U54uEAbm4BHTcQK3guP6lAQatB0NAApqQAMz0GH1UhOps71tUAXmABGzsTL4IyiokALDoJImAlPKE9////Sn83tQAAAAN0Uk5T/v7+lRaJLAAAAAFiS0dE2u4DJoIAAAAJcEhZcwAAAEgAAABIAEbJaz4AAAGuSURBVDjLY2BgZmFlIwIwsHNwcnETo5CHl49fgI2woQyCQsIiomLiBA1lkJCUkpaRlZNXYCGkUEJRSVlYRVVNnZuVgEIJCQ1NLW0dXT19FkIKJSQMDI2MTUzN8IQUVKGEuYWllbWNrR03IYUSEvYOjk7OLq6srIQUSri5e0h7enn7cONW6OvnHxAIpIOCQ0LDwiMiWXAoVIqKjvGPjQNpkYxPSExKTlFIxQBAhWnpBhmZWdk5biCVikq5efkFhUUYAKgwLkqxuEQjsLQM4tRyzYrKqmoMAFRYY1hbVy/ZkB4EVdjY1NzSigFAbmxrV+ro7OoGK1Ps6e3rnzARE4AUmk+aPGWqbBZI3bTpCTNmzpo9BxNAwnGu3zxzUPDMX7Bw0eIlS5ctxwTIAT5vhfTKVavXrF2+HK/Cmn7Hdes3bFy2bDlehZsCNm/Zum37DuzGIRQa7DTatXvP3rXLluNVqNGotW//gYOHcBoHUQjKCoePHD2GTxlI4bR46eMnTp46fWY5foVtZ4XPnb9wEb9xIIU8ly5fubp8GSF1yxmuXb9xk6BxIIWMTGsJGwcEAK2Qk7NAptKcAAAAJXRFWHRkYXRlOmNyZWF0ZQAyMDEzLTEwLTA3VDEzOjE0OjQwKzAyOjAwHXwFzwAAACV0RVh0ZGF0ZTptb2RpZnkAMjAxMy0xMC0wN1QxMzoxNDo0MCswMjowMGwhvXMAAAAASUVORK5CYII=",
    "name": {
      "common": "Vanuatu",
      "deu": "Vanuatu",
      "fra": "Vanuatu",
      "hrv": "Vanuatu",
      "ita": "Vanuatu",
      "jpn": "ãƒãƒŒã‚¢ãƒ„",
      "nld": "Vanuatu",
      "por": "Vanuatu",
      "rus": "Ğ’Ğ°Ğ½ÑƒĞ°Ñ‚Ñƒ",
      "spa": "Vanuatu",
      "svk": "Vanuatu",
      "fin": "Vanuatu",
      "zho": "ç“¦åŠªé˜¿å›¾",
      "isr": "×•× ×•××˜×•",
      "ces": "Vanuatu",
      "slk": "Vanuatu",
      "est": "Vanuatu",
      "pol": "Vanuatu",
      "urd": "ÙˆØ§Ù†ÙˆØ§ØªÙˆ",
      "kor": "ë°”ëˆ„ì•„íˆ¬"
    }
  },
  "WF": {
    "callingCode": "+681",
    "flag": "",
    "name": "Wallis and Futuna"
  },
  "WS": {
    "callingCode": "+685",
    "flag": "",
    "name": "Samoa"
  },
  "YE": {
    "callingCode": "+967",
    "flag": "",
    "name": "Yemen"
  },
  "ZA": {
    "callingCode": "+27",
    "flag": "",
    "name": "South Africa"
  },
  "ZM": {
    "callingCode": "+260",
    "flag": "",
    "name": "Zambia"
  },
  "ZW": {
    "callingCode": "+263",
    "flag": "",
    "name": "Zimbabwe"
  }
}
